{"type":"FeatureCollection","features":[{"type":"Feature","geometry":{"type":"Point","coordinates":[2.3758,49.7697]},"properties":{"title":"JAF9BV (Bulgaria)","summary":"JAF9BV (Bulgaria) — icao24: 4520ce · position: (49.7697, 2.3758) · alt: 6042m · 720km/h","date":"2026-10-06T13:57:24Z","ts":1791295044,"severity":3,"source":"vip_flights","url":"https://opensky-network.org/aircraft-profile?icao24=4520ce","layer":"flights","callsign":"JAF9BV","country":"Bulgaria","altitude_m":6042.66}},{"type":"Feature","geometry":{"type":"Point","coordinates":[-0.3576,49.2033]},"properties":{"title":"SAMU37 (France)","summary":"SAMU37 (France) — icao24: 39ca87 · position: (49.2033, -0.3576) · alt: 45m · 86km/h","date":"2026-10-02T13:31:17Z","ts":1790947877,"severity":3,"source":"vip_flights","url":"https://opensky-network.org/aircraft-profile?icao24=39ca87","layer":"flights","callsign":"SAMU37","country":"France","altitude_m":45.72}},{"type":"Feature","geometry":{"type":"Point","coordinates":[-76.7227,45.4757]},"properties":{"title":"CFC2558 (Canada)","summary":"CFC2558 (Canada) — icao24: c2b5c1 · position: (45.4757, -76.7227) · alt: 6705m · 469km/h","date":"2026-10-02T13:31:17Z","ts":1790947877,"severity":5,"source":"vip_flights","url":"https://opensky-network.org/aircraft-profile?icao24=c2b5c1","layer":"flights","callsign":"CFC2558","country":"Canada","altitude_m":6705.6,"watch_areas":["Arctic + High North"]}},{"type":"Feature","geometry":{"type":"Point","coordinates":[21.4664,38.0221]},"properties":{"title":"KAF3224 (Kuwait)","summary":"KAF3224 (Kuwait) — icao24: 7061f6 · position: (38.0221, 21.4664) · alt: 8839m · 553km/h","date":"2026-10-09T14:09:02Z","ts":1791554942,"severity":3,"source":"vip_flights","url":"https://opensky-network.org/aircraft-profile?icao24=7061f6","layer":"flights","callsign":"KAF3224","country":"Kuwait","altitude_m":8839.2}},{"type":"Feature","geometry":{"type":"Point","coordinates":[10.5436,52.6104]},"properties":{"title":"GAF721 (Germany)","summary":"GAF721 (Germany) — icao24: 3f59f3 · position: (52.6104, 10.5436) · alt: 4686m · 584km/h","date":"2026-10-08T14:22:14Z","ts":1791469334,"severity":3,"source":"vip_flights","url":"https://opensky-network.org/aircraft-profile?icao24=3f59f3","layer":"flights","callsign":"GAF721","country":"Germany","altitude_m":4686.3}},{"type":"Feature","geometry":{"type":"Point","coordinates":[4.4857,50.9028]},"properties":{"title":"JAF12M (Belgium)","summary":"JAF12M (Belgium) — icao24: 44d1a2 · position: (50.9028, 4.4857) · on ground","date":"2026-10-09T14:09:02Z","ts":1791554942,"severity":3,"source":"vip_flights","url":"https://opensky-network.org/aircraft-profile?icao24=44d1a2","layer":"flights","callsign":"JAF12M","country":"Belgium","altitude_m":0.0}},{"type":"Feature","geometry":{"type":"Point","coordinates":[6.326,49.6688]},"properties":{"title":"GAF634 (Germany)","summary":"GAF634 (Germany) — icao24: 3ebe12 · position: (49.6688, 6.326) · alt: 1493m · 458km/h","date":"2026-10-02T13:31:17Z","ts":1790947877,"severity":3,"source":"vip_flights","url":"https://opensky-network.org/aircraft-profile?icao24=3ebe12","layer":"flights","callsign":"GAF634","country":"Germany","altitude_m":1493.52}},{"type":"Feature","geometry":{"type":"Point","coordinates":[21.4669,36.0934]},"properties":{"title":"FAF4095 (France)","summary":"FAF4095 (France) — icao24: 3b7569 · position: (36.0934, 21.4669) · alt: 12192m · 818km/h","date":"2026-10-05T15:33:02Z","ts":1791214382,"severity":4,"source":"vip_flights","url":"https://opensky-network.org/aircraft-profile?icao24=3b7569","layer":"flights","callsign":"FAF4095","country":"France","altitude_m":12192.0}},{"type":"Feature","geometry":{"type":"Point","coordinates":[-68.3979,44.0753]},"properties":{"title":"NCR804 (United States)","summary":"NCR804 (United States) — icao24: acfc26 · position: (44.0753, -68.3979) · alt: 10058m · 1105km/h","date":"2026-10-08T14:22:14Z","ts":1791469334,"severity":6,"source":"vip_flights","url":"https://opensky-network.org/aircraft-profile?icao24=acfc26","layer":"flights","callsign":"NCR804","country":"United States","altitude_m":10058.4,"watch_areas":["Arctic + High North"]}},{"type":"Feature","geometry":{"type":"Point","coordinates":[-22.6024,64.1187]},"properties":{"title":"GAF637 (Germany)","summary":"GAF637 (Germany) — icao24: 3ebd41 · position: (64.1187, -22.6024) · alt: 746m · 319km/h","date":"2026-10-02T13:31:17Z","ts":1790947877,"severity":3,"source":"vip_flights","url":"https://opensky-network.org/aircraft-profile?icao24=3ebd41","layer":"flights","callsign":"GAF637","country":"Germany","altitude_m":746.76}},{"type":"Feature","geometry":{"type":"Point","coordinates":[-11.9571,56.0242]},"properties":{"title":"RCH867 (United States)","summary":"RCH867 (United States) — icao24: ae07da · position: (56.0242, -11.9571) · alt: 9144m · 755km/h","date":"2026-10-02T13:31:17Z","ts":1790947877,"severity":6,"source":"vip_flights","url":"https://opensky-network.org/aircraft-profile?icao24=ae07da","layer":"flights","callsign":"RCH867","country":"United States","altitude_m":9144.0,"watch_areas":["Arctic + High North"]}},{"type":"Feature","geometry":{"type":"Point","coordinates":[4.4922,50.9134]},"properties":{"title":"BAF680 (Belgium)","summary":"BAF680 (Belgium) — icao24: 44f684 · position: (50.9134, 4.4922) · on ground","date":"2026-10-02T13:31:17Z","ts":1790947877,"severity":3,"source":"vip_flights","url":"https://opensky-network.org/aircraft-profile?icao24=44f684","layer":"flights","callsign":"BAF680","country":"Belgium","altitude_m":0.0}},{"type":"Feature","geometry":{"type":"Point","coordinates":[4.3701,45.4833]},"properties":{"title":"SAMU42 (France)","summary":"SAMU42 (France) — icao24: 39ac4d · position: (45.4833, 4.3701) · alt: 480m · 115km/h","date":"2026-10-09T14:09:02Z","ts":1791554942,"severity":3,"source":"vip_flights","url":"https://opensky-network.org/aircraft-profile?icao24=39ac4d","layer":"flights","callsign":"SAMU42","country":"France","altitude_m":480.06}},{"type":"Feature","geometry":{"type":"Point","coordinates":[-122.1511,56.2664]},"properties":{"title":"NCR900 (United States)","summary":"NCR900 (United States) — icao24: a7488c · position: (56.2664, -122.1511) · alt: 11582m · 872km/h","date":"2026-10-05T15:33:02Z","ts":1791214382,"severity":6,"source":"vip_flights","url":"https://opensky-network.org/aircraft-profile?icao24=a7488c","layer":"flights","callsign":"NCR900","country":"United States","altitude_m":11582.4,"watch_areas":["Arctic + High North"]}},{"type":"Feature","geometry":{"type":"Point","coordinates":[18.6387,51.2684]},"properties":{"title":"RRR6629 (United Kingdom)","summary":"RRR6629 (United Kingdom) — icao24: 43c173 · position: (51.2684, 18.6387) · alt: 9753m · 840km/h","date":"2026-10-02T13:31:17Z","ts":1790947877,"severity":4,"source":"vip_flights","url":"https://opensky-network.org/aircraft-profile?icao24=43c173","layer":"flights","callsign":"RRR6629","country":"United Kingdom","altitude_m":9753.6}},{"type":"Feature","geometry":{"type":"Point","coordinates":[-0.582,52.2465]},"properties":{"title":"GAFTL (United Kingdom)","summary":"GAFTL (United Kingdom) — icao24: 407dbc · position: (52.2465, -0.582) · alt: 678m · 252km/h","date":"2026-10-02T13:31:17Z","ts":1790947877,"severity":3,"source":"vip_flights","url":"https://opensky-network.org/aircraft-profile?icao24=407dbc","layer":"flights","callsign":"GAFTL","country":"United Kingdom","altitude_m":678.18}},{"type":"Feature","geometry":{"type":"Point","coordinates":[-80.8275,44.6715]},"properties":{"title":"NCR660 (United States)","summary":"NCR660 (United States) — icao24: acb84d · position: (44.6715, -80.8275) · alt: 6461m · 979km/h","date":"2026-10-09T14:09:02Z","ts":1791554942,"severity":5,"source":"vip_flights","url":"https://opensky-network.org/aircraft-profile?icao24=acb84d","layer":"flights","callsign":"NCR660","country":"United States","altitude_m":6461.76,"watch_areas":["Arctic + High North"]}},{"type":"Feature","geometry":{"type":"Point","coordinates":[14.415,51.7679]},"properties":{"title":"GAF679 (Germany)","summary":"GAF679 (Germany) — icao24: 3f9a70 · position: (51.7679, 14.415) · alt: 144m · 193km/h","date":"2026-10-02T13:31:17Z","ts":1790947877,"severity":3,"source":"vip_flights","url":"https://opensky-network.org/aircraft-profile?icao24=3f9a70","layer":"flights","callsign":"GAF679","country":"Germany","altitude_m":144.78}},{"type":"Feature","geometry":{"type":"Point","coordinates":[-86.9268,24.0479]},"properties":{"title":"RCH9990 (United States)","summary":"RCH9990 (United States) — icao24: ae04b8 · position: (24.0479, -86.9268) · alt: 9761m · 885km/h","date":"2026-10-02T13:31:17Z","ts":1790947877,"severity":6,"source":"vip_flights","url":"https://opensky-network.org/aircraft-profile?icao24=ae04b8","layer":"flights","callsign":"RCH9990","country":"United States","altitude_m":9761.22,"watch_areas":["Arctic + High North"]}},{"type":"Feature","geometry":{"type":"Point","coordinates":[-96.3731,44.8133]},"properties":{"title":"PAT844 (United States)","summary":"PAT844 (United States) — icao24: ae03fb · position: (44.8133, -96.3731) · alt: 6705m · 406km/h","date":"2026-10-02T13:31:17Z","ts":1790947877,"severity":5,"source":"vip_flights","url":"https://opensky-network.org/aircraft-profile?icao24=ae03fb","layer":"flights","callsign":"PAT844","country":"United States","altitude_m":6705.6,"watch_areas":["Arctic + High North"]}},{"type":"Feature","geometry":{"type":"Point","coordinates":[-117.0367,33.735]},"properties":{"title":"NCR317 (United States)","summary":"NCR317 (United States) — icao24: ac633f · position: (33.735, -117.0367) · alt: 1554m · 408km/h","date":"2026-10-08T14:22:14Z","ts":1791469334,"severity":5,"source":"vip_flights","url":"https://opensky-network.org/aircraft-profile?icao24=ac633f","layer":"flights","callsign":"NCR317","country":"United States","altitude_m":1554.48,"watch_areas":["Arctic + High North"]}},{"type":"Feature","geometry":{"type":"Point","coordinates":[-5.3474,36.1496]},"properties":{"title":"RRR4201 (United Kingdom)","summary":"RRR4201 (United Kingdom) — icao24: 43c5df · position: (36.1496, -5.3474) · on ground","date":"2026-10-02T13:31:17Z","ts":1790947877,"severity":3,"source":"vip_flights","url":"https://opensky-network.org/aircraft-profile?icao24=43c5df","layer":"flights","callsign":"RRR4201","country":"United Kingdom","altitude_m":0.0}},{"type":"Feature","geometry":{"type":"Point","coordinates":[4.4703,50.902]},"properties":{"title":"JAF12M (Belgium)","summary":"JAF12M (Belgium) — icao24: 44d2ab · position: (50.902, 4.4703) · on ground · 21km/h","date":"2026-10-06T13:57:24Z","ts":1791295044,"severity":3,"source":"vip_flights","url":"https://opensky-network.org/aircraft-profile?icao24=44d2ab","layer":"flights","callsign":"JAF12M","country":"Belgium","altitude_m":0.0}},{"type":"Feature","geometry":{"type":"Point","coordinates":[11.1151,47.5925]},"properties":{"title":"JAF963P (Belgium)","summary":"JAF963P (Belgium) — icao24: 44d2aa · position: (47.5925, 11.1151) · alt: 11201m · 764km/h","date":"2026-10-09T14:09:02Z","ts":1791554942,"severity":4,"source":"vip_flights","url":"https://opensky-network.org/aircraft-profile?icao24=44d2aa","layer":"flights","callsign":"JAF963P","country":"Belgium","altitude_m":11201.4}},{"type":"Feature","geometry":{"type":"Point","coordinates":[2.7352,49.1137]},"properties":{"title":"JAF6LD (Belgium)","summary":"JAF6LD (Belgium) — icao24: 449682 · position: (49.1137, 2.7352) · alt: 10668m · 805km/h","date":"2026-10-09T14:09:02Z","ts":1791554942,"severity":4,"source":"vip_flights","url":"https://opensky-network.org/aircraft-profile?icao24=449682","layer":"flights","callsign":"JAF6LD","country":"Belgium","altitude_m":10668.0}},{"type":"Feature","geometry":{"type":"Point","coordinates":[-79.4379,28.7483]},"properties":{"title":"RRR2883 (United Kingdom)","summary":"RRR2883 (United Kingdom) — icao24: 43c6fa · position: (28.7483, -79.4379) · alt: 11887m · 890km/h","date":"2026-10-02T13:31:17Z","ts":1790947877,"severity":4,"source":"vip_flights","url":"https://opensky-network.org/aircraft-profile?icao24=43c6fa","layer":"flights","callsign":"RRR2883","country":"United Kingdom","altitude_m":11887.2}},{"type":"Feature","geometry":{"type":"Point","coordinates":[7.5311,43.5771]},"properties":{"title":"RRR9227 (United Kingdom)","summary":"RRR9227 (United Kingdom) — icao24: 43c6f3 · position: (43.5771, 7.5311) · alt: 6400m · 738km/h","date":"2026-10-02T13:31:17Z","ts":1790947877,"severity":3,"source":"vip_flights","url":"https://opensky-network.org/aircraft-profile?icao24=43c6f3","layer":"flights","callsign":"RRR9227","country":"United Kingdom","altitude_m":6400.8}},{"type":"Feature","geometry":{"type":"Point","coordinates":[4.2413,47.1566]},"properties":{"title":"FAF9178 (France)","summary":"FAF9178 (France) — icao24: 3b77ec · position: (47.1566, 4.2413) · alt: 7620m · 478km/h","date":"2026-10-02T13:31:17Z","ts":1790947877,"severity":3,"source":"vip_flights","url":"https://opensky-network.org/aircraft-profile?icao24=3b77ec","layer":"flights","callsign":"FAF9178","country":"France","altitude_m":7620.0}},{"type":"Feature","geometry":{"type":"Point","coordinates":[9.9491,52.8102]},"properties":{"title":"GAF341 (Germany)","summary":"GAF341 (Germany) — icao24: 3e8819 · position: (52.8102, 9.9491) · alt: 2499m · 481km/h","date":"2026-10-02T13:31:17Z","ts":1790947877,"severity":3,"source":"vip_flights","url":"https://opensky-network.org/aircraft-profile?icao24=3e8819","layer":"flights","callsign":"GAF341","country":"Germany","altitude_m":2499.36}},{"type":"Feature","geometry":{"type":"Point","coordinates":[113.9276,22.3231]},"properties":{"title":"AF21 (China)","summary":"AF21 (China) — icao24: 7b103c · position: (22.3231, 113.9276) · on ground · 48km/h","date":"2026-10-02T13:31:17Z","ts":1790947877,"severity":5,"source":"vip_flights","url":"https://opensky-network.org/aircraft-profile?icao24=7b103c","layer":"flights","callsign":"AF21","country":"China","altitude_m":0.0,"watch_areas":["Taiwan Strait + South China Sea","Korean peninsula"]}},{"type":"Feature","geometry":{"type":"Point","coordinates":[7.8142,50.9993]},"properties":{"title":"GAF628 (Germany)","summary":"GAF628 (Germany) — icao24: 3f6533 · position: (50.9993, 7.8142) · alt: 5227m · 771km/h","date":"2026-10-03T12:17:06Z","ts":1791029826,"severity":3,"source":"vip_flights","url":"https://opensky-network.org/aircraft-profile?icao24=3f6533","layer":"flights","callsign":"GAF628","country":"Germany","altitude_m":5227.32}},{"type":"Feature","geometry":{"type":"Point","coordinates":[-6.0264,34.7816]},"properties":{"title":"JAF5GA (Bulgaria)","summary":"JAF5GA (Bulgaria) — icao24: 4520aa · position: (34.7816, -6.0264) · alt: 11285m · 718km/h","date":"2026-10-06T13:57:24Z","ts":1791295044,"severity":4,"source":"vip_flights","url":"https://opensky-network.org/aircraft-profile?icao24=4520aa","layer":"flights","callsign":"JAF5GA","country":"Bulgaria","altitude_m":11285.22}},{"type":"Feature","geometry":{"type":"Point","coordinates":[15.7039,51.0715]},"properties":{"title":"CFC2913 (Canada)","summary":"CFC2913 (Canada) — icao24: c2b5cb · position: (51.0715, 15.7039) · alt: 7924m · 581km/h","date":"2026-10-08T14:22:14Z","ts":1791469334,"severity":5,"source":"vip_flights","url":"https://opensky-network.org/aircraft-profile?icao24=c2b5cb","layer":"flights","callsign":"CFC2913","country":"Canada","altitude_m":7924.8,"watch_areas":["Arctic + High North"]}},{"type":"Feature","geometry":{"type":"Point","coordinates":[15.34,46.2931]},"properties":{"title":"CFC2902 (Canada)","summary":"CFC2902 (Canada) — icao24: c2b5b7 · position: (46.2931, 15.34) · alt: 7002m · 583km/h","date":"2026-10-04T13:06:28Z","ts":1791119188,"severity":5,"source":"vip_flights","url":"https://opensky-network.org/aircraft-profile?icao24=c2b5b7","layer":"flights","callsign":"CFC2902","country":"Canada","altitude_m":7002.78,"watch_areas":["Arctic + High North"]}},{"type":"Feature","geometry":{"type":"Point","coordinates":[-2.0075,45.9982]},"properties":{"title":"CFC2580 (Canada)","summary":"CFC2580 (Canada) — icao24: c2b57b · position: (45.9982, -2.0075) · alt: 7924m · 554km/h","date":"2026-10-07T14:13:16Z","ts":1791382396,"severity":5,"source":"vip_flights","url":"https://opensky-network.org/aircraft-profile?icao24=c2b57b","layer":"flights","callsign":"CFC2580","country":"Canada","altitude_m":7924.8,"watch_areas":["Arctic + High North"]}},{"type":"Feature","geometry":{"type":"Point","coordinates":[16.1856,37.1664]},"properties":{"title":"EAGLE7 (Kingdom of the Netherlands)","summary":"EAGLE7 (Kingdom of the Netherlands) — icao24: 486462 · position: (37.1664, 16.1856) · alt: 1493m · 284km/h","date":"2026-10-09T14:09:02Z","ts":1791554942,"severity":3,"source":"vip_flights","url":"https://opensky-network.org/aircraft-profile?icao24=486462","layer":"flights","callsign":"EAGLE7","country":"Kingdom of the Netherlands","altitude_m":1493.52}},{"type":"Feature","geometry":{"type":"Point","coordinates":[-15.0489,31.623]},"properties":{"title":"JAF5HJ (Belgium)","summary":"JAF5HJ (Belgium) — icao24: 44d1ba · position: (31.623, -15.0489) · alt: 11277m · 996km/h","date":"2026-10-09T14:09:02Z","ts":1791554942,"severity":4,"source":"vip_flights","url":"https://opensky-network.org/aircraft-profile?icao24=44d1ba","layer":"flights","callsign":"JAF5HJ","country":"Belgium","altitude_m":11277.6}},{"type":"Feature","geometry":{"type":"Point","coordinates":[-3.6562,45.0154]},"properties":{"title":"JAF2LG (Belgium)","summary":"JAF2LG (Belgium) — icao24: 44d1a6 · position: (45.0154, -3.6562) · alt: 11887m · 833km/h","date":"2026-10-04T13:06:28Z","ts":1791119188,"severity":4,"source":"vip_flights","url":"https://opensky-network.org/aircraft-profile?icao24=44d1a6","layer":"flights","callsign":"JAF2LG","country":"Belgium","altitude_m":11887.2}},{"type":"Feature","geometry":{"type":"Point","coordinates":[9.428,48.1382]},"properties":{"title":"JAF6VK (Belgium)","summary":"JAF6VK (Belgium) — icao24: 44d1a5 · position: (48.1382, 9.428) · alt: 12496m · 866km/h","date":"2026-10-09T14:09:02Z","ts":1791554942,"severity":4,"source":"vip_flights","url":"https://opensky-network.org/aircraft-profile?icao24=44d1a5","layer":"flights","callsign":"JAF6VK","country":"Belgium","altitude_m":12496.8}},{"type":"Feature","geometry":{"type":"Point","coordinates":[-15.1159,28.9666]},"properties":{"title":"JAF6EJ (Belgium)","summary":"JAF6EJ (Belgium) — icao24: 44d1b3 · position: (28.9666, -15.1159) · alt: 7284m · 675km/h","date":"2026-10-08T14:22:14Z","ts":1791469334,"severity":3,"source":"vip_flights","url":"https://opensky-network.org/aircraft-profile?icao24=44d1b3","layer":"flights","callsign":"JAF6EJ","country":"Belgium","altitude_m":7284.72}},{"type":"Feature","geometry":{"type":"Point","coordinates":[0.9028,43.8156]},"properties":{"title":"JAF3AL (Belgium)","summary":"JAF3AL (Belgium) — icao24: 44d1b4 · position: (43.8156, 0.9028) · alt: 11887m · 901km/h","date":"2026-10-09T14:09:02Z","ts":1791554942,"severity":4,"source":"vip_flights","url":"https://opensky-network.org/aircraft-profile?icao24=44d1b4","layer":"flights","callsign":"JAF3AL","country":"Belgium","altitude_m":11887.2}},{"type":"Feature","geometry":{"type":"Point","coordinates":[2.7165,49.1508]},"properties":{"title":"JAF2PK (Belgium)","summary":"JAF2PK (Belgium) — icao24: 44d1c2 · position: (49.1508, 2.7165) · alt: 10058m · 762km/h","date":"2026-10-07T14:13:16Z","ts":1791382396,"severity":4,"source":"vip_flights","url":"https://opensky-network.org/aircraft-profile?icao24=44d1c2","layer":"flights","callsign":"JAF2PK","country":"Belgium","altitude_m":10058.4}},{"type":"Feature","geometry":{"type":"Point","coordinates":[7.7593,49.4032]},"properties":{"title":"JAF6NT (Belgium)","summary":"JAF6NT (Belgium) — icao24: 44d1a1 · position: (49.4032, 7.7593) · alt: 11277m · 932km/h","date":"2026-10-09T14:09:02Z","ts":1791554942,"severity":4,"source":"vip_flights","url":"https://opensky-network.org/aircraft-profile?icao24=44d1a1","layer":"flights","callsign":"JAF6NT","country":"Belgium","altitude_m":11277.6}},{"type":"Feature","geometry":{"type":"Point","coordinates":[24.8599,59.4107]},"properties":{"title":"RRR6629 (United Kingdom)","summary":"RRR6629 (United Kingdom) — icao24: 43c208 · position: (59.4107, 24.8599) · on ground · 3km/h","date":"2026-10-09T14:09:02Z","ts":1791554942,"severity":3,"source":"vip_flights","url":"https://opensky-network.org/aircraft-profile?icao24=43c208","layer":"flights","callsign":"RRR6629","country":"United Kingdom","altitude_m":0.0}},{"type":"Feature","geometry":{"type":"Point","coordinates":[-0.2097,52.789]},"properties":{"title":"RCH710 (United States)","summary":"RCH710 (United States) — icao24: ae07d5 · position: (52.789, -0.2097) · alt: 4000m · 718km/h","date":"2026-10-03T12:17:06Z","ts":1791029826,"severity":5,"source":"vip_flights","url":"https://opensky-network.org/aircraft-profile?icao24=ae07d5","layer":"flights","callsign":"RCH710","country":"United States","altitude_m":4000.5,"watch_areas":["Arctic + High North"]}},{"type":"Feature","geometry":{"type":"Point","coordinates":[-11.8546,49.6885]},"properties":{"title":"RCH622 (United States)","summary":"RCH622 (United States) — icao24: ae07d4 · position: (49.6885, -11.8546) · alt: 9144m · 892km/h","date":"2026-10-03T12:17:06Z","ts":1791029826,"severity":6,"source":"vip_flights","url":"https://opensky-network.org/aircraft-profile?icao24=ae07d4","layer":"flights","callsign":"RCH622","country":"United States","altitude_m":9144.0,"watch_areas":["Arctic + High North"]}},{"type":"Feature","geometry":{"type":"Point","coordinates":[99.1857,14.853]},"properties":{"title":"NCR323 (United States)","summary":"NCR323 (United States) — icao24: ac01ae · position: (14.853, 99.1857) · alt: 10393m · 908km/h","date":"2026-10-03T12:17:06Z","ts":1791029826,"severity":6,"source":"vip_flights","url":"https://opensky-network.org/aircraft-profile?icao24=ac01ae","layer":"flights","callsign":"NCR323","country":"United States","altitude_m":10393.68,"watch_areas":["Arctic + High North"]}},{"type":"Feature","geometry":{"type":"Point","coordinates":[-2.2664,41.8843]},"properties":{"title":"JAF35D (Belgium)","summary":"JAF35D (Belgium) — icao24: 44a831 · position: (41.8843, -2.2664) · alt: 11277m · 756km/h","date":"2026-10-03T12:17:06Z","ts":1791029826,"severity":4,"source":"vip_flights","url":"https://opensky-network.org/aircraft-profile?icao24=44a831","layer":"flights","callsign":"JAF35D","country":"Belgium","altitude_m":11277.6}},{"type":"Feature","geometry":{"type":"Point","coordinates":[7.1722,49.6973]},"properties":{"title":"NCR817 (United States)","summary":"NCR817 (United States) — icao24: aad5f0 · position: (49.6973, 7.1722) · alt: 3215m · 578km/h","date":"2026-10-03T12:17:06Z","ts":1791029826,"severity":5,"source":"vip_flights","url":"https://opensky-network.org/aircraft-profile?icao24=aad5f0","layer":"flights","callsign":"NCR817","country":"United States","altitude_m":3215.64,"watch_areas":["Arctic + High North"]}},{"type":"Feature","geometry":{"type":"Point","coordinates":[-82.3485,42.1471]},"properties":{"title":"CFCFT (Canada)","summary":"CFCFT (Canada) — icao24: c005de · position: (42.1471, -82.3485) · alt: 640m · 187km/h","date":"2026-10-03T12:17:06Z","ts":1791029826,"severity":5,"source":"vip_flights","url":"https://opensky-network.org/aircraft-profile?icao24=c005de","layer":"flights","callsign":"CFCFT","country":"Canada","altitude_m":640.08,"watch_areas":["Arctic + High North"]}},{"type":"Feature","geometry":{"type":"Point","coordinates":[-89.5463,48.4038]},"properties":{"title":"CFCVY (Canada)","summary":"CFCVY (Canada) — icao24: c00783 · position: (48.4038, -89.5463) · alt: 906m · 198km/h","date":"2026-10-03T12:17:06Z","ts":1791029826,"severity":5,"source":"vip_flights","url":"https://opensky-network.org/aircraft-profile?icao24=c00783","layer":"flights","callsign":"CFCVY","country":"Canada","altitude_m":906.78,"watch_areas":["Arctic + High North"]}},{"type":"Feature","geometry":{"type":"Point","coordinates":[13.5679,51.2885]},"properties":{"title":"CFC3455 (Canada)","summary":"CFC3455 (Canada) — icao24: c2c36d · position: (51.2885, 13.5679) · alt: 11277m · 827km/h","date":"2026-10-05T15:33:02Z","ts":1791214382,"severity":6,"source":"vip_flights","url":"https://opensky-network.org/aircraft-profile?icao24=c2c36d","layer":"flights","callsign":"CFC3455","country":"Canada","altitude_m":11277.6,"watch_areas":["Arctic + High North"]}},{"type":"Feature","geometry":{"type":"Point","coordinates":[-3.565,40.4633]},"properties":{"title":"NCR824 (United States)","summary":"NCR824 (United States) — icao24: a6caa1 · position: (40.4633, -3.565) · on ground · 14km/h","date":"2026-10-09T14:09:02Z","ts":1791554942,"severity":5,"source":"vip_flights","url":"https://opensky-network.org/aircraft-profile?icao24=a6caa1","layer":"flights","callsign":"NCR824","country":"United States","altitude_m":0.0,"watch_areas":["Arctic + High North"]}},{"type":"Feature","geometry":{"type":"Point","coordinates":[-82.8884,40.1622]},"properties":{"title":"RCH4197 (United States)","summary":"RCH4197 (United States) — icao24: ae07cf · position: (40.1622, -82.8884) · alt: 5379m · 661km/h","date":"2026-10-04T13:06:28Z","ts":1791119188,"severity":5,"source":"vip_flights","url":"https://opensky-network.org/aircraft-profile?icao24=ae07cf","layer":"flights","callsign":"RCH4197","country":"United States","altitude_m":5379.72,"watch_areas":["Arctic + High North"]}},{"type":"Feature","geometry":{"type":"Point","coordinates":[3.2698,48.7807]},"properties":{"title":"SAMUIDF (France)","summary":"SAMUIDF (France) — icao24: 39ac17 · position: (48.7807, 3.2698) · alt: 381m · 238km/h","date":"2026-10-05T15:33:02Z","ts":1791214382,"severity":3,"source":"vip_flights","url":"https://opensky-network.org/aircraft-profile?icao24=39ac17","layer":"flights","callsign":"SAMUIDF","country":"France","altitude_m":381.0}},{"type":"Feature","geometry":{"type":"Point","coordinates":[4.4587,43.9772]},"properties":{"title":"SAMU30 (France)","summary":"SAMU30 (France) — icao24: 39ac4a · position: (43.9772, 4.4587) · alt: 510m · 233km/h","date":"2026-10-04T13:06:28Z","ts":1791119188,"severity":3,"source":"vip_flights","url":"https://opensky-network.org/aircraft-profile?icao24=39ac4a","layer":"flights","callsign":"SAMU30","country":"France","altitude_m":510.54}},{"type":"Feature","geometry":{"type":"Point","coordinates":[-71.4992,43.193]},"properties":{"title":"PAT762 (United States)","summary":"PAT762 (United States) — icao24: ae03fa · position: (43.193, -71.4992) · on ground","date":"2026-10-04T13:06:28Z","ts":1791119188,"severity":5,"source":"vip_flights","url":"https://opensky-network.org/aircraft-profile?icao24=ae03fa","layer":"flights","callsign":"PAT762","country":"United States","altitude_m":0.0,"watch_areas":["Arctic + High North"]}},{"type":"Feature","geometry":{"type":"Point","coordinates":[90.5459,17.8809]},"properties":{"title":"RRR4203 (United Kingdom)","summary":"RRR4203 (United Kingdom) — icao24: 43c5dc · position: (17.8809, 90.5459) · alt: 8442m · 770km/h","date":"2026-10-08T14:22:14Z","ts":1791469334,"severity":3,"source":"vip_flights","url":"https://opensky-network.org/aircraft-profile?icao24=43c5dc","layer":"flights","callsign":"RRR4203","country":"United Kingdom","altitude_m":8442.96}},{"type":"Feature","geometry":{"type":"Point","coordinates":[33.0107,33.6662]},"properties":{"title":"RRR4942 (United Kingdom)","summary":"RRR4942 (United Kingdom) — icao24: 43c5e2 · position: (33.6662, 33.0107) · alt: 8557m · 643km/h","date":"2026-10-04T13:06:28Z","ts":1791119188,"severity":3,"source":"vip_flights","url":"https://opensky-network.org/aircraft-profile?icao24=43c5e2","layer":"flights","callsign":"RRR4942","country":"United Kingdom","altitude_m":8557.26}},{"type":"Feature","geometry":{"type":"Point","coordinates":[9.6864,51.8794]},"properties":{"title":"RRR4952 (United Kingdom)","summary":"RRR4952 (United Kingdom) — icao24: 43c5ee · position: (51.8794, 9.6864) · alt: 9441m · 800km/h","date":"2026-10-04T13:06:28Z","ts":1791119188,"severity":4,"source":"vip_flights","url":"https://opensky-network.org/aircraft-profile?icao24=43c5ee","layer":"flights","callsign":"RRR4952","country":"United Kingdom","altitude_m":9441.18}},{"type":"Feature","geometry":{"type":"Point","coordinates":[0.8386,43.6485]},"properties":{"title":"JAF9CY (Belgium)","summary":"JAF9CY (Belgium) — icao24: 449681 · position: (43.6485, 0.8386) · alt: 11887m · 748km/h","date":"2026-10-06T13:57:24Z","ts":1791295044,"severity":4,"source":"vip_flights","url":"https://opensky-network.org/aircraft-profile?icao24=449681","layer":"flights","callsign":"JAF9CY","country":"Belgium","altitude_m":11887.2}},{"type":"Feature","geometry":{"type":"Point","coordinates":[2.1467,50.1144]},"properties":{"title":"RRR9229 (United Kingdom)","summary":"RRR9229 (United Kingdom) — icao24: 43c6f6 · position: (50.1144, 2.1467) · alt: 7315m · 809km/h","date":"2026-10-09T14:09:02Z","ts":1791554942,"severity":3,"source":"vip_flights","url":"https://opensky-network.org/aircraft-profile?icao24=43c6f6","layer":"flights","callsign":"RRR9229","country":"United Kingdom","altitude_m":7315.2}},{"type":"Feature","geometry":{"type":"Point","coordinates":[2.3902,49.2898]},"properties":{"title":"SAMU80 (France)","summary":"SAMU80 (France) — icao24: 3988f4 · position: (49.2898, 2.3902) · alt: 350m · 224km/h","date":"2026-10-04T13:06:28Z","ts":1791119188,"severity":3,"source":"vip_flights","url":"https://opensky-network.org/aircraft-profile?icao24=3988f4","layer":"flights","callsign":"SAMU80","country":"France","altitude_m":350.52}},{"type":"Feature","geometry":{"type":"Point","coordinates":[11.6949,49.9314]},"properties":{"title":"RCH946 (United States)","summary":"RCH946 (United States) — icao24: ae1170 · position: (49.9314, 11.6949) · alt: 10668m · 888km/h","date":"2026-10-04T13:06:28Z","ts":1791119188,"severity":6,"source":"vip_flights","url":"https://opensky-network.org/aircraft-profile?icao24=ae1170","layer":"flights","callsign":"RCH946","country":"United States","altitude_m":10668.0,"watch_areas":["Arctic + High North"]}},{"type":"Feature","geometry":{"type":"Point","coordinates":[6.8729,47.5759]},"properties":{"title":"SAMU25 (France)","summary":"SAMU25 (France) — icao24: 398492 · position: (47.5759, 6.8729) · alt: 266m · 4km/h","date":"2026-10-04T13:06:28Z","ts":1791119188,"severity":3,"source":"vip_flights","url":"https://opensky-network.org/aircraft-profile?icao24=398492","layer":"flights","callsign":"SAMU25","country":"France","altitude_m":266.7}},{"type":"Feature","geometry":{"type":"Point","coordinates":[-76.2146,45.3284]},"properties":{"title":"CFCNQ (Canada)","summary":"CFCNQ (Canada) — icao24: c006ab · position: (45.3284, -76.2146) · alt: 1371m · 255km/h","date":"2026-10-04T13:06:28Z","ts":1791119188,"severity":5,"source":"vip_flights","url":"https://opensky-network.org/aircraft-profile?icao24=c006ab","layer":"flights","callsign":"CFCNQ","country":"Canada","altitude_m":1371.6,"watch_areas":["Arctic + High North"]}},{"type":"Feature","geometry":{"type":"Point","coordinates":[-116.7598,48.4793]},"properties":{"title":"CFC517 (Canada)","summary":"CFC517 (Canada) — icao24: c2b03f · position: (48.4793, -116.7598) · alt: 5143m · 617km/h","date":"2026-10-05T15:33:02Z","ts":1791214382,"severity":5,"source":"vip_flights","url":"https://opensky-network.org/aircraft-profile?icao24=c2b03f","layer":"flights","callsign":"CFC517","country":"Canada","altitude_m":5143.5,"watch_areas":["Arctic + High North"]}},{"type":"Feature","geometry":{"type":"Point","coordinates":[4.9936,47.0292]},"properties":{"title":"SAMU71 (France)","summary":"SAMU71 (France) — icao24: 398c4e · position: (47.0292, 4.9936) · alt: 487m · 235km/h","date":"2026-10-05T15:33:02Z","ts":1791214382,"severity":3,"source":"vip_flights","url":"https://opensky-network.org/aircraft-profile?icao24=398c4e","layer":"flights","callsign":"SAMU71","country":"France","altitude_m":487.68}},{"type":"Feature","geometry":{"type":"Point","coordinates":[-93.1826,47.2641]},"properties":{"title":"CFC0536 (Canada)","summary":"CFC0536 (Canada) — icao24: c02045 · position: (47.2641, -93.1826) · alt: 6431m · 503km/h","date":"2026-10-05T15:33:02Z","ts":1791214382,"severity":5,"source":"vip_flights","url":"https://opensky-network.org/aircraft-profile?icao24=c02045","layer":"flights","callsign":"CFC0536","country":"Canada","altitude_m":6431.28,"watch_areas":["Arctic + High North"]}},{"type":"Feature","geometry":{"type":"Point","coordinates":[-83.8792,36.0729]},"properties":{"title":"PAT748 (United States)","summary":"PAT748 (United States) — icao24: adfe8d · position: (36.0729, -83.8792) · alt: 1432m · 410km/h","date":"2026-10-07T14:13:16Z","ts":1791382396,"severity":5,"source":"vip_flights","url":"https://opensky-network.org/aircraft-profile?icao24=adfe8d","layer":"flights","callsign":"PAT748","country":"United States","altitude_m":1432.56,"watch_areas":["Arctic + High North"]}},{"type":"Feature","geometry":{"type":"Point","coordinates":[-78.9659,39.8719]},"properties":{"title":"AF2 (United States)","summary":"AF2 (United States) — icao24: adfeb8 · position: (39.8719, -78.9659) · alt: 7924m · 736km/h","date":"2026-10-09T14:09:02Z","ts":1791554942,"severity":5,"source":"vip_flights","url":"https://opensky-network.org/aircraft-profile?icao24=adfeb8","layer":"flights","callsign":"AF2","country":"United States","altitude_m":7924.8,"watch_areas":["Arctic + High North"]}},{"type":"Feature","geometry":{"type":"Point","coordinates":[-1.6425,47.1527]},"properties":{"title":"SAMU44 (France)","summary":"SAMU44 (France) — icao24: 39ca84 · position: (47.1527, -1.6425) · alt: 129m · 121km/h","date":"2026-10-05T15:33:02Z","ts":1791214382,"severity":3,"source":"vip_flights","url":"https://opensky-network.org/aircraft-profile?icao24=39ca84","layer":"flights","callsign":"SAMU44","country":"France","altitude_m":129.54}},{"type":"Feature","geometry":{"type":"Point","coordinates":[5.3639,43.3795]},"properties":{"title":"SAMU13 (France)","summary":"SAMU13 (France) — icao24: 39ca81 · position: (43.3795, 5.3639) · alt: 236m · 13km/h","date":"2026-10-08T14:22:14Z","ts":1791469334,"severity":3,"source":"vip_flights","url":"https://opensky-network.org/aircraft-profile?icao24=39ca81","layer":"flights","callsign":"SAMU13","country":"France","altitude_m":236.22}},{"type":"Feature","geometry":{"type":"Point","coordinates":[-116.1691,48.1941]},"properties":{"title":"CFC518 (Canada)","summary":"CFC518 (Canada) — icao24: c2b099 · position: (48.1941, -116.1691) · alt: 6408m · 594km/h","date":"2026-10-05T15:33:02Z","ts":1791214382,"severity":5,"source":"vip_flights","url":"https://opensky-network.org/aircraft-profile?icao24=c2b099","layer":"flights","callsign":"CFC518","country":"Canada","altitude_m":6408.42,"watch_areas":["Arctic + High North"]}},{"type":"Feature","geometry":{"type":"Point","coordinates":[19.7131,36.6436]},"properties":{"title":"KAF3203 (Kuwait)","summary":"KAF3203 (Kuwait) — icao24: 706216 · position: (36.6436, 19.7131) · alt: 10058m · 884km/h","date":"2026-10-07T14:13:16Z","ts":1791382396,"severity":4,"source":"vip_flights","url":"https://opensky-network.org/aircraft-profile?icao24=706216","layer":"flights","callsign":"KAF3203","country":"Kuwait","altitude_m":10058.4}},{"type":"Feature","geometry":{"type":"Point","coordinates":[-80.9958,28.5059]},"properties":{"title":"DOS771 (United States)","summary":"DOS771 (United States) — icao24: aa6eb5 · position: (28.5059, -80.9958) · alt: 640m · 219km/h","date":"2026-10-05T15:33:02Z","ts":1791214382,"severity":5,"source":"vip_flights","url":"https://opensky-network.org/aircraft-profile?icao24=aa6eb5","layer":"flights","callsign":"DOS771","country":"United States","altitude_m":640.08,"watch_areas":["Arctic + High North"]}},{"type":"Feature","geometry":{"type":"Point","coordinates":[21.6406,36.0176]},"properties":{"title":"FAF2625 (France)","summary":"FAF2625 (France) — icao24: 3b75dd · position: (36.0176, 21.6406) · alt: 12192m · 818km/h","date":"2026-10-07T14:13:16Z","ts":1791382396,"severity":4,"source":"vip_flights","url":"https://opensky-network.org/aircraft-profile?icao24=3b75dd","layer":"flights","callsign":"FAF2625","country":"France","altitude_m":12192.0}},{"type":"Feature","geometry":{"type":"Point","coordinates":[7.1265,50.8577]},"properties":{"title":"GAF864 (Germany)","summary":"GAF864 (Germany) — icao24: 3f551d · position: (50.8577, 7.1265) · on ground","date":"2026-10-05T15:33:02Z","ts":1791214382,"severity":3,"source":"vip_flights","url":"https://opensky-network.org/aircraft-profile?icao24=3f551d","layer":"flights","callsign":"GAF864","country":"Germany","altitude_m":0.0}},{"type":"Feature","geometry":{"type":"Point","coordinates":[3.1349,45.8108]},"properties":{"title":"SAMU63 (France)","summary":"SAMU63 (France) — icao24: 39cd48 · position: (45.8108, 3.1349) · alt: 525m · 231km/h","date":"2026-10-05T15:33:02Z","ts":1791214382,"severity":3,"source":"vip_flights","url":"https://opensky-network.org/aircraft-profile?icao24=39cd48","layer":"flights","callsign":"SAMU63","country":"France","altitude_m":525.78}},{"type":"Feature","geometry":{"type":"Point","coordinates":[8.0898,52.015]},"properties":{"title":"GAF757 (Germany)","summary":"GAF757 (Germany) — icao24: 3f5407 · position: (52.015, 8.0898) · alt: 8839m · 843km/h","date":"2026-10-05T15:33:02Z","ts":1791214382,"severity":3,"source":"vip_flights","url":"https://opensky-network.org/aircraft-profile?icao24=3f5407","layer":"flights","callsign":"GAF757","country":"Germany","altitude_m":8839.2}},{"type":"Feature","geometry":{"type":"Point","coordinates":[12.2492,45.425]},"properties":{"title":"RRR1270 (United Kingdom)","summary":"RRR1270 (United Kingdom) — icao24: 407d8f · position: (45.425, 12.2492) · alt: 495m · 309km/h","date":"2026-10-05T15:33:02Z","ts":1791214382,"severity":3,"source":"vip_flights","url":"https://opensky-network.org/aircraft-profile?icao24=407d8f","layer":"flights","callsign":"RRR1270","country":"United Kingdom","altitude_m":495.3}},{"type":"Feature","geometry":{"type":"Point","coordinates":[-79.8707,39.5603]},"properties":{"title":"PAT910 (United States)","summary":"PAT910 (United States) — icao24: adfecb · position: (39.5603, -79.8707) · alt: 6728m · 591km/h","date":"2026-10-06T13:57:24Z","ts":1791295044,"severity":5,"source":"vip_flights","url":"https://opensky-network.org/aircraft-profile?icao24=adfecb","layer":"flights","callsign":"PAT910","country":"United States","altitude_m":6728.46,"watch_areas":["Arctic + High North"]}},{"type":"Feature","geometry":{"type":"Point","coordinates":[10.6435,48.847]},"properties":{"title":"GAF244 (Germany)","summary":"GAF244 (Germany) — icao24: 3e8b41 · position: (48.847, 10.6435) · alt: 10050m · 724km/h","date":"2026-10-07T14:13:16Z","ts":1791382396,"severity":4,"source":"vip_flights","url":"https://opensky-network.org/aircraft-profile?icao24=3e8b41","layer":"flights","callsign":"GAF244","country":"Germany","altitude_m":10050.78}},{"type":"Feature","geometry":{"type":"Point","coordinates":[-82.8484,39.9531]},"properties":{"title":"PAT872 (United States)","summary":"PAT872 (United States) — icao24: adfe47 · position: (39.9531, -82.8484) · alt: 7315m · 440km/h","date":"2026-10-06T13:57:24Z","ts":1791295044,"severity":5,"source":"vip_flights","url":"https://opensky-network.org/aircraft-profile?icao24=adfe47","layer":"flights","callsign":"PAT872","country":"United States","altitude_m":7315.2,"watch_areas":["Arctic + High North"]}},{"type":"Feature","geometry":{"type":"Point","coordinates":[-90.1071,38.5464]},"properties":{"title":"CFC0540 (Canada)","summary":"CFC0540 (Canada) — icao24: c02044 · position: (38.5464, -90.1071) · alt: 381m · 320km/h","date":"2026-10-07T14:13:16Z","ts":1791382396,"severity":5,"source":"vip_flights","url":"https://opensky-network.org/aircraft-profile?icao24=c02044","layer":"flights","callsign":"CFC0540","country":"Canada","altitude_m":381.0,"watch_areas":["Arctic + High North"]}},{"type":"Feature","geometry":{"type":"Point","coordinates":[-88.0772,34.157]},"properties":{"title":"EAGLE03 (United States)","summary":"EAGLE03 (United States) — icao24: adff71 · position: (34.157, -88.0772) · alt: 4038m · 736km/h","date":"2026-10-06T13:57:24Z","ts":1791295044,"severity":5,"source":"vip_flights","url":"https://opensky-network.org/aircraft-profile?icao24=adff71","layer":"flights","callsign":"EAGLE03","country":"United States","altitude_m":4038.6,"watch_areas":["Arctic + High North"]}},{"type":"Feature","geometry":{"type":"Point","coordinates":[9.8478,52.0154]},"properties":{"title":"GAF142 (Germany)","summary":"GAF142 (Germany) — icao24: 3ea1cc · position: (52.0154, 9.8478) · alt: 3040m · 546km/h","date":"2026-10-06T13:57:24Z","ts":1791295044,"severity":3,"source":"vip_flights","url":"https://opensky-network.org/aircraft-profile?icao24=3ea1cc","layer":"flights","callsign":"GAF142","country":"Germany","altitude_m":3040.38}},{"type":"Feature","geometry":{"type":"Point","coordinates":[7.2824,43.7243]},"properties":{"title":"SAMU06 (France)","summary":"SAMU06 (France) — icao24: 39c901 · position: (43.7243, 7.2824) · on ground · 0km/h","date":"2026-10-09T14:09:02Z","ts":1791554942,"severity":3,"source":"vip_flights","url":"https://opensky-network.org/aircraft-profile?icao24=39c901","layer":"flights","callsign":"SAMU06","country":"France","altitude_m":0.0}},{"type":"Feature","geometry":{"type":"Point","coordinates":[-77.3611,39.3741]},"properties":{"title":"PAT13 (United States)","summary":"PAT13 (United States) — icao24: ae77ce · position: (39.3741, -77.3611) · alt: 1424m · 170km/h","date":"2026-10-06T13:57:24Z","ts":1791295044,"severity":5,"source":"vip_flights","url":"https://opensky-network.org/aircraft-profile?icao24=ae77ce","layer":"flights","callsign":"PAT13","country":"United States","altitude_m":1424.94,"watch_areas":["Arctic + High North"]}},{"type":"Feature","geometry":{"type":"Point","coordinates":[-77.3709,38.7136]},"properties":{"title":"PAT792 (United States)","summary":"PAT792 (United States) — icao24: ae08fa · position: (38.7136, -77.3709) · alt: 693m · 467km/h","date":"2026-10-06T13:57:24Z","ts":1791295044,"severity":5,"source":"vip_flights","url":"https://opensky-network.org/aircraft-profile?icao24=ae08fa","layer":"flights","callsign":"PAT792","country":"United States","altitude_m":693.42,"watch_areas":["Arctic + High North"]}},{"type":"Feature","geometry":{"type":"Point","coordinates":[-2.0676,51.3386]},"properties":{"title":"RCH339 (United States)","summary":"RCH339 (United States) — icao24: ae4f13 · position: (51.3386, -2.0676) · alt: 8839m · 847km/h","date":"2026-10-06T13:57:24Z","ts":1791295044,"severity":5,"source":"vip_flights","url":"https://opensky-network.org/aircraft-profile?icao24=ae4f13","layer":"flights","callsign":"RCH339","country":"United States","altitude_m":8839.2,"watch_areas":["Arctic + High North"]}},{"type":"Feature","geometry":{"type":"Point","coordinates":[3.3761,44.0383]},"properties":{"title":"FAF6235 (France)","summary":"FAF6235 (France) — icao24: 392848 · position: (44.0383, 3.3761) · alt: 3352m · 317km/h","date":"2026-10-06T13:57:24Z","ts":1791295044,"severity":3,"source":"vip_flights","url":"https://opensky-network.org/aircraft-profile?icao24=392848","layer":"flights","callsign":"FAF6235","country":"France","altitude_m":3352.8}},{"type":"Feature","geometry":{"type":"Point","coordinates":[-81.8786,38.8757]},"properties":{"title":"RCH4577 (United States)","summary":"RCH4577 (United States) — icao24: ae07f0 · position: (38.8757, -81.8786) · alt: 8839m · 923km/h","date":"2026-10-08T14:22:14Z","ts":1791469334,"severity":5,"source":"vip_flights","url":"https://opensky-network.org/aircraft-profile?icao24=ae07f0","layer":"flights","callsign":"RCH4577","country":"United States","altitude_m":8839.2,"watch_areas":["Arctic + High North"]}},{"type":"Feature","geometry":{"type":"Point","coordinates":[-77.8603,40.9756]},"properties":{"title":"RCH674 (United States)","summary":"RCH674 (United States) — icao24: ae07e7 · position: (40.9756, -77.8603) · alt: 9753m · 773km/h","date":"2026-10-06T13:57:24Z","ts":1791295044,"severity":6,"source":"vip_flights","url":"https://opensky-network.org/aircraft-profile?icao24=ae07e7","layer":"flights","callsign":"RCH674","country":"United States","altitude_m":9753.6,"watch_areas":["Arctic + High North"]}},{"type":"Feature","geometry":{"type":"Point","coordinates":[-95.7935,48.272]},"properties":{"title":"NCR837 (United States)","summary":"NCR837 (United States) — icao24: aabbef · position: (48.272, -95.7935) · alt: 10363m · 791km/h","date":"2026-10-06T13:57:24Z","ts":1791295044,"severity":6,"source":"vip_flights","url":"https://opensky-network.org/aircraft-profile?icao24=aabbef","layer":"flights","callsign":"NCR837","country":"United States","altitude_m":10363.2,"watch_areas":["Arctic + High North"]}},{"type":"Feature","geometry":{"type":"Point","coordinates":[-67.8534,43.0893]},"properties":{"title":"RCH168 (United States)","summary":"RCH168 (United States) — icao24: ae0812 · position: (43.0893, -67.8534) · alt: 9753m · 682km/h","date":"2026-10-06T13:57:24Z","ts":1791295044,"severity":6,"source":"vip_flights","url":"https://opensky-network.org/aircraft-profile?icao24=ae0812","layer":"flights","callsign":"RCH168","country":"United States","altitude_m":9753.6,"watch_areas":["Arctic + High North"]}},{"type":"Feature","geometry":{"type":"Point","coordinates":[9.5352,54.3175]},"properties":{"title":"GAF654 (Germany)","summary":"GAF654 (Germany) — icao24: 3facfa · position: (54.3175, 9.5352) · alt: 15m · 72km/h","date":"2026-10-06T13:57:24Z","ts":1791295044,"severity":3,"source":"vip_flights","url":"https://opensky-network.org/aircraft-profile?icao24=3facfa","layer":"flights","callsign":"GAF654","country":"Germany","altitude_m":15.24}},{"type":"Feature","geometry":{"type":"Point","coordinates":[-69.0127,42.4051]},"properties":{"title":"RCH329 (United States)","summary":"RCH329 (United States) — icao24: ae10b8 · position: (42.4051, -69.0127) · alt: 10972m · 675km/h","date":"2026-10-06T13:57:24Z","ts":1791295044,"severity":6,"source":"vip_flights","url":"https://opensky-network.org/aircraft-profile?icao24=ae10b8","layer":"flights","callsign":"RCH329","country":"United States","altitude_m":10972.8,"watch_areas":["Arctic + High North"]}},{"type":"Feature","geometry":{"type":"Point","coordinates":[-73.7716,43.0045]},"properties":{"title":"PAT450 (United States)","summary":"PAT450 (United States) — icao24: ae0630 · position: (43.0045, -73.7716) · alt: 4594m · 298km/h","date":"2026-10-06T13:57:24Z","ts":1791295044,"severity":5,"source":"vip_flights","url":"https://opensky-network.org/aircraft-profile?icao24=ae0630","layer":"flights","callsign":"PAT450","country":"United States","altitude_m":4594.86,"watch_areas":["Arctic + High North"]}},{"type":"Feature","geometry":{"type":"Point","coordinates":[-3.0297,51.2881]},"properties":{"title":"RRR4204 (United Kingdom)","summary":"RRR4204 (United Kingdom) — icao24: 43c5e7 · position: (51.2881, -3.0297) · alt: 5463m · 620km/h","date":"2026-10-06T13:57:24Z","ts":1791295044,"severity":3,"source":"vip_flights","url":"https://opensky-network.org/aircraft-profile?icao24=43c5e7","layer":"flights","callsign":"RRR4204","country":"United Kingdom","altitude_m":5463.54}},{"type":"Feature","geometry":{"type":"Point","coordinates":[-1.7076,47.1468]},"properties":{"title":"FNY5152 (France)","summary":"FNY5152 (France) — icao24: 3b9b5b · position: (47.1468, -1.7076) · alt: 7376m · 744km/h","date":"2026-10-09T14:09:02Z","ts":1791554942,"severity":3,"source":"vip_flights","url":"https://opensky-network.org/aircraft-profile?icao24=3b9b5b","layer":"flights","callsign":"FNY5152","country":"France","altitude_m":7376.16}},{"type":"Feature","geometry":{"type":"Point","coordinates":[-85.3338,31.6844]},"properties":{"title":"PAT135 (United States)","summary":"PAT135 (United States) — icao24: adfeda · position: (31.6844, -85.3338) · alt: 2362m · 494km/h","date":"2026-10-09T14:09:02Z","ts":1791554942,"severity":5,"source":"vip_flights","url":"https://opensky-network.org/aircraft-profile?icao24=adfeda","layer":"flights","callsign":"PAT135","country":"United States","altitude_m":2362.2,"watch_areas":["Arctic + High North"]}},{"type":"Feature","geometry":{"type":"Point","coordinates":[-80.6947,31.599]},"properties":{"title":"CFC3370 (Canada)","summary":"CFC3370 (Canada) — icao24: c2b37d · position: (31.599, -80.6947) · alt: 3916m · 648km/h","date":"2026-10-08T14:22:14Z","ts":1791469334,"severity":5,"source":"vip_flights","url":"https://opensky-network.org/aircraft-profile?icao24=c2b37d","layer":"flights","callsign":"CFC3370","country":"Canada","altitude_m":3916.68,"watch_areas":["Arctic + High North"]}},{"type":"Feature","geometry":{"type":"Point","coordinates":[-94.3574,32.0143]},"properties":{"title":"PAT942 (United States)","summary":"PAT942 (United States) — icao24: adfe53 · position: (32.0143, -94.3574) · alt: 7315m · 488km/h","date":"2026-10-08T14:22:14Z","ts":1791469334,"severity":5,"source":"vip_flights","url":"https://opensky-network.org/aircraft-profile?icao24=adfe53","layer":"flights","callsign":"PAT942","country":"United States","altitude_m":7315.2,"watch_areas":["Arctic + High North"]}},{"type":"Feature","geometry":{"type":"Point","coordinates":[-118.2276,33.8025]},"properties":{"title":"PAT011 (United States)","summary":"PAT011 (United States) — icao24: adfe94 · position: (33.8025, -118.2276) · alt: 1844m · 444km/h","date":"2026-10-07T14:13:16Z","ts":1791382396,"severity":5,"source":"vip_flights","url":"https://opensky-network.org/aircraft-profile?icao24=adfe94","layer":"flights","callsign":"PAT011","country":"United States","altitude_m":1844.04,"watch_areas":["Arctic + High North"]}},{"type":"Feature","geometry":{"type":"Point","coordinates":[-82.5331,47.3355]},"properties":{"title":"CFC3701 (Canada)","summary":"CFC3701 (Canada) — icao24: c2c1f1 · position: (47.3355, -82.5331) · alt: 10972m · 756km/h","date":"2026-10-07T14:13:16Z","ts":1791382396,"severity":6,"source":"vip_flights","url":"https://opensky-network.org/aircraft-profile?icao24=c2c1f1","layer":"flights","callsign":"CFC3701","country":"Canada","altitude_m":10972.8,"watch_areas":["Arctic + High North"]}},{"type":"Feature","geometry":{"type":"Point","coordinates":[8.8427,47.1997]},"properties":{"title":"GAF390 (Germany)","summary":"GAF390 (Germany) — icao24: 3f505f · position: (47.1997, 8.8427) · alt: 1158m · 236km/h","date":"2026-10-07T14:13:16Z","ts":1791382396,"severity":3,"source":"vip_flights","url":"https://opensky-network.org/aircraft-profile?icao24=3f505f","layer":"flights","callsign":"GAF390","country":"Germany","altitude_m":1158.24}},{"type":"Feature","geometry":{"type":"Point","coordinates":[-87.3402,30.3446]},"properties":{"title":"JEDI14 (United States)","summary":"JEDI14 (United States) — icao24: ae1ea9 · position: (30.3446, -87.3402) · alt: 99m · 210km/h","date":"2026-10-07T14:13:16Z","ts":1791382396,"severity":5,"source":"vip_flights","url":"https://opensky-network.org/aircraft-profile?icao24=ae1ea9","layer":"flights","callsign":"JEDI14","country":"United States","altitude_m":99.06,"watch_areas":["Arctic + High North"]}},{"type":"Feature","geometry":{"type":"Point","coordinates":[-87.2532,30.4406]},"properties":{"title":"JEDI11 (United States)","summary":"JEDI11 (United States) — icao24: ae1eac · position: (30.4406, -87.2532) · alt: 1043m · 573km/h","date":"2026-10-07T14:13:16Z","ts":1791382396,"severity":5,"source":"vip_flights","url":"https://opensky-network.org/aircraft-profile?icao24=ae1eac","layer":"flights","callsign":"JEDI11","country":"United States","altitude_m":1043.94,"watch_areas":["Arctic + High North"]}},{"type":"Feature","geometry":{"type":"Point","coordinates":[-0.2784,45.6333]},"properties":{"title":"FAF7813 (France)","summary":"FAF7813 (France) — icao24: 39a842 · position: (45.6333, -0.2784) · alt: 815m · 263km/h","date":"2026-10-07T14:13:16Z","ts":1791382396,"severity":3,"source":"vip_flights","url":"https://opensky-network.org/aircraft-profile?icao24=39a842","layer":"flights","callsign":"FAF7813","country":"France","altitude_m":815.34}},{"type":"Feature","geometry":{"type":"Point","coordinates":[-87.3923,30.329]},"properties":{"title":"JEDI52 (United States)","summary":"JEDI52 (United States) — icao24: adff0b · position: (30.329, -87.3923) · alt: 243m · 194km/h","date":"2026-10-07T14:13:16Z","ts":1791382396,"severity":5,"source":"vip_flights","url":"https://opensky-network.org/aircraft-profile?icao24=adff0b","layer":"flights","callsign":"JEDI52","country":"United States","altitude_m":243.84,"watch_areas":["Arctic + High North"]}},{"type":"Feature","geometry":{"type":"Point","coordinates":[-77.1946,38.7253]},"properties":{"title":"PAT03 (United States)","summary":"PAT03 (United States) — icao24: ae50e3 · position: (38.7253, -77.1946) · alt: 137m · 167km/h","date":"2026-10-07T14:13:16Z","ts":1791382396,"severity":5,"source":"vip_flights","url":"https://opensky-network.org/aircraft-profile?icao24=ae50e3","layer":"flights","callsign":"PAT03","country":"United States","altitude_m":137.16,"watch_areas":["Arctic + High North"]}},{"type":"Feature","geometry":{"type":"Point","coordinates":[-81.7934,47.1666]},"properties":{"title":"CFC3612 (Canada)","summary":"CFC3612 (Canada) — icao24: c2b3eb · position: (47.1666, -81.7934) · alt: 10363m · 728km/h","date":"2026-10-07T14:13:16Z","ts":1791382396,"severity":6,"source":"vip_flights","url":"https://opensky-network.org/aircraft-profile?icao24=c2b3eb","layer":"flights","callsign":"CFC3612","country":"Canada","altitude_m":10363.2,"watch_areas":["Arctic + High North"]}},{"type":"Feature","geometry":{"type":"Point","coordinates":[-2.8411,40.8979]},"properties":{"title":"GAF612 (Germany)","summary":"GAF612 (Germany) — icao24: 3f7b3c · position: (40.8979, -2.8411) · alt: 3794m · 611km/h","date":"2026-10-07T14:13:16Z","ts":1791382396,"severity":3,"source":"vip_flights","url":"https://opensky-network.org/aircraft-profile?icao24=3f7b3c","layer":"flights","callsign":"GAF612","country":"Germany","altitude_m":3794.76}},{"type":"Feature","geometry":{"type":"Point","coordinates":[13.7981,39.8097]},"properties":{"title":"FAF2622 (France)","summary":"FAF2622 (France) — icao24: 3b7567 · position: (39.8097, 13.7981) · alt: 12192m · 832km/h","date":"2026-10-07T14:13:16Z","ts":1791382396,"severity":4,"source":"vip_flights","url":"https://opensky-network.org/aircraft-profile?icao24=3b7567","layer":"flights","callsign":"FAF2622","country":"France","altitude_m":12192.0}},{"type":"Feature","geometry":{"type":"Point","coordinates":[19.3938,39.854]},"properties":{"title":"GAF145 (Germany)","summary":"GAF145 (Germany) — icao24: 3f54b3 · position: (39.854, 19.3938) · alt: 10355m · 689km/h","date":"2026-10-07T14:13:16Z","ts":1791382396,"severity":4,"source":"vip_flights","url":"https://opensky-network.org/aircraft-profile?icao24=3f54b3","layer":"flights","callsign":"GAF145","country":"Germany","altitude_m":10355.58}},{"type":"Feature","geometry":{"type":"Point","coordinates":[-81.3157,35.7685]},"properties":{"title":"PAT511 (United States)","summary":"PAT511 (United States) — icao24: adfe4c · position: (35.7685, -81.3157) · alt: 7010m · 499km/h","date":"2026-10-08T14:22:14Z","ts":1791469334,"severity":5,"source":"vip_flights","url":"https://opensky-network.org/aircraft-profile?icao24=adfe4c","layer":"flights","callsign":"PAT511","country":"United States","altitude_m":7010.4,"watch_areas":["Arctic + High North"]}},{"type":"Feature","geometry":{"type":"Point","coordinates":[-118.0547,33.787]},"properties":{"title":"PAT057 (United States)","summary":"PAT057 (United States) — icao24: adfe91 · position: (33.787, -118.0547) · alt: 53m · 263km/h","date":"2026-10-08T14:22:14Z","ts":1791469334,"severity":5,"source":"vip_flights","url":"https://opensky-network.org/aircraft-profile?icao24=adfe91","layer":"flights","callsign":"PAT057","country":"United States","altitude_m":53.34,"watch_areas":["Arctic + High North"]}},{"type":"Feature","geometry":{"type":"Point","coordinates":[2.1473,47.7797]},"properties":{"title":"SAMU45 (France)","summary":"SAMU45 (France) — icao24: 39ca85 · position: (47.7797, 2.1473) · alt: 243m · 246km/h","date":"2026-10-08T14:22:14Z","ts":1791469334,"severity":3,"source":"vip_flights","url":"https://opensky-network.org/aircraft-profile?icao24=39ca85","layer":"flights","callsign":"SAMU45","country":"France","altitude_m":243.84}},{"type":"Feature","geometry":{"type":"Point","coordinates":[3.0762,50.5991]},"properties":{"title":"SAMU59 (France)","summary":"SAMU59 (France) — icao24: 39b5d1 · position: (50.5991, 3.0762) · alt: 251m · 199km/h","date":"2026-10-08T14:22:14Z","ts":1791469334,"severity":3,"source":"vip_flights","url":"https://opensky-network.org/aircraft-profile?icao24=39b5d1","layer":"flights","callsign":"SAMU59","country":"France","altitude_m":251.46}},{"type":"Feature","geometry":{"type":"Point","coordinates":[-4.1334,48.5339]},"properties":{"title":"FNY5560 (France)","summary":"FNY5560 (France) — icao24: 39a408 · position: (48.5339, -4.1334) · alt: 68m · 179km/h","date":"2026-10-09T14:09:02Z","ts":1791554942,"severity":3,"source":"vip_flights","url":"https://opensky-network.org/aircraft-profile?icao24=39a408","layer":"flights","callsign":"FNY5560","country":"France","altitude_m":68.58}},{"type":"Feature","geometry":{"type":"Point","coordinates":[19.3124,37.2435]},"properties":{"title":"FAF2611 (France)","summary":"FAF2611 (France) — icao24: 3b7763 · position: (37.2435, 19.3124) · alt: 7917m · 737km/h","date":"2026-10-08T14:22:14Z","ts":1791469334,"severity":3,"source":"vip_flights","url":"https://opensky-network.org/aircraft-profile?icao24=3b7763","layer":"flights","callsign":"FAF2611","country":"France","altitude_m":7917.18}},{"type":"Feature","geometry":{"type":"Point","coordinates":[-120.2848,40.5807]},"properties":{"title":"RCH231 (United States)","summary":"RCH231 (United States) — icao24: ae07f5 · position: (40.5807, -120.2848) · alt: 10668m · 888km/h","date":"2026-10-08T14:22:14Z","ts":1791469334,"severity":6,"source":"vip_flights","url":"https://opensky-network.org/aircraft-profile?icao24=ae07f5","layer":"flights","callsign":"RCH231","country":"United States","altitude_m":10668.0,"watch_areas":["Arctic + High North"]}},{"type":"Feature","geometry":{"type":"Point","coordinates":[6.15,50.3164]},"properties":{"title":"GAF156 (Germany)","summary":"GAF156 (Germany) — icao24: 3f6931 · position: (50.3164, 6.15) · alt: 7010m · 653km/h","date":"2026-10-08T14:22:14Z","ts":1791469334,"severity":3,"source":"vip_flights","url":"https://opensky-network.org/aircraft-profile?icao24=3f6931","layer":"flights","callsign":"GAF156","country":"Germany","altitude_m":7010.4}},{"type":"Feature","geometry":{"type":"Point","coordinates":[-92.5959,34.9061]},"properties":{"title":"PAT506 (United States)","summary":"PAT506 (United States) — icao24: adfd76 · position: (34.9061, -92.5959) · alt: 3215m · 367km/h","date":"2026-10-08T14:22:14Z","ts":1791469334,"severity":5,"source":"vip_flights","url":"https://opensky-network.org/aircraft-profile?icao24=adfd76","layer":"flights","callsign":"PAT506","country":"United States","altitude_m":3215.64,"watch_areas":["Arctic + High North"]}},{"type":"Feature","geometry":{"type":"Point","coordinates":[-121.9478,38.2588]},"properties":{"title":"RCH434 (United States)","summary":"RCH434 (United States) — icao24: ae1458 · position: (38.2588, -121.9478) · on ground","date":"2026-10-08T14:22:14Z","ts":1791469334,"severity":5,"source":"vip_flights","url":"https://opensky-network.org/aircraft-profile?icao24=ae1458","layer":"flights","callsign":"RCH434","country":"United States","altitude_m":0.0,"watch_areas":["Arctic + High North"]}},{"type":"Feature","geometry":{"type":"Point","coordinates":[-95.4084,29.9113]},"properties":{"title":"RCH3273 (United States)","summary":"RCH3273 (United States) — icao24: ae10bf · position: (29.9113, -95.4084) · alt: 10675m · 929km/h","date":"2026-10-08T14:22:14Z","ts":1791469334,"severity":6,"source":"vip_flights","url":"https://opensky-network.org/aircraft-profile?icao24=ae10bf","layer":"flights","callsign":"RCH3273","country":"United States","altitude_m":10675.62,"watch_areas":["Arctic + High North"]}},{"type":"Feature","geometry":{"type":"Point","coordinates":[-81.0738,26.781]},"properties":{"title":"NCR889 (United States)","summary":"NCR889 (United States) — icao24: aa3086 · position: (26.781, -81.0738) · alt: 11475m · 911km/h","date":"2026-10-09T14:09:02Z","ts":1791554942,"severity":6,"source":"vip_flights","url":"https://opensky-network.org/aircraft-profile?icao24=aa3086","layer":"flights","callsign":"NCR889","country":"United States","altitude_m":11475.72,"watch_areas":["Arctic + High North"]}},{"type":"Feature","geometry":{"type":"Point","coordinates":[-79.1045,38.9429]},"properties":{"title":"SAM352 (United States)","summary":"SAM352 (United States) — icao24: ae04f9 · position: (38.9429, -79.1045) · alt: 10759m · 726km/h","date":"2026-10-08T14:22:14Z","ts":1791469334,"severity":6,"source":"vip_flights","url":"https://opensky-network.org/aircraft-profile?icao24=ae04f9","layer":"flights","callsign":"SAM352","country":"United States","altitude_m":10759.44,"watch_areas":["Arctic + High North"]}},{"type":"Feature","geometry":{"type":"Point","coordinates":[-93.101,39.1793]},"properties":{"title":"PAT009 (United States)","summary":"PAT009 (United States) — icao24: ae036f · position: (39.1793, -93.101) · alt: 8282m · 658km/h","date":"2026-10-08T14:22:14Z","ts":1791469334,"severity":5,"source":"vip_flights","url":"https://opensky-network.org/aircraft-profile?icao24=ae036f","layer":"flights","callsign":"PAT009","country":"United States","altitude_m":8282.94,"watch_areas":["Arctic + High North"]}},{"type":"Feature","geometry":{"type":"Point","coordinates":[-77.9491,39.9711]},"properties":{"title":"PAT473 (United States)","summary":"PAT473 (United States) — icao24: adfe48 · position: (39.9711, -77.9491) · alt: 6096m · 391km/h","date":"2026-10-09T14:09:02Z","ts":1791554942,"severity":5,"source":"vip_flights","url":"https://opensky-network.org/aircraft-profile?icao24=adfe48","layer":"flights","callsign":"PAT473","country":"United States","altitude_m":6096.0,"watch_areas":["Arctic + High North"]}},{"type":"Feature","geometry":{"type":"Point","coordinates":[-77.4011,44.0525]},"properties":{"title":"CFC4508 (United States)","summary":"CFC4508 (United States) — icao24: a37b7e · position: (44.0525, -77.4011) · alt: 518m · 231km/h","date":"2026-10-09T14:09:02Z","ts":1791554942,"severity":5,"source":"vip_flights","url":"https://opensky-network.org/aircraft-profile?icao24=a37b7e","layer":"flights","callsign":"CFC4508","country":"United States","altitude_m":518.16,"watch_areas":["Arctic + High North"]}},{"type":"Feature","geometry":{"type":"Point","coordinates":[-75.8445,38.885]},"properties":{"title":"RCH3220 (United States)","summary":"RCH3220 (United States) — icao24: ae07fd · position: (38.885, -75.8445) · alt: 2049m · 514km/h","date":"2026-10-09T14:09:02Z","ts":1791554942,"severity":5,"source":"vip_flights","url":"https://opensky-network.org/aircraft-profile?icao24=ae07fd","layer":"flights","callsign":"RCH3220","country":"United States","altitude_m":2049.78,"watch_areas":["Arctic + High North"]}},{"type":"Feature","geometry":{"type":"Point","coordinates":[13.2603,43.6259]},"properties":{"title":"BAF87 (Belgium)","summary":"BAF87 (Belgium) — icao24: 44b2ad · position: (43.6259, 13.2603) · alt: 13106m · 872km/h","date":"2026-10-09T14:09:02Z","ts":1791554942,"severity":4,"source":"vip_flights","url":"https://opensky-network.org/aircraft-profile?icao24=44b2ad","layer":"flights","callsign":"BAF87","country":"Belgium","altitude_m":13106.4}},{"type":"Feature","geometry":{"type":"Point","coordinates":[-75.5121,38.9869]},"properties":{"title":"RCH5076 (United States)","summary":"RCH5076 (United States) — icao24: ae10bd · position: (38.9869, -75.5121) · alt: 830m · 377km/h","date":"2026-10-09T14:09:02Z","ts":1791554942,"severity":5,"source":"vip_flights","url":"https://opensky-network.org/aircraft-profile?icao24=ae10bd","layer":"flights","callsign":"RCH5076","country":"United States","altitude_m":830.58,"watch_areas":["Arctic + High North"]}},{"type":"Feature","geometry":{"type":"Point","coordinates":[1.887,47.1349]},"properties":{"title":"JAF86A (Belgium)","summary":"JAF86A (Belgium) — icao24: 449683 · position: (47.1349, 1.887) · alt: 11887m · 852km/h","date":"2026-10-09T14:09:02Z","ts":1791554942,"severity":4,"source":"vip_flights","url":"https://opensky-network.org/aircraft-profile?icao24=449683","layer":"flights","callsign":"JAF86A","country":"Belgium","altitude_m":11887.2}},{"type":"Feature","geometry":{"type":"Point","coordinates":[33.0876,32.476]},"properties":{"title":"RRR9915 (United Kingdom)","summary":"RRR9915 (United Kingdom) — icao24: 43c6f7 · position: (32.476, 33.0876) · alt: 10378m · 865km/h","date":"2026-10-09T14:09:02Z","ts":1791554942,"severity":4,"source":"vip_flights","url":"https://opensky-network.org/aircraft-profile?icao24=43c6f7","layer":"flights","callsign":"RRR9915","country":"United Kingdom","altitude_m":10378.44}},{"type":"Feature","geometry":{"type":"Point","coordinates":[-4.573,36.6871]},"properties":{"title":"JAF1BH (Kingdom of the Netherlands)","summary":"JAF1BH (Kingdom of the Netherlands) — icao24: 485a86 · position: (36.6871, -4.573) · alt: 11887m · 906km/h","date":"2026-10-09T14:09:02Z","ts":1791554942,"severity":4,"source":"vip_flights","url":"https://opensky-network.org/aircraft-profile?icao24=485a86","layer":"flights","callsign":"JAF1BH","country":"Kingdom of the Netherlands","altitude_m":11887.2}},{"type":"Feature","geometry":{"type":"Point","coordinates":[7.126,50.8608]},"properties":{"title":"GAF622 (Germany)","summary":"GAF622 (Germany) — icao24: 3f4e27 · position: (50.8608, 7.126) · alt: 83m · 57km/h","date":"2026-10-09T14:09:02Z","ts":1791554942,"severity":3,"source":"vip_flights","url":"https://opensky-network.org/aircraft-profile?icao24=3f4e27","layer":"flights","callsign":"GAF622","country":"Germany","altitude_m":83.82}},{"type":"Feature","geometry":{"type":"Point","coordinates":[1.3507,49.0702]},"properties":{"title":"GAF310 (Germany)","summary":"GAF310 (Germany) — icao24: 3e80c0 · position: (49.0702, 1.3507) · alt: 396m · 322km/h","date":"2026-10-09T14:09:02Z","ts":1791554942,"severity":3,"source":"vip_flights","url":"https://opensky-network.org/aircraft-profile?icao24=3e80c0","layer":"flights","callsign":"GAF310","country":"Germany","altitude_m":396.24}}]}