{"type":"FeatureCollection","features":[{"type":"Feature","geometry":{"type":"Point","coordinates":[159.7398,51.6873]},"properties":{"title":"M 5.8 - 165 km SSE of Vilyuchinsk, Russia","summary":"M 5.8 - 165 km SSE of Vilyuchinsk, Russia — M5.8 · 165 km SSE of Vilyuchinsk, Russia · depth 29.477 km","date":"2026-10-02T00:00:00Z","ts":1790899200,"severity":6,"source":"usgs_quakes","url":"https://earthquake.usgs.gov/earthquakes/eventpage/us6000tz62","layer":"quakes","mag":5.8,"depth_km":29.477,"event_id":"us6000tz62"}},{"type":"Feature","geometry":{"type":"Point","coordinates":[159.665,51.3149]},"properties":{"title":"M 5.1 - 199 km SSE of Vilyuchinsk, Russia","summary":"M 5.1 - 199 km SSE of Vilyuchinsk, Russia — M5.1 · 199 km SSE of Vilyuchinsk, Russia · depth 10 km","date":"2026-10-02T00:00:00Z","ts":1790899200,"severity":5,"source":"usgs_quakes","url":"https://earthquake.usgs.gov/earthquakes/eventpage/us6000tz8c","layer":"quakes","mag":5.1,"depth_km":10.0,"event_id":"us6000tz8c"}},{"type":"Feature","geometry":{"type":"Point","coordinates":[160.4217,52.0836]},"properties":{"title":"M 5.0 - 163 km SE of Petropavlovsk-Kamchatsky, Russia","summary":"M 5.0 - 163 km SE of Petropavlovsk-Kamchatsky, Russia — M5.0 · 163 km SE of Petropavlovsk-Kamchatsky, Russia · depth 10 km","date":"2026-10-03T12:17:10Z","ts":1791029830,"severity":5,"source":"usgs_quakes","url":"https://earthquake.usgs.gov/earthquakes/eventpage/us6000tzal","layer":"quakes","mag":5.0,"depth_km":10.0,"event_id":"us6000tzal"}},{"type":"Feature","geometry":{"type":"Point","coordinates":[159.8843,51.6886]},"properties":{"title":"M 5.0 - 171 km SE of Vilyuchinsk, Russia","summary":"M 5.0 - 171 km SE of Vilyuchinsk, Russia — M5.0 · 171 km SE of Vilyuchinsk, Russia · depth 30.93 km","date":"2026-10-02T00:00:00Z","ts":1790899200,"severity":5,"source":"usgs_quakes","url":"https://earthquake.usgs.gov/earthquakes/eventpage/us6000tz8l","layer":"quakes","mag":5.0,"depth_km":30.93,"event_id":"us6000tz8l"}},{"type":"Feature","geometry":{"type":"Point","coordinates":[159.8307,51.5775]},"properties":{"title":"M 5.0 - 179 km SSE of Vilyuchinsk, Russia","summary":"M 5.0 - 179 km SSE of Vilyuchinsk, Russia — M5.0 · 179 km SSE of Vilyuchinsk, Russia · depth 10 km","date":"2026-10-02T00:00:00Z","ts":1790899200,"severity":5,"source":"usgs_quakes","url":"https://earthquake.usgs.gov/earthquakes/eventpage/us6000tz7b","layer":"quakes","mag":5.0,"depth_km":10.0,"event_id":"us6000tz7b"}},{"type":"Feature","geometry":{"type":"Point","coordinates":[-62.4223,10.3698]},"properties":{"title":"M 5.0 - 26 km SSW of Güiria, Venezuela","summary":"M 5.0 - 26 km SSW of Güiria, Venezuela — M5.0 · 26 km SSW of Güiria, Venezuela · depth 9.763 km","date":"2026-10-02T00:00:00Z","ts":1790899200,"severity":5,"source":"usgs_quakes","url":"https://earthquake.usgs.gov/earthquakes/eventpage/us6000tz5h","layer":"quakes","mag":5.0,"depth_km":9.763,"event_id":"us6000tz5h"}},{"type":"Feature","geometry":{"type":"Point","coordinates":[174.2598,-39.1598]},"properties":{"title":"M 5.0 - 6 km E of Inglewood, New Zealand","summary":"M 5.0 - 6 km E of Inglewood, New Zealand — M5.0 · 6 km E of Inglewood, New Zealand · depth 10 km","date":"2026-10-02T00:00:00Z","ts":1790899200,"severity":5,"source":"usgs_quakes","url":"https://earthquake.usgs.gov/earthquakes/eventpage/us6000tz1c","layer":"quakes","mag":5.0,"depth_km":10.0,"event_id":"us6000tz1c"}},{"type":"Feature","geometry":{"type":"Point","coordinates":[159.3971,51.862]},"properties":{"title":"M 4.9 - 136 km SSE of Vilyuchinsk, Russia","summary":"M 4.9 - 136 km SSE of Vilyuchinsk, Russia — M4.9 · 136 km SSE of Vilyuchinsk, Russia · depth 38.829 km","date":"2026-10-02T00:00:00Z","ts":1790899200,"severity":4,"source":"usgs_quakes","url":"https://earthquake.usgs.gov/earthquakes/eventpage/us6000tz8a","layer":"quakes","mag":4.9,"depth_km":38.829,"event_id":"us6000tz8a"}},{"type":"Feature","geometry":{"type":"Point","coordinates":[130.6125,29.221]},"properties":{"title":"M 4.8 - 112 km S of Koshima, Japan","summary":"M 4.8 - 112 km S of Koshima, Japan — M4.8 · 112 km S of Koshima, Japan · depth 37.466 km","date":"2026-10-03T12:17:10Z","ts":1791029830,"severity":4,"source":"usgs_quakes","url":"https://earthquake.usgs.gov/earthquakes/eventpage/us6000tzb5","layer":"quakes","mag":4.8,"depth_km":37.466,"event_id":"us6000tzb5"}},{"type":"Feature","geometry":{"type":"Point","coordinates":[159.2731,51.9749]},"properties":{"title":"M 4.8 - 121 km SSE of Vilyuchinsk, Russia","summary":"M 4.8 - 121 km SSE of Vilyuchinsk, Russia — M4.8 · 121 km SSE of Vilyuchinsk, Russia · depth 38.69 km","date":"2026-10-03T12:17:10Z","ts":1791029830,"severity":4,"source":"usgs_quakes","url":"https://earthquake.usgs.gov/earthquakes/eventpage/us6000tz9v","layer":"quakes","mag":4.8,"depth_km":38.69,"event_id":"us6000tz9v"}},{"type":"Feature","geometry":{"type":"Point","coordinates":[119.4593,14.571]},"properties":{"title":"M 4.8 - 78 km WSW of San Nicolas, Philippines","summary":"M 4.8 - 78 km WSW of San Nicolas, Philippines — M4.8 · 78 km WSW of San Nicolas, Philippines · depth 10 km","date":"2026-10-02T00:00:00Z","ts":1790899200,"severity":4,"source":"usgs_quakes","url":"https://earthquake.usgs.gov/earthquakes/eventpage/us6000tz1q","layer":"quakes","mag":4.8,"depth_km":10.0,"event_id":"us6000tz1q"}},{"type":"Feature","geometry":{"type":"Point","coordinates":[159.4679,51.7161]},"properties":{"title":"M 4.7 - 153 km SSE of Vilyuchinsk, Russia","summary":"M 4.7 - 153 km SSE of Vilyuchinsk, Russia — M4.7 · 153 km SSE of Vilyuchinsk, Russia · depth 35 km","date":"2026-10-02T00:00:00Z","ts":1790899200,"severity":4,"source":"usgs_quakes","url":"https://earthquake.usgs.gov/earthquakes/eventpage/us6000tz9s","layer":"quakes","mag":4.7,"depth_km":35.0,"event_id":"us6000tz9s"}},{"type":"Feature","geometry":{"type":"Point","coordinates":[145.8401,-38.3802]},"properties":{"title":"M 4.7 - 5 km NNE of Korumburra, Australia","summary":"M 4.7 - 5 km NNE of Korumburra, Australia — M4.7 · 5 km NNE of Korumburra, Australia · depth 10 km","date":"2026-10-02T00:00:00Z","ts":1790899200,"severity":4,"source":"usgs_quakes","url":"https://earthquake.usgs.gov/earthquakes/eventpage/us6000tz1y","layer":"quakes","mag":4.7,"depth_km":10.0,"event_id":"us6000tz1y"}},{"type":"Feature","geometry":{"type":"Point","coordinates":[159.7182,51.5846]},"properties":{"title":"M 4.6 - 174 km SSE of Vilyuchinsk, Russia","summary":"M 4.6 - 174 km SSE of Vilyuchinsk, Russia — M4.6 · 174 km SSE of Vilyuchinsk, Russia · depth 10 km","date":"2026-10-02T00:00:00Z","ts":1790899200,"severity":4,"source":"usgs_quakes","url":"https://earthquake.usgs.gov/earthquakes/eventpage/us6000tz9t","layer":"quakes","mag":4.6,"depth_km":10.0,"event_id":"us6000tz9t"}},{"type":"Feature","geometry":{"type":"Point","coordinates":[152.8363,-4.565]},"properties":{"title":"M 4.6 - 67 km ESE of Kokopo, Papua New Guinea","summary":"M 4.6 - 67 km ESE of Kokopo, Papua New Guinea — M4.6 · 67 km ESE of Kokopo, Papua New Guinea · depth 86.736 km","date":"2026-10-02T00:00:00Z","ts":1790899200,"severity":4,"source":"usgs_quakes","url":"https://earthquake.usgs.gov/earthquakes/eventpage/us6000tz8b","layer":"quakes","mag":4.6,"depth_km":86.736,"event_id":"us6000tz8b"}},{"type":"Feature","geometry":{"type":"Point","coordinates":[130.6093,31.2953]},"properties":{"title":"M 4.5 - 7 km NNW of Ibusuki, Japan","summary":"M 4.5 - 7 km NNW of Ibusuki, Japan — M4.5 · 7 km NNW of Ibusuki, Japan · depth 126.853 km","date":"2026-10-03T12:17:10Z","ts":1791029830,"severity":4,"source":"usgs_quakes","url":"https://earthquake.usgs.gov/earthquakes/eventpage/us6000tz9w","layer":"quakes","mag":4.5,"depth_km":126.853,"event_id":"us6000tz9w"}},{"type":"Feature","geometry":{"type":"Point","coordinates":[118.9078,-9.5672]},"properties":{"title":"M 5.9 - 39 km WSW of Tambolaka, Indonesia","summary":"M 5.9 - 39 km WSW of Tambolaka, Indonesia — M5.9 · 39 km WSW of Tambolaka, Indonesia · depth 45.951 km","date":"2026-10-03T00:00:00Z","ts":1790985600,"severity":6,"source":"usgs_quakes","url":"https://earthquake.usgs.gov/earthquakes/eventpage/us6000tzer","layer":"quakes","mag":5.9,"depth_km":45.951,"event_id":"us6000tzer"}},{"type":"Feature","geometry":{"type":"Point","coordinates":[144.6734,22.8286]},"properties":{"title":"M 5.5 - Volcano Islands, Japan region","summary":"M 5.5 - Volcano Islands, Japan region — M5.5 · Volcano Islands, Japan region · depth 10 km","date":"2026-10-04T13:06:32Z","ts":1791119192,"severity":6,"source":"usgs_quakes","url":"https://earthquake.usgs.gov/earthquakes/eventpage/us6000tzid","layer":"quakes","mag":5.5,"depth_km":10.0,"event_id":"us6000tzid"}},{"type":"Feature","geometry":{"type":"Point","coordinates":[95.1622,4.8247]},"properties":{"title":"M 5.3 - 81 km SSW of Banda Aceh, Indonesia","summary":"M 5.3 - 81 km SSW of Banda Aceh, Indonesia — M5.3 · 81 km SSW of Banda Aceh, Indonesia · depth 56.274 km","date":"2026-10-03T00:00:00Z","ts":1790985600,"severity":5,"source":"usgs_quakes","url":"https://earthquake.usgs.gov/earthquakes/eventpage/us6000tzfg","layer":"quakes","mag":5.3,"depth_km":56.274,"event_id":"us6000tzfg"}},{"type":"Feature","geometry":{"type":"Point","coordinates":[159.8296,51.5457]},"properties":{"title":"M 5.1 - 182 km SSE of Vilyuchinsk, Russia","summary":"M 5.1 - 182 km SSE of Vilyuchinsk, Russia — M5.1 · 182 km SSE of Vilyuchinsk, Russia · depth 10 km","date":"2026-10-03T00:00:00Z","ts":1790985600,"severity":5,"source":"usgs_quakes","url":"https://earthquake.usgs.gov/earthquakes/eventpage/us6000tze2","layer":"quakes","mag":5.1,"depth_km":10.0,"event_id":"us6000tze2"}},{"type":"Feature","geometry":{"type":"Point","coordinates":[36.1272,37.7292]},"properties":{"title":"M 5.0 - 21 km ESE of Feke, Turkey","summary":"M 5.0 - 21 km ESE of Feke, Turkey — M5.0 · 21 km ESE of Feke, Turkey · depth 10 km","date":"2026-10-04T13:06:32Z","ts":1791119192,"severity":5,"source":"usgs_quakes","url":"https://earthquake.usgs.gov/earthquakes/eventpage/us6000tzip","layer":"quakes","mag":5.0,"depth_km":10.0,"event_id":"us6000tzip"}},{"type":"Feature","geometry":{"type":"Point","coordinates":[120.4532,-8.2698]},"properties":{"title":"M 5.0 - 37 km N of Ruteng, Indonesia","summary":"M 5.0 - 37 km N of Ruteng, Indonesia — M5.0 · 37 km N of Ruteng, Indonesia · depth 10 km","date":"2026-10-04T13:06:32Z","ts":1791119192,"severity":5,"source":"usgs_quakes","url":"https://earthquake.usgs.gov/earthquakes/eventpage/us6000tzi5","layer":"quakes","mag":5.0,"depth_km":10.0,"event_id":"us6000tzi5"}},{"type":"Feature","geometry":{"type":"Point","coordinates":[-23.3522,-58.1594]},"properties":{"title":"M 4.9 - South Sandwich Islands region","summary":"M 4.9 - South Sandwich Islands region — M4.9 · South Sandwich Islands region · depth 10 km","date":"2026-10-04T13:06:32Z","ts":1791119192,"severity":4,"source":"usgs_quakes","url":"https://earthquake.usgs.gov/earthquakes/eventpage/us6000tzg0","layer":"quakes","mag":4.9,"depth_km":10.0,"event_id":"us6000tzg0"}},{"type":"Feature","geometry":{"type":"Point","coordinates":[147.1353,-6.5916]},"properties":{"title":"M 4.9 - 21 km NE of Lae, Papua New Guinea","summary":"M 4.9 - 21 km NE of Lae, Papua New Guinea — M4.9 · 21 km NE of Lae, Papua New Guinea · depth 94.221 km","date":"2026-10-04T13:06:32Z","ts":1791119192,"severity":4,"source":"usgs_quakes","url":"https://earthquake.usgs.gov/earthquakes/eventpage/us6000tzfv","layer":"quakes","mag":4.9,"depth_km":94.221,"event_id":"us6000tzfv"}},{"type":"Feature","geometry":{"type":"Point","coordinates":[93.3991,20.6061]},"properties":{"title":"M 4.9 - 72 km NE of Sittwe, Burma (Myanmar)","summary":"M 4.9 - 72 km NE of Sittwe, Burma (Myanmar) — M4.9 · 72 km NE of Sittwe, Burma (Myanmar) · depth 35 km","date":"2026-10-03T00:00:00Z","ts":1790985600,"severity":4,"source":"usgs_quakes","url":"https://earthquake.usgs.gov/earthquakes/eventpage/us6000tzdp","layer":"quakes","mag":4.9,"depth_km":35.0,"event_id":"us6000tzdp"}},{"type":"Feature","geometry":{"type":"Point","coordinates":[120.5325,-8.2236]},"properties":{"title":"M 4.8 - 43 km N of Ruteng, Indonesia","summary":"M 4.8 - 43 km N of Ruteng, Indonesia — M4.8 · 43 km N of Ruteng, Indonesia · depth 10 km","date":"2026-10-04T13:06:32Z","ts":1791119192,"severity":4,"source":"usgs_quakes","url":"https://earthquake.usgs.gov/earthquakes/eventpage/us6000tzi8","layer":"quakes","mag":4.8,"depth_km":10.0,"event_id":"us6000tzi8"}},{"type":"Feature","geometry":{"type":"Point","coordinates":[36.1685,37.7757]},"properties":{"title":"M 4.7 - 22 km E of Feke, Turkey","summary":"M 4.7 - 22 km E of Feke, Turkey — M4.7 · 22 km E of Feke, Turkey · depth 10 km","date":"2026-10-04T13:06:32Z","ts":1791119192,"severity":4,"source":"usgs_quakes","url":"https://earthquake.usgs.gov/earthquakes/eventpage/us6000tzil","layer":"quakes","mag":4.7,"depth_km":10.0,"event_id":"us6000tzil"}},{"type":"Feature","geometry":{"type":"Point","coordinates":[36.1749,37.8028]},"properties":{"title":"M 4.7 - 21 km SSE of Saimbeyli, Turkey","summary":"M 4.7 - 21 km SSE of Saimbeyli, Turkey — M4.7 · 21 km SSE of Saimbeyli, Turkey · depth 10 km","date":"2026-10-04T13:06:32Z","ts":1791119192,"severity":4,"source":"usgs_quakes","url":"https://earthquake.usgs.gov/earthquakes/eventpage/us6000tzif","layer":"quakes","mag":4.7,"depth_km":10.0,"event_id":"us6000tzif"}},{"type":"Feature","geometry":{"type":"Point","coordinates":[112.6395,-9.2014]},"properties":{"title":"M 4.6 - 110 km S of Dampit, Indonesia","summary":"M 4.6 - 110 km S of Dampit, Indonesia — M4.6 · 110 km S of Dampit, Indonesia · depth 52.773 km","date":"2026-10-04T13:06:32Z","ts":1791119192,"severity":4,"source":"usgs_quakes","url":"https://earthquake.usgs.gov/earthquakes/eventpage/us6000tziz","layer":"quakes","mag":4.6,"depth_km":52.773,"event_id":"us6000tziz"}},{"type":"Feature","geometry":{"type":"Point","coordinates":[151.4257,-5.0439]},"properties":{"title":"M 4.6 - 121 km SW of Kokopo, Papua New Guinea","summary":"M 4.6 - 121 km SW of Kokopo, Papua New Guinea — M4.6 · 121 km SW of Kokopo, Papua New Guinea · depth 162.143 km","date":"2026-10-04T13:06:32Z","ts":1791119192,"severity":4,"source":"usgs_quakes","url":"https://earthquake.usgs.gov/earthquakes/eventpage/us6000tzic","layer":"quakes","mag":4.6,"depth_km":162.143,"event_id":"us6000tzic"}},{"type":"Feature","geometry":{"type":"Point","coordinates":[93.7503,21.3382]},"properties":{"title":"M 4.6 - 121 km WNW of Chauk, Burma (Myanmar)","summary":"M 4.6 - 121 km WNW of Chauk, Burma (Myanmar) — M4.6 · 121 km WNW of Chauk, Burma (Myanmar) · depth 58.258 km","date":"2026-10-04T13:06:32Z","ts":1791119192,"severity":4,"source":"usgs_quakes","url":"https://earthquake.usgs.gov/earthquakes/eventpage/us6000tzh0","layer":"quakes","mag":4.6,"depth_km":58.258,"event_id":"us6000tzh0"}},{"type":"Feature","geometry":{"type":"Point","coordinates":[147.1678,-6.0496]},"properties":{"title":"M 4.6 - 76 km NNE of Lae, Papua New Guinea","summary":"M 4.6 - 76 km NNE of Lae, Papua New Guinea — M4.6 · 76 km NNE of Lae, Papua New Guinea · depth 81.86 km","date":"2026-10-03T00:00:00Z","ts":1790985600,"severity":4,"source":"usgs_quakes","url":"https://earthquake.usgs.gov/earthquakes/eventpage/us6000tzdj","layer":"quakes","mag":4.6,"depth_km":81.86,"event_id":"us6000tzdj"}},{"type":"Feature","geometry":{"type":"Point","coordinates":[122.9296,3.5895]},"properties":{"title":"M 4.5 - 293 km SSE of Tabiauan, Philippines","summary":"M 4.5 - 293 km SSE of Tabiauan, Philippines — M4.5 · 293 km SSE of Tabiauan, Philippines · depth 575.042 km","date":"2026-10-03T00:00:00Z","ts":1790985600,"severity":4,"source":"usgs_quakes","url":"https://earthquake.usgs.gov/earthquakes/eventpage/us6000tzf7","layer":"quakes","mag":4.5,"depth_km":575.042,"event_id":"us6000tzf7"}},{"type":"Feature","geometry":{"type":"Point","coordinates":[-93.3523,14.1052]},"properties":{"title":"M 4.5 - 121 km SW of Puerto Madero, Mexico","summary":"M 4.5 - 121 km SW of Puerto Madero, Mexico — M4.5 · 121 km SW of Puerto Madero, Mexico · depth 10 km","date":"2026-10-03T00:00:00Z","ts":1790985600,"severity":4,"source":"usgs_quakes","url":"https://earthquake.usgs.gov/earthquakes/eventpage/us6000tze6","layer":"quakes","mag":4.5,"depth_km":10.0,"event_id":"us6000tze6"}},{"type":"Feature","geometry":{"type":"Point","coordinates":[-179.4827,-27.4948]},"properties":{"title":"M 4.5 - Kermadec Islands region","summary":"M 4.5 - Kermadec Islands region — M4.5 · Kermadec Islands region · depth 453.487 km","date":"2026-10-03T00:00:00Z","ts":1790985600,"severity":4,"source":"usgs_quakes","url":"https://earthquake.usgs.gov/earthquakes/eventpage/us6000tzcm","layer":"quakes","mag":4.5,"depth_km":453.487,"event_id":"us6000tzcm"}},{"type":"Feature","geometry":{"type":"Point","coordinates":[-19.965,-0.4325]},"properties":{"title":"M 5.3 - central Mid-Atlantic Ridge","summary":"M 5.3 - central Mid-Atlantic Ridge — M5.3 · central Mid-Atlantic Ridge · depth 10 km","date":"2026-10-05T15:33:08Z","ts":1791214388,"severity":5,"source":"usgs_quakes","url":"https://earthquake.usgs.gov/earthquakes/eventpage/us6000tzlp","layer":"quakes","mag":5.3,"depth_km":10.0,"event_id":"us6000tzlp"}},{"type":"Feature","geometry":{"type":"Point","coordinates":[147.395,15.8046]},"properties":{"title":"M 5.0 - 187 km ENE of Saipan, Northern Mariana Islands","summary":"M 5.0 - 187 km ENE of Saipan, Northern Mariana Islands — M5.0 · 187 km ENE of Saipan, Northern Mariana Islands · depth 10 km","date":"2026-10-05T15:33:08Z","ts":1791214388,"severity":5,"source":"usgs_quakes","url":"https://earthquake.usgs.gov/earthquakes/eventpage/us6000tzna","layer":"quakes","mag":5.0,"depth_km":10.0,"event_id":"us6000tzna"}},{"type":"Feature","geometry":{"type":"Point","coordinates":[-174.2679,-21.4208]},"properties":{"title":"M 5.0 - 71 km E of ‘Ohonua, Tonga","summary":"M 5.0 - 71 km E of ‘Ohonua, Tonga — M5.0 · 71 km E of ‘Ohonua, Tonga · depth 10 km","date":"2026-10-05T15:33:08Z","ts":1791214388,"severity":5,"source":"usgs_quakes","url":"https://earthquake.usgs.gov/earthquakes/eventpage/us6000tzme","layer":"quakes","mag":5.0,"depth_km":10.0,"event_id":"us6000tzme"}},{"type":"Feature","geometry":{"type":"Point","coordinates":[144.0442,22.8488]},"properties":{"title":"M 4.9 - Volcano Islands, Japan region","summary":"M 4.9 - Volcano Islands, Japan region — M4.9 · Volcano Islands, Japan region · depth 35 km","date":"2026-10-05T15:33:08Z","ts":1791214388,"severity":4,"source":"usgs_quakes","url":"https://earthquake.usgs.gov/earthquakes/eventpage/us6000tzmt","layer":"quakes","mag":4.9,"depth_km":35.0,"event_id":"us6000tzmt"}},{"type":"Feature","geometry":{"type":"Point","coordinates":[126.9394,4.4975]},"properties":{"title":"M 4.8 - 191 km ESE of Sarangani, Philippines","summary":"M 4.8 - 191 km ESE of Sarangani, Philippines — M4.8 · 191 km ESE of Sarangani, Philippines · depth 51.291 km","date":"2026-10-05T15:33:08Z","ts":1791214388,"severity":4,"source":"usgs_quakes","url":"https://earthquake.usgs.gov/earthquakes/eventpage/us6000tzmk","layer":"quakes","mag":4.8,"depth_km":51.291,"event_id":"us6000tzmk"}},{"type":"Feature","geometry":{"type":"Point","coordinates":[71.0216,36.611]},"properties":{"title":"M 4.8 - 32 km SSE of Jurm, Afghanistan","summary":"M 4.8 - 32 km SSE of Jurm, Afghanistan — M4.8 · 32 km SSE of Jurm, Afghanistan · depth 248.906 km","date":"2026-10-04T00:00:00Z","ts":1791072000,"severity":4,"source":"usgs_quakes","url":"https://earthquake.usgs.gov/earthquakes/eventpage/us6000tzkn","layer":"quakes","mag":4.8,"depth_km":248.906,"event_id":"us6000tzkn"}},{"type":"Feature","geometry":{"type":"Point","coordinates":[123.2696,25.1037]},"properties":{"title":"M 4.7 - 75 km NNE of Yonakuni, Japan","summary":"M 4.7 - 75 km NNE of Yonakuni, Japan — M4.7 · 75 km NNE of Yonakuni, Japan · depth 156.219 km","date":"2026-10-05T15:33:08Z","ts":1791214388,"severity":4,"source":"usgs_quakes","url":"https://earthquake.usgs.gov/earthquakes/eventpage/us6000tznu","layer":"quakes","mag":4.7,"depth_km":156.219,"event_id":"us6000tznu"}},{"type":"Feature","geometry":{"type":"Point","coordinates":[167.1484,-15.7157]},"properties":{"title":"M 4.6 - 21 km S of Luganville, Vanuatu","summary":"M 4.6 - 21 km S of Luganville, Vanuatu — M4.6 · 21 km S of Luganville, Vanuatu · depth 35 km","date":"2026-10-05T15:33:08Z","ts":1791214388,"severity":4,"source":"usgs_quakes","url":"https://earthquake.usgs.gov/earthquakes/eventpage/us6000tznh","layer":"quakes","mag":4.6,"depth_km":35.0,"event_id":"us6000tznh"}},{"type":"Feature","geometry":{"type":"Point","coordinates":[151.8684,45.953]},"properties":{"title":"M 4.5 - Kuril Islands","summary":"M 4.5 - Kuril Islands — M4.5 · Kuril Islands · depth 35 km","date":"2026-10-05T15:33:08Z","ts":1791214388,"severity":4,"source":"usgs_quakes","url":"https://earthquake.usgs.gov/earthquakes/eventpage/us6000tzm7","layer":"quakes","mag":4.5,"depth_km":35.0,"event_id":"us6000tzm7"}},{"type":"Feature","geometry":{"type":"Point","coordinates":[179.8108,-24.4235]},"properties":{"title":"M 5.0 - south of the Fiji Islands","summary":"M 5.0 - south of the Fiji Islands — M5.0 · south of the Fiji Islands · depth 518.638 km","date":"2026-10-05T00:00:00Z","ts":1791158400,"severity":5,"source":"usgs_quakes","url":"https://earthquake.usgs.gov/earthquakes/eventpage/us6000tzsc","layer":"quakes","mag":5.0,"depth_km":518.638,"event_id":"us6000tzsc"}},{"type":"Feature","geometry":{"type":"Point","coordinates":[118.8285,4.8667]},"properties":{"title":"M 4.9 - 48 km NNE of Semporna, Malaysia","summary":"M 4.9 - 48 km NNE of Semporna, Malaysia — M4.9 · 48 km NNE of Semporna, Malaysia · depth 10 km","date":"2026-10-06T13:57:32Z","ts":1791295052,"severity":4,"source":"usgs_quakes","url":"https://earthquake.usgs.gov/earthquakes/eventpage/us6000tzwg","layer":"quakes","mag":4.9,"depth_km":10.0,"event_id":"us6000tzwg"}},{"type":"Feature","geometry":{"type":"Point","coordinates":[152.7519,-4.4773]},"properties":{"title":"M 4.9 - 55 km ESE of Kokopo, Papua New Guinea","summary":"M 4.9 - 55 km ESE of Kokopo, Papua New Guinea — M4.9 · 55 km ESE of Kokopo, Papua New Guinea · depth 20.643 km","date":"2026-10-06T13:57:32Z","ts":1791295052,"severity":4,"source":"usgs_quakes","url":"https://earthquake.usgs.gov/earthquakes/eventpage/us6000tzvn","layer":"quakes","mag":4.9,"depth_km":20.643,"event_id":"us6000tzvn"}},{"type":"Feature","geometry":{"type":"Point","coordinates":[144.4068,6.7818]},"properties":{"title":"M 4.9 - State of Yap, Federated States of Micronesia","summary":"M 4.9 - State of Yap, Federated States of Micronesia — M4.9 · State of Yap, Federated States of Micronesia · depth 10 km","date":"2026-10-06T13:57:32Z","ts":1791295052,"severity":4,"source":"usgs_quakes","url":"https://earthquake.usgs.gov/earthquakes/eventpage/us6000tzus","layer":"quakes","mag":4.9,"depth_km":10.0,"event_id":"us6000tzus"}},{"type":"Feature","geometry":{"type":"Point","coordinates":[120.3932,-7.8323]},"properties":{"title":"M 4.8 - 86 km N of Ruteng, Indonesia","summary":"M 4.8 - 86 km N of Ruteng, Indonesia — M4.8 · 86 km N of Ruteng, Indonesia · depth 8.653 km","date":"2026-10-06T13:57:32Z","ts":1791295052,"severity":4,"source":"usgs_quakes","url":"https://earthquake.usgs.gov/earthquakes/eventpage/us6000tzuj","layer":"quakes","mag":4.8,"depth_km":8.653,"event_id":"us6000tzuj"}},{"type":"Feature","geometry":{"type":"Point","coordinates":[154.2682,-5.7949]},"properties":{"title":"M 4.8 - 146 km WNW of Panguna, Papua New Guinea","summary":"M 4.8 - 146 km WNW of Panguna, Papua New Guinea — M4.8 · 146 km WNW of Panguna, Papua New Guinea · depth 142.487 km","date":"2026-10-05T00:00:00Z","ts":1791158400,"severity":4,"source":"usgs_quakes","url":"https://earthquake.usgs.gov/earthquakes/eventpage/us6000tztg","layer":"quakes","mag":4.8,"depth_km":142.487,"event_id":"us6000tztg"}},{"type":"Feature","geometry":{"type":"Point","coordinates":[-68.6026,-21.1586]},"properties":{"title":"M 4.7 - 36 km WNW of Ollagüe, Chile","summary":"M 4.7 - 36 km WNW of Ollagüe, Chile — M4.7 · 36 km WNW of Ollagüe, Chile · depth 122.011 km","date":"2026-10-06T13:57:32Z","ts":1791295052,"severity":4,"source":"usgs_quakes","url":"https://earthquake.usgs.gov/earthquakes/eventpage/us6000tzv6","layer":"quakes","mag":4.7,"depth_km":122.011,"event_id":"us6000tzv6"}},{"type":"Feature","geometry":{"type":"Point","coordinates":[-17.3115,64.5091]},"properties":{"title":"M 4.7 - 105 km WNW of Höfn, Iceland","summary":"M 4.7 - 105 km WNW of Höfn, Iceland — M4.7 · 105 km WNW of Höfn, Iceland · depth 10 km","date":"2026-10-05T00:00:00Z","ts":1791158400,"severity":4,"source":"usgs_quakes","url":"https://earthquake.usgs.gov/earthquakes/eventpage/us6000tzpq","layer":"quakes","mag":4.7,"depth_km":10.0,"event_id":"us6000tzpq"}},{"type":"Feature","geometry":{"type":"Point","coordinates":[142.845,29.02]},"properties":{"title":"M 4.6 - Izu Islands, Japan region","summary":"M 4.6 - Izu Islands, Japan region — M4.6 · Izu Islands, Japan region · depth 10 km","date":"2026-10-06T13:57:32Z","ts":1791295052,"severity":4,"source":"usgs_quakes","url":"https://earthquake.usgs.gov/earthquakes/eventpage/us6000tzuq","layer":"quakes","mag":4.6,"depth_km":10.0,"event_id":"us6000tzuq"}},{"type":"Feature","geometry":{"type":"Point","coordinates":[92.8359,26.3539]},"properties":{"title":"M 4.6 - 31 km S of Tezpur, India","summary":"M 4.6 - 31 km S of Tezpur, India — M4.6 · 31 km S of Tezpur, India · depth 10 km","date":"2026-10-05T00:00:00Z","ts":1791158400,"severity":4,"source":"usgs_quakes","url":"https://earthquake.usgs.gov/earthquakes/eventpage/us6000tzth","layer":"quakes","mag":4.6,"depth_km":10.0,"event_id":"us6000tzth"}},{"type":"Feature","geometry":{"type":"Point","coordinates":[40.0091,8.9608]},"properties":{"title":"M 4.6 - 12 km ENE of Metahāra, Ethiopia","summary":"M 4.6 - 12 km ENE of Metahāra, Ethiopia — M4.6 · 12 km ENE of Metahāra, Ethiopia · depth 10 km","date":"2026-10-05T00:00:00Z","ts":1791158400,"severity":4,"source":"usgs_quakes","url":"https://earthquake.usgs.gov/earthquakes/eventpage/us6000tzry","layer":"quakes","mag":4.6,"depth_km":10.0,"event_id":"us6000tzry"}},{"type":"Feature","geometry":{"type":"Point","coordinates":[-67.4214,-20.0088]},"properties":{"title":"M 4.5 - 60 km WNW of Colchani, Bolivia","summary":"M 4.5 - 60 km WNW of Colchani, Bolivia — M4.5 · 60 km WNW of Colchani, Bolivia · depth 191.741 km","date":"2026-10-06T13:57:32Z","ts":1791295052,"severity":4,"source":"usgs_quakes","url":"https://earthquake.usgs.gov/earthquakes/eventpage/us6000tzva","layer":"quakes","mag":4.5,"depth_km":191.741,"event_id":"us6000tzva"}},{"type":"Feature","geometry":{"type":"Point","coordinates":[118.9729,-9.6687]},"properties":{"title":"M 4.5 - 39 km SW of Tambolaka, Indonesia","summary":"M 4.5 - 39 km SW of Tambolaka, Indonesia — M4.5 · 39 km SW of Tambolaka, Indonesia · depth 35 km","date":"2026-10-05T00:00:00Z","ts":1791158400,"severity":4,"source":"usgs_quakes","url":"https://earthquake.usgs.gov/earthquakes/eventpage/us6000tzss","layer":"quakes","mag":4.5,"depth_km":35.0,"event_id":"us6000tzss"}},{"type":"Feature","geometry":{"type":"Point","coordinates":[154.8085,48.4554]},"properties":{"title":"M 5.9 - 264 km SSW of Severo-Kuril’sk, Russia","summary":"M 5.9 - 264 km SSW of Severo-Kuril’sk, Russia — M5.9 · 264 km SSW of Severo-Kuril’sk, Russia · depth 26.047 km","date":"2026-10-06T00:00:00Z","ts":1791244800,"severity":6,"source":"usgs_quakes","url":"https://earthquake.usgs.gov/earthquakes/eventpage/us6000u0hy","layer":"quakes","mag":5.9,"depth_km":26.047,"event_id":"us6000u0hy"}},{"type":"Feature","geometry":{"type":"Point","coordinates":[-153.609,58.802]},"properties":{"title":"M 5.5 - 92 km NNW of Aleneva, Alaska","summary":"M 5.5 - 92 km NNW of Aleneva, Alaska — M5.5 · 92 km NNW of Aleneva, Alaska · depth 87.6 km","date":"2026-10-06T00:00:00Z","ts":1791244800,"severity":6,"source":"usgs_quakes","url":"https://earthquake.usgs.gov/earthquakes/eventpage/aka2026tuxgky","layer":"quakes","mag":5.5,"depth_km":87.6,"event_id":"aka2026tuxgky"}},{"type":"Feature","geometry":{"type":"Point","coordinates":[79.6148,30.1171]},"properties":{"title":"M 5.1 - 34 km NNW of Bāgeshwar, India","summary":"M 5.1 - 34 km NNW of Bāgeshwar, India — M5.1 · 34 km NNW of Bāgeshwar, India · depth 10 km","date":"2026-10-06T00:00:00Z","ts":1791244800,"severity":5,"source":"usgs_quakes","url":"https://earthquake.usgs.gov/earthquakes/eventpage/us6000u0hz","layer":"quakes","mag":5.1,"depth_km":10.0,"event_id":"us6000u0hz"}},{"type":"Feature","geometry":{"type":"Point","coordinates":[-93.1891,14.6207]},"properties":{"title":"M 4.9 - 80 km SW of El Arenal, Mexico","summary":"M 4.9 - 80 km SW of El Arenal, Mexico — M4.9 · 80 km SW of El Arenal, Mexico · depth 61.654 km","date":"2026-10-07T14:13:23Z","ts":1791382403,"severity":4,"source":"usgs_quakes","url":"https://earthquake.usgs.gov/earthquakes/eventpage/us6000u0q1","layer":"quakes","mag":4.9,"depth_km":61.654,"event_id":"us6000u0q1"}},{"type":"Feature","geometry":{"type":"Point","coordinates":[-30.0294,-55.6737]},"properties":{"title":"M 4.9 - South Sandwich Islands region","summary":"M 4.9 - South Sandwich Islands region — M4.9 · South Sandwich Islands region · depth 10 km","date":"2026-10-07T14:13:23Z","ts":1791382403,"severity":4,"source":"usgs_quakes","url":"https://earthquake.usgs.gov/earthquakes/eventpage/us6000u0pb","layer":"quakes","mag":4.9,"depth_km":10.0,"event_id":"us6000u0pb"}},{"type":"Feature","geometry":{"type":"Point","coordinates":[139.5723,-3.9438]},"properties":{"title":"M 4.9 - 189 km SW of Abepura, Indonesia","summary":"M 4.9 - 189 km SW of Abepura, Indonesia — M4.9 · 189 km SW of Abepura, Indonesia · depth 80.203 km","date":"2026-10-06T00:00:00Z","ts":1791244800,"severity":4,"source":"usgs_quakes","url":"https://earthquake.usgs.gov/earthquakes/eventpage/us6000u0le","layer":"quakes","mag":4.9,"depth_km":80.203,"event_id":"us6000u0le"}},{"type":"Feature","geometry":{"type":"Point","coordinates":[88.2203,42.2039]},"properties":{"title":"M 4.9 - 114 km SW of Turpan, China","summary":"M 4.9 - 114 km SW of Turpan, China — M4.9 · 114 km SW of Turpan, China · depth 10 km","date":"2026-10-06T00:00:00Z","ts":1791244800,"severity":4,"source":"usgs_quakes","url":"https://earthquake.usgs.gov/earthquakes/eventpage/us6000u0jq","layer":"quakes","mag":4.9,"depth_km":10.0,"event_id":"us6000u0jq"}},{"type":"Feature","geometry":{"type":"Point","coordinates":[169.0011,-20.979]},"properties":{"title":"M 4.8 - 132 km ENE of Tadine, New Caledonia","summary":"M 4.8 - 132 km ENE of Tadine, New Caledonia — M4.8 · 132 km ENE of Tadine, New Caledonia · depth 10 km","date":"2026-10-07T14:13:23Z","ts":1791382403,"severity":4,"source":"usgs_quakes","url":"https://earthquake.usgs.gov/earthquakes/eventpage/us6000u0ns","layer":"quakes","mag":4.8,"depth_km":10.0,"event_id":"us6000u0ns"}},{"type":"Feature","geometry":{"type":"Point","coordinates":[159.4666,52.9685]},"properties":{"title":"M 4.8 - 57 km E of Petropavlovsk-Kamchatsky, Russia","summary":"M 4.8 - 57 km E of Petropavlovsk-Kamchatsky, Russia — M4.8 · 57 km E of Petropavlovsk-Kamchatsky, Russia · depth 61.934 km","date":"2026-10-07T14:13:23Z","ts":1791382403,"severity":4,"source":"usgs_quakes","url":"https://earthquake.usgs.gov/earthquakes/eventpage/us6000u0mu","layer":"quakes","mag":4.8,"depth_km":61.934,"event_id":"us6000u0mu"}},{"type":"Feature","geometry":{"type":"Point","coordinates":[147.7419,44.0053]},"properties":{"title":"M 4.8 - 85 km ENE of Shikotan, Russia","summary":"M 4.8 - 85 km ENE of Shikotan, Russia — M4.8 · 85 km ENE of Shikotan, Russia · depth 35 km","date":"2026-10-06T00:00:00Z","ts":1791244800,"severity":4,"source":"usgs_quakes","url":"https://earthquake.usgs.gov/earthquakes/eventpage/us6000u0ji","layer":"quakes","mag":4.8,"depth_km":35.0,"event_id":"us6000u0ji"}},{"type":"Feature","geometry":{"type":"Point","coordinates":[124.6702,1.5798]},"properties":{"title":"M 4.7 - 22 km WNW of Manado, Indonesia","summary":"M 4.7 - 22 km WNW of Manado, Indonesia — M4.7 · 22 km WNW of Manado, Indonesia · depth 139.831 km","date":"2026-10-07T14:13:23Z","ts":1791382403,"severity":4,"source":"usgs_quakes","url":"https://earthquake.usgs.gov/earthquakes/eventpage/us6000u0qw","layer":"quakes","mag":4.7,"depth_km":139.831,"event_id":"us6000u0qw"}},{"type":"Feature","geometry":{"type":"Point","coordinates":[-177.6188,-29.8721]},"properties":{"title":"M 4.7 - Kermadec Islands, New Zealand","summary":"M 4.7 - Kermadec Islands, New Zealand — M4.7 · Kermadec Islands, New Zealand · depth 71.248 km","date":"2026-10-06T00:00:00Z","ts":1791244800,"severity":4,"source":"usgs_quakes","url":"https://earthquake.usgs.gov/earthquakes/eventpage/us6000u0ll","layer":"quakes","mag":4.7,"depth_km":71.248,"event_id":"us6000u0ll"}},{"type":"Feature","geometry":{"type":"Point","coordinates":[72.295,-6.6864]},"properties":{"title":"M 4.7 - Chagos Archipelago region","summary":"M 4.7 - Chagos Archipelago region — M4.7 · Chagos Archipelago region · depth 10 km","date":"2026-10-06T00:00:00Z","ts":1791244800,"severity":4,"source":"usgs_quakes","url":"https://earthquake.usgs.gov/earthquakes/eventpage/us6000u01m","layer":"quakes","mag":4.7,"depth_km":10.0,"event_id":"us6000u01m"}},{"type":"Feature","geometry":{"type":"Point","coordinates":[153.3699,48.1853]},"properties":{"title":"M 4.6 - Kuril Islands","summary":"M 4.6 - Kuril Islands — M4.6 · Kuril Islands · depth 108.743 km","date":"2026-10-07T14:13:23Z","ts":1791382403,"severity":4,"source":"usgs_quakes","url":"https://earthquake.usgs.gov/earthquakes/eventpage/us6000u0nb","layer":"quakes","mag":4.6,"depth_km":108.743,"event_id":"us6000u0nb"}},{"type":"Feature","geometry":{"type":"Point","coordinates":[116.218,-8.4933]},"properties":{"title":"M 4.6 - 14 km NE of Mataram, Indonesia","summary":"M 4.6 - 14 km NE of Mataram, Indonesia — M4.6 · 14 km NE of Mataram, Indonesia · depth 144.45 km","date":"2026-10-06T00:00:00Z","ts":1791244800,"severity":4,"source":"usgs_quakes","url":"https://earthquake.usgs.gov/earthquakes/eventpage/us6000u0km","layer":"quakes","mag":4.6,"depth_km":144.45,"event_id":"us6000u0km"}},{"type":"Feature","geometry":{"type":"Point","coordinates":[179.8316,-24.2564]},"properties":{"title":"M 4.5 - south of the Fiji Islands","summary":"M 4.5 - south of the Fiji Islands — M4.5 · south of the Fiji Islands · depth 528.878 km","date":"2026-10-07T14:13:23Z","ts":1791382403,"severity":4,"source":"usgs_quakes","url":"https://earthquake.usgs.gov/earthquakes/eventpage/us6000u0qs","layer":"quakes","mag":4.5,"depth_km":528.878,"event_id":"us6000u0qs"}},{"type":"Feature","geometry":{"type":"Point","coordinates":[141.2803,36.9504]},"properties":{"title":"M 4.5 - 37 km ESE of Iwaki, Japan","summary":"M 4.5 - 37 km ESE of Iwaki, Japan — M4.5 · 37 km ESE of Iwaki, Japan · depth 52.668 km","date":"2026-10-07T14:13:23Z","ts":1791382403,"severity":4,"source":"usgs_quakes","url":"https://earthquake.usgs.gov/earthquakes/eventpage/us6000u0mr","layer":"quakes","mag":4.5,"depth_km":52.668,"event_id":"us6000u0mr"}},{"type":"Feature","geometry":{"type":"Point","coordinates":[101.8914,-3.6796]},"properties":{"title":"M 4.5 - 43 km WNW of Bengkulu, Indonesia","summary":"M 4.5 - 43 km WNW of Bengkulu, Indonesia — M4.5 · 43 km WNW of Bengkulu, Indonesia · depth 73.115 km","date":"2026-10-06T00:00:00Z","ts":1791244800,"severity":4,"source":"usgs_quakes","url":"https://earthquake.usgs.gov/earthquakes/eventpage/us6000u0k2","layer":"quakes","mag":4.5,"depth_km":73.115,"event_id":"us6000u0k2"}},{"type":"Feature","geometry":{"type":"Point","coordinates":[168.1889,-15.5411]},"properties":{"title":"M 6.3 - 102 km NE of Norsup, Vanuatu","summary":"M 6.3 - 102 km NE of Norsup, Vanuatu — M6.3 · 102 km NE of Norsup, Vanuatu · depth 10 km","date":"2026-10-08T14:22:41Z","ts":1791469361,"severity":7,"source":"usgs_quakes","url":"https://earthquake.usgs.gov/earthquakes/eventpage/us6000u0xi","layer":"quakes","mag":6.3,"depth_km":10.0,"event_id":"us6000u0xi"}},{"type":"Feature","geometry":{"type":"Point","coordinates":[125.1521,5.6006]},"properties":{"title":"M 5.5 - 17 km SW of Burias, Philippines","summary":"M 5.5 - 17 km SW of Burias, Philippines — M5.5 · 17 km SW of Burias, Philippines · depth 52.054 km","date":"2026-10-08T14:22:41Z","ts":1791469361,"severity":6,"source":"usgs_quakes","url":"https://earthquake.usgs.gov/earthquakes/eventpage/us6000u0x4","layer":"quakes","mag":5.5,"depth_km":52.054,"event_id":"us6000u0x4"}},{"type":"Feature","geometry":{"type":"Point","coordinates":[140.2121,-52.5475]},"properties":{"title":"M 5.5 - west of Macquarie Island","summary":"M 5.5 - west of Macquarie Island — M5.5 · west of Macquarie Island · depth 10 km","date":"2026-10-08T14:22:41Z","ts":1791469361,"severity":6,"source":"usgs_quakes","url":"https://earthquake.usgs.gov/earthquakes/eventpage/us6000u0ws","layer":"quakes","mag":5.5,"depth_km":10.0,"event_id":"us6000u0ws"}},{"type":"Feature","geometry":{"type":"Point","coordinates":[72.2362,-6.6637]},"properties":{"title":"M 5.2 - Chagos Archipelago region","summary":"M 5.2 - Chagos Archipelago region — M5.2 · Chagos Archipelago region · depth 10 km","date":"2026-10-07T00:00:00Z","ts":1791331200,"severity":5,"source":"usgs_quakes","url":"https://earthquake.usgs.gov/earthquakes/eventpage/us6000u0rr","layer":"quakes","mag":5.2,"depth_km":10.0,"event_id":"us6000u0rr"}},{"type":"Feature","geometry":{"type":"Point","coordinates":[-178.4545,-18.0147]},"properties":{"title":"M 5.1 - 236 km E of Levuka, Fiji","summary":"M 5.1 - 236 km E of Levuka, Fiji — M5.1 · 236 km E of Levuka, Fiji · depth 602.272 km","date":"2026-10-08T14:22:41Z","ts":1791469361,"severity":5,"source":"usgs_quakes","url":"https://earthquake.usgs.gov/earthquakes/eventpage/us6000u0xn","layer":"quakes","mag":5.1,"depth_km":602.272,"event_id":"us6000u0xn"}},{"type":"Feature","geometry":{"type":"Point","coordinates":[120.5395,-7.7761]},"properties":{"title":"M 5.0 - 92 km N of Ruteng, Indonesia","summary":"M 5.0 - 92 km N of Ruteng, Indonesia — M5.0 · 92 km N of Ruteng, Indonesia · depth 10 km","date":"2026-10-08T14:22:41Z","ts":1791469361,"severity":5,"source":"usgs_quakes","url":"https://earthquake.usgs.gov/earthquakes/eventpage/us6000u0wa","layer":"quakes","mag":5.0,"depth_km":10.0,"event_id":"us6000u0wa"}},{"type":"Feature","geometry":{"type":"Point","coordinates":[14.3516,39.2061]},"properties":{"title":"M 4.9 - 81 km NNW of Malfa, Italy","summary":"M 4.9 - 81 km NNW of Malfa, Italy — M4.9 · 81 km NNW of Malfa, Italy · depth 367.078 km","date":"2026-10-08T14:22:41Z","ts":1791469361,"severity":4,"source":"usgs_quakes","url":"https://earthquake.usgs.gov/earthquakes/eventpage/us6000u0w0","layer":"quakes","mag":4.9,"depth_km":367.078,"event_id":"us6000u0w0"}},{"type":"Feature","geometry":{"type":"Point","coordinates":[140.5835,35.5597]},"properties":{"title":"M 4.9 - 13 km SE of Yokoshiba, Japan","summary":"M 4.9 - 13 km SE of Yokoshiba, Japan — M4.9 · 13 km SE of Yokoshiba, Japan · depth 50.601 km","date":"2026-10-07T00:00:00Z","ts":1791331200,"severity":4,"source":"usgs_quakes","url":"https://earthquake.usgs.gov/earthquakes/eventpage/us6000u0u7","layer":"quakes","mag":4.9,"depth_km":50.601,"event_id":"us6000u0u7"}},{"type":"Feature","geometry":{"type":"Point","coordinates":[162.5648,54.4775]},"properties":{"title":"M 4.8 - 194 km S of Ust’-Kamchatsk Staryy, Russia","summary":"M 4.8 - 194 km S of Ust’-Kamchatsk Staryy, Russia — M4.8 · 194 km S of Ust’-Kamchatsk Staryy, Russia · depth 10 km","date":"2026-10-07T00:00:00Z","ts":1791331200,"severity":4,"source":"usgs_quakes","url":"https://earthquake.usgs.gov/earthquakes/eventpage/us6000u0tm","layer":"quakes","mag":4.8,"depth_km":10.0,"event_id":"us6000u0tm"}},{"type":"Feature","geometry":{"type":"Point","coordinates":[118.8068,-9.421]},"properties":{"title":"M 4.7 - 47 km W of Tambolaka, Indonesia","summary":"M 4.7 - 47 km W of Tambolaka, Indonesia — M4.7 · 47 km W of Tambolaka, Indonesia · depth 65.279 km","date":"2026-10-08T14:22:41Z","ts":1791469361,"severity":4,"source":"usgs_quakes","url":"https://earthquake.usgs.gov/earthquakes/eventpage/us6000u0wb","layer":"quakes","mag":4.7,"depth_km":65.279,"event_id":"us6000u0wb"}},{"type":"Feature","geometry":{"type":"Point","coordinates":[121.0443,-7.8993]},"properties":{"title":"M 4.7 - 101 km NE of Ruteng, Indonesia","summary":"M 4.7 - 101 km NE of Ruteng, Indonesia — M4.7 · 101 km NE of Ruteng, Indonesia · depth 10 km","date":"2026-10-08T14:22:41Z","ts":1791469361,"severity":4,"source":"usgs_quakes","url":"https://earthquake.usgs.gov/earthquakes/eventpage/us6000u0vw","layer":"quakes","mag":4.7,"depth_km":10.0,"event_id":"us6000u0vw"}},{"type":"Feature","geometry":{"type":"Point","coordinates":[125.7754,5.3818]},"properties":{"title":"M 4.7 - 34 km E of Sarangani, Philippines","summary":"M 4.7 - 34 km E of Sarangani, Philippines — M4.7 · 34 km E of Sarangani, Philippines · depth 117.206 km","date":"2026-10-07T00:00:00Z","ts":1791331200,"severity":4,"source":"usgs_quakes","url":"https://earthquake.usgs.gov/earthquakes/eventpage/us6000u0t4","layer":"quakes","mag":4.7,"depth_km":117.206,"event_id":"us6000u0t4"}},{"type":"Feature","geometry":{"type":"Point","coordinates":[-68.68,-21.1132]},"properties":{"title":"M 4.7 - 45 km WNW of Ollagüe, Chile","summary":"M 4.7 - 45 km WNW of Ollagüe, Chile — M4.7 · 45 km WNW of Ollagüe, Chile · depth 105.86 km","date":"2026-10-07T00:00:00Z","ts":1791331200,"severity":4,"source":"usgs_quakes","url":"https://earthquake.usgs.gov/earthquakes/eventpage/us6000u0rx","layer":"quakes","mag":4.7,"depth_km":105.86,"event_id":"us6000u0rx"}},{"type":"Feature","geometry":{"type":"Point","coordinates":[94.7814,5.4545]},"properties":{"title":"M 4.6 - 61 km W of Banda Aceh, Indonesia","summary":"M 4.6 - 61 km W of Banda Aceh, Indonesia — M4.6 · 61 km W of Banda Aceh, Indonesia · depth 97.534 km","date":"2026-10-08T14:22:41Z","ts":1791469361,"severity":4,"source":"usgs_quakes","url":"https://earthquake.usgs.gov/earthquakes/eventpage/us6000u0x2","layer":"quakes","mag":4.6,"depth_km":97.534,"event_id":"us6000u0x2"}},{"type":"Feature","geometry":{"type":"Point","coordinates":[179.8762,-24.7869]},"properties":{"title":"M 4.6 - south of the Fiji Islands","summary":"M 4.6 - south of the Fiji Islands — M4.6 · south of the Fiji Islands · depth 504.432 km","date":"2026-10-07T00:00:00Z","ts":1791331200,"severity":4,"source":"usgs_quakes","url":"https://earthquake.usgs.gov/earthquakes/eventpage/us6000u0tl","layer":"quakes","mag":4.6,"depth_km":504.432,"event_id":"us6000u0tl"}},{"type":"Feature","geometry":{"type":"Point","coordinates":[143.8558,-4.4473]},"properties":{"title":"M 4.6 - 48 km SSW of Angoram, Papua New Guinea","summary":"M 4.6 - 48 km SSW of Angoram, Papua New Guinea — M4.6 · 48 km SSW of Angoram, Papua New Guinea · depth 101.453 km","date":"2026-10-07T00:00:00Z","ts":1791331200,"severity":4,"source":"usgs_quakes","url":"https://earthquake.usgs.gov/earthquakes/eventpage/us6000u0te","layer":"quakes","mag":4.6,"depth_km":101.453,"event_id":"us6000u0te"}},{"type":"Feature","geometry":{"type":"Point","coordinates":[-68.6682,-22.1924]},"properties":{"title":"M 4.5 - 39 km NE of Calama, Chile","summary":"M 4.5 - 39 km NE of Calama, Chile — M4.5 · 39 km NE of Calama, Chile · depth 121.38 km","date":"2026-10-08T14:22:41Z","ts":1791469361,"severity":4,"source":"usgs_quakes","url":"https://earthquake.usgs.gov/earthquakes/eventpage/us6000u0wh","layer":"quakes","mag":4.5,"depth_km":121.38,"event_id":"us6000u0wh"}},{"type":"Feature","geometry":{"type":"Point","coordinates":[125.9365,0.7587]},"properties":{"title":"M 5.2 - 117 km SE of Bitung, Indonesia","summary":"M 5.2 - 117 km SE of Bitung, Indonesia — M5.2 · 117 km SE of Bitung, Indonesia · depth 40.049 km","date":"2026-10-09T14:09:11Z","ts":1791554951,"severity":5,"source":"usgs_quakes","url":"https://earthquake.usgs.gov/earthquakes/eventpage/us6000u13v","layer":"quakes","mag":5.2,"depth_km":40.049,"event_id":"us6000u13v"}},{"type":"Feature","geometry":{"type":"Point","coordinates":[-68.7905,-19.9128]},"properties":{"title":"M 5.1 - 72 km SSW of Colchane, Chile","summary":"M 5.1 - 72 km SSW of Colchane, Chile — M5.1 · 72 km SSW of Colchane, Chile · depth 123.835 km","date":"2026-10-09T14:09:11Z","ts":1791554951,"severity":5,"source":"usgs_quakes","url":"https://earthquake.usgs.gov/earthquakes/eventpage/us6000u153","layer":"quakes","mag":5.1,"depth_km":123.835,"event_id":"us6000u153"}},{"type":"Feature","geometry":{"type":"Point","coordinates":[100.2717,-1.8867]},"properties":{"title":"M 4.9 - 77 km ENE of Tuapejat, Indonesia","summary":"M 4.9 - 77 km ENE of Tuapejat, Indonesia — M4.9 · 77 km ENE of Tuapejat, Indonesia · depth 40.817 km","date":"2026-10-09T14:09:11Z","ts":1791554951,"severity":4,"source":"usgs_quakes","url":"https://earthquake.usgs.gov/earthquakes/eventpage/us6000u14w","layer":"quakes","mag":4.9,"depth_km":40.817,"event_id":"us6000u14w"}},{"type":"Feature","geometry":{"type":"Point","coordinates":[-177.334,-24.309]},"properties":{"title":"M 4.9 - south of the Fiji Islands","summary":"M 4.9 - south of the Fiji Islands — M4.9 · south of the Fiji Islands · depth 130.36 km","date":"2026-10-09T14:09:11Z","ts":1791554951,"severity":4,"source":"usgs_quakes","url":"https://earthquake.usgs.gov/earthquakes/eventpage/us6000u13y","layer":"quakes","mag":4.9,"depth_km":130.36,"event_id":"us6000u13y"}},{"type":"Feature","geometry":{"type":"Point","coordinates":[122.2936,-10.0202]},"properties":{"title":"M 4.9 - 113 km NW of Baa, Indonesia","summary":"M 4.9 - 113 km NW of Baa, Indonesia — M4.9 · 113 km NW of Baa, Indonesia · depth 10 km","date":"2026-10-08T00:00:00Z","ts":1791417600,"severity":4,"source":"usgs_quakes","url":"https://earthquake.usgs.gov/earthquakes/eventpage/us6000u0yr","layer":"quakes","mag":4.9,"depth_km":10.0,"event_id":"us6000u0yr"}},{"type":"Feature","geometry":{"type":"Point","coordinates":[-86.0613,11.5951]},"properties":{"title":"M 4.8 - 17 km S of Nandaime, Nicaragua","summary":"M 4.8 - 17 km S of Nandaime, Nicaragua — M4.8 · 17 km S of Nandaime, Nicaragua · depth 165.662 km","date":"2026-10-09T14:09:11Z","ts":1791554951,"severity":4,"source":"usgs_quakes","url":"https://earthquake.usgs.gov/earthquakes/eventpage/us6000u15l","layer":"quakes","mag":4.8,"depth_km":165.662,"event_id":"us6000u15l"}},{"type":"Feature","geometry":{"type":"Point","coordinates":[-35.5737,35.3331]},"properties":{"title":"M 4.8 - northern Mid-Atlantic Ridge","summary":"M 4.8 - northern Mid-Atlantic Ridge — M4.8 · northern Mid-Atlantic Ridge · depth 10 km","date":"2026-10-09T14:09:11Z","ts":1791554951,"severity":4,"source":"usgs_quakes","url":"https://earthquake.usgs.gov/earthquakes/eventpage/us6000u14u","layer":"quakes","mag":4.8,"depth_km":10.0,"event_id":"us6000u14u"}},{"type":"Feature","geometry":{"type":"Point","coordinates":[-179.7622,-17.9914]},"properties":{"title":"M 4.8 - 97 km E of Levuka, Fiji","summary":"M 4.8 - 97 km E of Levuka, Fiji — M4.8 · 97 km E of Levuka, Fiji · depth 639.935 km","date":"2026-10-09T14:09:11Z","ts":1791554951,"severity":4,"source":"usgs_quakes","url":"https://earthquake.usgs.gov/earthquakes/eventpage/us6000u14i","layer":"quakes","mag":4.8,"depth_km":639.935,"event_id":"us6000u14i"}},{"type":"Feature","geometry":{"type":"Point","coordinates":[120.3127,-9.2392]},"properties":{"title":"M 4.8 - 46 km N of Waingapu, Indonesia","summary":"M 4.8 - 46 km N of Waingapu, Indonesia — M4.8 · 46 km N of Waingapu, Indonesia · depth 91.156 km","date":"2026-10-08T00:00:00Z","ts":1791417600,"severity":4,"source":"usgs_quakes","url":"https://earthquake.usgs.gov/earthquakes/eventpage/us6000u10n","layer":"quakes","mag":4.8,"depth_km":91.156,"event_id":"us6000u10n"}},{"type":"Feature","geometry":{"type":"Point","coordinates":[101.5886,-3.4591]},"properties":{"title":"M 4.7 - 84 km WNW of Bengkulu, Indonesia","summary":"M 4.7 - 84 km WNW of Bengkulu, Indonesia — M4.7 · 84 km WNW of Bengkulu, Indonesia · depth 50.572 km","date":"2026-10-08T00:00:00Z","ts":1791417600,"severity":4,"source":"usgs_quakes","url":"https://earthquake.usgs.gov/earthquakes/eventpage/us6000u0yy","layer":"quakes","mag":4.7,"depth_km":50.572,"event_id":"us6000u0yy"}},{"type":"Feature","geometry":{"type":"Point","coordinates":[120.7766,13.2209]},"properties":{"title":"M 4.6 - 17 km NNE of Santa Cruz, Philippines","summary":"M 4.6 - 17 km NNE of Santa Cruz, Philippines — M4.6 · 17 km NNE of Santa Cruz, Philippines · depth 10 km","date":"2026-10-09T14:09:11Z","ts":1791554951,"severity":4,"source":"usgs_quakes","url":"https://earthquake.usgs.gov/earthquakes/eventpage/us6000u14r","layer":"quakes","mag":4.6,"depth_km":10.0,"event_id":"us6000u14r"}},{"type":"Feature","geometry":{"type":"Point","coordinates":[140.6005,30.7337]},"properties":{"title":"M 4.6 - Izu Islands, Japan region","summary":"M 4.6 - Izu Islands, Japan region — M4.6 · Izu Islands, Japan region · depth 95.608 km","date":"2026-10-08T00:00:00Z","ts":1791417600,"severity":4,"source":"usgs_quakes","url":"https://earthquake.usgs.gov/earthquakes/eventpage/us6000u10v","layer":"quakes","mag":4.6,"depth_km":95.608,"event_id":"us6000u10v"}},{"type":"Feature","geometry":{"type":"Point","coordinates":[-178.3548,-17.72]},"properties":{"title":"M 4.5 - 249 km E of Levuka, Fiji","summary":"M 4.5 - 249 km E of Levuka, Fiji — M4.5 · 249 km E of Levuka, Fiji · depth 559.662 km","date":"2026-10-09T14:09:11Z","ts":1791554951,"severity":4,"source":"usgs_quakes","url":"https://earthquake.usgs.gov/earthquakes/eventpage/us6000u14e","layer":"quakes","mag":4.5,"depth_km":559.662,"event_id":"us6000u14e"}},{"type":"Feature","geometry":{"type":"Point","coordinates":[-173.7816,-15.397]},"properties":{"title":"M 4.5 - 61 km N of Hihifo, Tonga","summary":"M4.5 · 61 km N of Hihifo, Tonga · depth 79.424 km","date":"2026-10-10T08:38:50Z","ts":1791621530,"severity":4,"source":"usgs_live","url":"https://earthquake.usgs.gov/earthquakes/eventpage/us6000u1dm","layer":"quakes","mag":4.5,"depth_km":79.424,"event_id":"us6000u1dm"}},{"type":"Feature","geometry":{"type":"Point","coordinates":[-80.5348,7.6182]},"properties":{"title":"M 4.6 - 6 km SSE of Llano de Piedra, Panama","summary":"M4.6 · 6 km SSE of Llano de Piedra, Panama · depth 10 km","date":"2026-10-10T07:13:30Z","ts":1791616410,"severity":4,"source":"usgs_live","url":"https://earthquake.usgs.gov/earthquakes/eventpage/us6000u1dc","layer":"quakes","mag":4.6,"depth_km":10.0,"event_id":"us6000u1dc"}},{"type":"Feature","geometry":{"type":"Point","coordinates":[-79.9613,7.4558]},"properties":{"title":"M 4.5 - 10 km SE of Pedasí, Panama","summary":"M4.5 · 10 km SE of Pedasí, Panama · depth 10 km","date":"2026-10-10T06:47:49Z","ts":1791614869,"severity":4,"source":"usgs_live","url":"https://earthquake.usgs.gov/earthquakes/eventpage/us6000u1db","layer":"quakes","mag":4.5,"depth_km":10.0,"event_id":"us6000u1db"}},{"type":"Feature","geometry":{"type":"Point","coordinates":[-79.9687,7.2997]},"properties":{"title":"M 4.9 - 26 km SSE of Pedasí, Panama","summary":"M4.9 · 26 km SSE of Pedasí, Panama · depth 10 km","date":"2026-10-10T06:30:03Z","ts":1791613803,"severity":4,"source":"usgs_live","url":"https://earthquake.usgs.gov/earthquakes/eventpage/us6000u1d7","layer":"quakes","mag":4.9,"depth_km":10.0,"event_id":"us6000u1d7"}},{"type":"Feature","geometry":{"type":"Point","coordinates":[-79.9827,7.2969]},"properties":{"title":"M 4.7 - 26 km S of Pedasí, Panama","summary":"M4.7 · 26 km S of Pedasí, Panama · depth 10 km","date":"2026-10-10T06:27:09Z","ts":1791613629,"severity":4,"source":"usgs_live","url":"https://earthquake.usgs.gov/earthquakes/eventpage/us6000u1d5","layer":"quakes","mag":4.7,"depth_km":10.0,"event_id":"us6000u1d5"}},{"type":"Feature","geometry":{"type":"Point","coordinates":[-80.3171,7.3663]},"properties":{"title":"M 4.9 - 10 km SSW of Cañas, Panama","summary":"M4.9 · 10 km SSW of Cañas, Panama · depth 10 km","date":"2026-10-10T06:18:55Z","ts":1791613135,"severity":4,"source":"usgs_live","url":"https://earthquake.usgs.gov/earthquakes/eventpage/us6000u1d2","layer":"quakes","mag":4.9,"depth_km":10.0,"event_id":"us6000u1d2"}},{"type":"Feature","geometry":{"type":"Point","coordinates":[-79.9478,7.3167]},"properties":{"title":"M 4.5 - 25 km SSE of Pedasí, Panama","summary":"M4.5 · 25 km SSE of Pedasí, Panama · depth 10 km","date":"2026-10-10T06:16:32Z","ts":1791612992,"severity":4,"source":"usgs_live","url":"https://earthquake.usgs.gov/earthquakes/eventpage/us6000u1d1","layer":"quakes","mag":4.5,"depth_km":10.0,"event_id":"us6000u1d1"}},{"type":"Feature","geometry":{"type":"Point","coordinates":[-75.6127,5.267]},"properties":{"title":"M 4.5 - 6 km WSW of Filadelfia, Colombia","summary":"M4.5 · 6 km WSW of Filadelfia, Colombia · depth 115.143 km","date":"2026-10-10T05:45:59Z","ts":1791611159,"severity":4,"source":"usgs_live","url":"https://earthquake.usgs.gov/earthquakes/eventpage/us6000u1cx","layer":"quakes","mag":4.5,"depth_km":115.143,"event_id":"us6000u1cx"}},{"type":"Feature","geometry":{"type":"Point","coordinates":[126.3886,1.6248]},"properties":{"title":"M 5.0 - 141 km E of Bitung, Indonesia","summary":"M5.0 · 141 km E of Bitung, Indonesia · depth 10 km","date":"2026-10-10T05:32:01Z","ts":1791610321,"severity":5,"source":"usgs_live","url":"https://earthquake.usgs.gov/earthquakes/eventpage/us6000u1cv","layer":"quakes","mag":5.0,"depth_km":10.0,"event_id":"us6000u1cv"}},{"type":"Feature","geometry":{"type":"Point","coordinates":[-80.4791,7.5239]},"properties":{"title":"M 4.5 - 9 km WNW of Flores, Panama","summary":"M4.5 · 9 km WNW of Flores, Panama · depth 10 km","date":"2026-10-10T04:33:03Z","ts":1791606783,"severity":4,"source":"usgs_live","url":"https://earthquake.usgs.gov/earthquakes/eventpage/us6000u1ck","layer":"quakes","mag":4.5,"depth_km":10.0,"event_id":"us6000u1ck"}},{"type":"Feature","geometry":{"type":"Point","coordinates":[-80.5985,7.5068]},"properties":{"title":"M 6.0 - 7 km N of La Tronosa, Panama","summary":"M6.0 · 7 km N of La Tronosa, Panama · depth 10 km","date":"2026-10-10T04:14:01Z","ts":1791605641,"severity":7,"source":"usgs_live","url":"https://earthquake.usgs.gov/earthquakes/eventpage/us6000u1cf","layer":"quakes","mag":6.0,"depth_km":10.0,"event_id":"us6000u1cf"}},{"type":"Feature","geometry":{"type":"Point","coordinates":[145.0892,13.8594]},"properties":{"title":"M 5.3 - 41 km NNE of Yigo Village, Guam","summary":"M5.3 · 41 km NNE of Yigo Village, Guam · depth 111.584 km","date":"2026-10-10T03:58:18Z","ts":1791604698,"severity":5,"source":"usgs_live","url":"https://earthquake.usgs.gov/earthquakes/eventpage/us6000u1cd","layer":"quakes","mag":5.3,"depth_km":111.584,"event_id":"us6000u1cd"}},{"type":"Feature","geometry":{"type":"Point","coordinates":[-80.5849,7.5141]},"properties":{"title":"M 4.7 - 8 km N of La Tronosa, Panama","summary":"M4.7 · 8 km N of La Tronosa, Panama · depth 10 km","date":"2026-10-10T03:56:17Z","ts":1791604577,"severity":4,"source":"usgs_live","url":"https://earthquake.usgs.gov/earthquakes/eventpage/us6000u1cb","layer":"quakes","mag":4.7,"depth_km":10.0,"event_id":"us6000u1cb"}},{"type":"Feature","geometry":{"type":"Point","coordinates":[-81.2493,7.5746]},"properties":{"title":"M 4.5 - 18 km SSE of Río Grande, Panama","summary":"M4.5 · 18 km SSE of Río Grande, Panama · depth 10 km","date":"2026-10-10T02:43:38Z","ts":1791600218,"severity":4,"source":"usgs_live","url":"https://earthquake.usgs.gov/earthquakes/eventpage/us6000u1bw","layer":"quakes","mag":4.5,"depth_km":10.0,"event_id":"us6000u1bw"}},{"type":"Feature","geometry":{"type":"Point","coordinates":[-80.4348,7.4178]},"properties":{"title":"M 5.1 - 1 km NNE of Tonosí, Panama","summary":"M5.1 · 1 km NNE of Tonosí, Panama · depth 10 km","date":"2026-10-10T02:26:32Z","ts":1791599192,"severity":5,"source":"usgs_live","url":"https://earthquake.usgs.gov/earthquakes/eventpage/us6000u1bu","layer":"quakes","mag":5.1,"depth_km":10.0,"event_id":"us6000u1bu"}},{"type":"Feature","geometry":{"type":"Point","coordinates":[126.3601,1.416]},"properties":{"title":"M 5.1 - 133 km WNW of Ternate, Indonesia","summary":"M5.1 · 133 km WNW of Ternate, Indonesia · depth 10 km","date":"2026-10-10T02:00:42Z","ts":1791597642,"severity":5,"source":"usgs_live","url":"https://earthquake.usgs.gov/earthquakes/eventpage/us6000u1bs","layer":"quakes","mag":5.1,"depth_km":10.0,"event_id":"us6000u1bs"}},{"type":"Feature","geometry":{"type":"Point","coordinates":[-81.3237,7.6272]},"properties":{"title":"M 4.6 - 10 km S of Río Grande, Panama","summary":"M4.6 · 10 km S of Río Grande, Panama · depth 10 km","date":"2026-10-10T01:35:47Z","ts":1791596147,"severity":4,"source":"usgs_live","url":"https://earthquake.usgs.gov/earthquakes/eventpage/us6000u1bp","layer":"quakes","mag":4.6,"depth_km":10.0,"event_id":"us6000u1bp"}},{"type":"Feature","geometry":{"type":"Point","coordinates":[-80.5858,7.5302]},"properties":{"title":"M 4.7 - 10 km N of La Tronosa, Panama","summary":"M4.7 · 10 km N of La Tronosa, Panama · depth 10 km","date":"2026-10-10T01:11:47Z","ts":1791594707,"severity":4,"source":"usgs_live","url":"https://earthquake.usgs.gov/earthquakes/eventpage/us6000u1bl","layer":"quakes","mag":4.7,"depth_km":10.0,"event_id":"us6000u1bl"}},{"type":"Feature","geometry":{"type":"Point","coordinates":[-80.5568,7.5164]},"properties":{"title":"M 4.6 - 9 km NNE of La Tronosa, Panama","summary":"M4.6 · 9 km NNE of La Tronosa, Panama · depth 10 km","date":"2026-10-10T00:51:48Z","ts":1791593508,"severity":4,"source":"usgs_live","url":"https://earthquake.usgs.gov/earthquakes/eventpage/us6000u1bj","layer":"quakes","mag":4.6,"depth_km":10.0,"event_id":"us6000u1bj"}},{"type":"Feature","geometry":{"type":"Point","coordinates":[168.6507,-21.2633]},"properties":{"title":"M 4.7 - 85 km ENE of Tadine, New Caledonia","summary":"M4.7 · 85 km ENE of Tadine, New Caledonia · depth 10 km","date":"2026-10-10T00:38:58Z","ts":1791592738,"severity":4,"source":"usgs_live","url":"https://earthquake.usgs.gov/earthquakes/eventpage/us6000u1bh","layer":"quakes","mag":4.7,"depth_km":10.0,"event_id":"us6000u1bh"}},{"type":"Feature","geometry":{"type":"Point","coordinates":[-80.2957,7.4053]},"properties":{"title":"M 4.8 - 5 km SW of Cañas, Panama","summary":"M4.8 · 5 km SW of Cañas, Panama · depth 10 km","date":"2026-10-10T00:03:04Z","ts":1791590584,"severity":4,"source":"usgs_live","url":"https://earthquake.usgs.gov/earthquakes/eventpage/us6000u1b5","layer":"quakes","mag":4.8,"depth_km":10.0,"event_id":"us6000u1b5"}},{"type":"Feature","geometry":{"type":"Point","coordinates":[-81.4599,7.7378]},"properties":{"title":"M 4.7 - 14 km W of Río Grande, Panama","summary":"M4.7 · 14 km W of Río Grande, Panama · depth 10 km","date":"2026-10-09T23:57:38Z","ts":1791590258,"severity":4,"source":"usgs_live","url":"https://earthquake.usgs.gov/earthquakes/eventpage/us6000u1b4","layer":"quakes","mag":4.7,"depth_km":10.0,"event_id":"us6000u1b4"}},{"type":"Feature","geometry":{"type":"Point","coordinates":[-79.8903,7.1444]},"properties":{"title":"M 4.5 - 45 km SSE of Pedasí, Panama","summary":"M4.5 · 45 km SSE of Pedasí, Panama · depth 10 km","date":"2026-10-09T23:54:22Z","ts":1791590062,"severity":4,"source":"usgs_live","url":"https://earthquake.usgs.gov/earthquakes/eventpage/us6000u1b3","layer":"quakes","mag":4.5,"depth_km":10.0,"event_id":"us6000u1b3"}},{"type":"Feature","geometry":{"type":"Point","coordinates":[-81.4005,7.6651]},"properties":{"title":"M 4.9 - 9 km SW of Río Grande, Panama","summary":"M4.9 · 9 km SW of Río Grande, Panama · depth 10 km","date":"2026-10-09T23:23:13Z","ts":1791588193,"severity":4,"source":"usgs_live","url":"https://earthquake.usgs.gov/earthquakes/eventpage/us6000u1az","layer":"quakes","mag":4.9,"depth_km":10.0,"event_id":"us6000u1az"}},{"type":"Feature","geometry":{"type":"Point","coordinates":[-80.0968,7.4366]},"properties":{"title":"M 5.4 - 9 km SSE of Los Asientos, Panama","summary":"M5.4 · 9 km SSE of Los Asientos, Panama · depth 10 km","date":"2026-10-09T23:12:37Z","ts":1791587557,"severity":5,"source":"usgs_live","url":"https://earthquake.usgs.gov/earthquakes/eventpage/us6000u1ay","layer":"quakes","mag":5.4,"depth_km":10.0,"event_id":"us6000u1ay"}},{"type":"Feature","geometry":{"type":"Point","coordinates":[-80.5284,7.3962]},"properties":{"title":"M 5.0 - 8 km ESE of La Tronosa, Panama","summary":"M5.0 · 8 km ESE of La Tronosa, Panama · depth 10 km","date":"2026-10-09T23:10:02Z","ts":1791587402,"severity":5,"source":"usgs_live","url":"https://earthquake.usgs.gov/earthquakes/eventpage/us6000u1ax","layer":"quakes","mag":5.0,"depth_km":10.0,"event_id":"us6000u1ax"}},{"type":"Feature","geometry":{"type":"Point","coordinates":[-81.319,7.7551]},"properties":{"title":"M 4.6 - 4 km NNE of Río Grande, Panama","summary":"M4.6 · 4 km NNE of Río Grande, Panama · depth 10 km","date":"2026-10-09T21:47:49Z","ts":1791582469,"severity":4,"source":"usgs_live","url":"https://earthquake.usgs.gov/earthquakes/eventpage/us6000u1ai","layer":"quakes","mag":4.6,"depth_km":10.0,"event_id":"us6000u1ai"}},{"type":"Feature","geometry":{"type":"Point","coordinates":[157.5832,52.0441]},"properties":{"title":"M 4.6 - 96 km NE of Ozernovskiy, Russia","summary":"M4.6 · 96 km NE of Ozernovskiy, Russia · depth 78.277 km","date":"2026-10-09T21:19:16Z","ts":1791580756,"severity":4,"source":"usgs_live","url":"https://earthquake.usgs.gov/earthquakes/eventpage/us6000u1ah","layer":"quakes","mag":4.6,"depth_km":78.277,"event_id":"us6000u1ah"}},{"type":"Feature","geometry":{"type":"Point","coordinates":[-81.452,7.7299]},"properties":{"title":"M 4.9 - 13 km W of Río Grande, Panama","summary":"M4.9 · 13 km W of Río Grande, Panama · depth 10 km","date":"2026-10-09T21:05:25Z","ts":1791579925,"severity":4,"source":"usgs_live","url":"https://earthquake.usgs.gov/earthquakes/eventpage/us6000u1a9","layer":"quakes","mag":4.9,"depth_km":10.0,"event_id":"us6000u1a9"}},{"type":"Feature","geometry":{"type":"Point","coordinates":[-81.467,7.8349]},"properties":{"title":"M 4.9 - 16 km SSW of Calidonia, Panama","summary":"M4.9 · 16 km SSW of Calidonia, Panama · depth 10 km","date":"2026-10-09T20:54:56Z","ts":1791579296,"severity":4,"source":"usgs_live","url":"https://earthquake.usgs.gov/earthquakes/eventpage/us6000u1a6","layer":"quakes","mag":4.9,"depth_km":10.0,"event_id":"us6000u1a6"}},{"type":"Feature","geometry":{"type":"Point","coordinates":[-81.4589,7.7249]},"properties":{"title":"M 5.0 - 13 km W of Río Grande, Panama","summary":"M5.0 · 13 km W of Río Grande, Panama · depth 10 km","date":"2026-10-09T20:42:08Z","ts":1791578528,"severity":5,"source":"usgs_live","url":"https://earthquake.usgs.gov/earthquakes/eventpage/us6000u1aa","layer":"quakes","mag":5.0,"depth_km":10.0,"event_id":"us6000u1aa"}},{"type":"Feature","geometry":{"type":"Point","coordinates":[-81.0923,7.6771]},"properties":{"title":"M 4.9 - 8 km SSE of Leones Arriba, Panama","summary":"M4.9 · 8 km SSE of Leones Arriba, Panama · depth 10 km","date":"2026-10-09T20:41:04Z","ts":1791578464,"severity":4,"source":"usgs_live","url":"https://earthquake.usgs.gov/earthquakes/eventpage/us6000u1a5","layer":"quakes","mag":4.9,"depth_km":10.0,"event_id":"us6000u1a5"}},{"type":"Feature","geometry":{"type":"Point","coordinates":[-81.4687,7.7176]},"properties":{"title":"M 6.6 - 14 km W of Río Grande, Panama","summary":"M6.6 · 14 km W of Río Grande, Panama · depth 10 km","date":"2026-10-09T20:25:39Z","ts":1791577539,"severity":9,"source":"usgs_live","url":"https://earthquake.usgs.gov/earthquakes/eventpage/us6000u19w","layer":"quakes","mag":6.6,"depth_km":10.0,"event_id":"us6000u19w"}},{"type":"Feature","geometry":{"type":"Point","coordinates":[-80.5491,7.4734]},"properties":{"title":"M 5.0 - 6 km NE of La Tronosa, Panama","summary":"M5.0 · 6 km NE of La Tronosa, Panama · depth 10 km","date":"2026-10-09T20:21:37Z","ts":1791577297,"severity":5,"source":"usgs_live","url":"https://earthquake.usgs.gov/earthquakes/eventpage/us6000u19t","layer":"quakes","mag":5.0,"depth_km":10.0,"event_id":"us6000u19t"}},{"type":"Feature","geometry":{"type":"Point","coordinates":[-81.0268,7.6169]},"properties":{"title":"M 4.9 - 12 km SSW of Tebario, Panama","summary":"M4.9 · 12 km SSW of Tebario, Panama · depth 10 km","date":"2026-10-09T20:20:23Z","ts":1791577223,"severity":4,"source":"usgs_live","url":"https://earthquake.usgs.gov/earthquakes/eventpage/us6000u19s","layer":"quakes","mag":4.9,"depth_km":10.0,"event_id":"us6000u19s"}},{"type":"Feature","geometry":{"type":"Point","coordinates":[152.1103,-5.4312]},"properties":{"title":"M 4.7 - 121 km S of Kokopo, Papua New Guinea","summary":"M4.7 · 121 km S of Kokopo, Papua New Guinea · depth 50.541 km","date":"2026-10-09T20:20:09Z","ts":1791577209,"severity":4,"source":"usgs_live","url":"https://earthquake.usgs.gov/earthquakes/eventpage/us6000u19v","layer":"quakes","mag":4.7,"depth_km":50.541,"event_id":"us6000u19v"}},{"type":"Feature","geometry":{"type":"Point","coordinates":[-81.2677,7.6417]},"properties":{"title":"M 5.2 - 11 km SE of Río Grande, Panama","summary":"M5.2 · 11 km SE of Río Grande, Panama · depth 10 km","date":"2026-10-09T19:48:55Z","ts":1791575335,"severity":5,"source":"usgs_live","url":"https://earthquake.usgs.gov/earthquakes/eventpage/us6000u19h","layer":"quakes","mag":5.2,"depth_km":10.0,"event_id":"us6000u19h"}},{"type":"Feature","geometry":{"type":"Point","coordinates":[-80.1336,7.5448]},"properties":{"title":"M 4.8 - 2 km N of Los Asientos, Panama","summary":"M4.8 · 2 km N of Los Asientos, Panama · depth 10 km","date":"2026-10-09T19:45:58Z","ts":1791575158,"severity":4,"source":"usgs_live","url":"https://earthquake.usgs.gov/earthquakes/eventpage/us6000u19i","layer":"quakes","mag":4.8,"depth_km":10.0,"event_id":"us6000u19i"}},{"type":"Feature","geometry":{"type":"Point","coordinates":[-80.2145,7.5554]},"properties":{"title":"M 4.5 - 5 km N of Oria Arriba, Panama","summary":"M4.5 · 5 km N of Oria Arriba, Panama · depth 10 km","date":"2026-10-09T19:42:50Z","ts":1791574970,"severity":4,"source":"usgs_live","url":"https://earthquake.usgs.gov/earthquakes/eventpage/us6000u19e","layer":"quakes","mag":4.5,"depth_km":10.0,"event_id":"us6000u19e"}},{"type":"Feature","geometry":{"type":"Point","coordinates":[-80.5899,7.5147]},"properties":{"title":"M 4.7 - 8 km N of La Tronosa, Panama","summary":"M4.7 · 8 km N of La Tronosa, Panama · depth 10 km","date":"2026-10-09T19:32:19Z","ts":1791574339,"severity":4,"source":"usgs_live","url":"https://earthquake.usgs.gov/earthquakes/eventpage/us6000u19c","layer":"quakes","mag":4.7,"depth_km":10.0,"event_id":"us6000u19c"}},{"type":"Feature","geometry":{"type":"Point","coordinates":[-81.0415,7.6086]},"properties":{"title":"M 4.8 - 14 km SSW of Tebario, Panama","summary":"M4.8 · 14 km SSW of Tebario, Panama · depth 25.962 km","date":"2026-10-09T19:17:22Z","ts":1791573442,"severity":4,"source":"usgs_live","url":"https://earthquake.usgs.gov/earthquakes/eventpage/us6000u198","layer":"quakes","mag":4.8,"depth_km":25.962,"event_id":"us6000u198"}},{"type":"Feature","geometry":{"type":"Point","coordinates":[-81.2492,7.6161]},"properties":{"title":"M 5.0 - 14 km SE of Río Grande, Panama","summary":"M5.0 · 14 km SE of Río Grande, Panama · depth 10 km","date":"2026-10-09T19:04:49Z","ts":1791572689,"severity":5,"source":"usgs_live","url":"https://earthquake.usgs.gov/earthquakes/eventpage/us6000u197","layer":"quakes","mag":5.0,"depth_km":10.0,"event_id":"us6000u197"}},{"type":"Feature","geometry":{"type":"Point","coordinates":[-80.1178,7.3504]},"properties":{"title":"M 5.0 - 18 km S of Los Asientos, Panama","summary":"M5.0 · 18 km S of Los Asientos, Panama · depth 10 km","date":"2026-10-09T18:50:12Z","ts":1791571812,"severity":5,"source":"usgs_live","url":"https://earthquake.usgs.gov/earthquakes/eventpage/us6000u194","layer":"quakes","mag":5.0,"depth_km":10.0,"event_id":"us6000u194"}},{"type":"Feature","geometry":{"type":"Point","coordinates":[-81.0943,7.5783]},"properties":{"title":"M 5.0 - 19 km S of Leones Arriba, Panama","summary":"M5.0 · 19 km S of Leones Arriba, Panama · depth 10 km","date":"2026-10-09T18:47:04Z","ts":1791571624,"severity":5,"source":"usgs_live","url":"https://earthquake.usgs.gov/earthquakes/eventpage/us6000u195","layer":"quakes","mag":5.0,"depth_km":10.0,"event_id":"us6000u195"}},{"type":"Feature","geometry":{"type":"Point","coordinates":[-80.4012,7.4362]},"properties":{"title":"M 5.8 - 1 km S of El Cacao, Panama","summary":"M5.8 · 1 km S of El Cacao, Panama · depth 10 km","date":"2026-10-09T18:37:46Z","ts":1791571066,"severity":6,"source":"usgs_live","url":"https://earthquake.usgs.gov/earthquakes/eventpage/us6000u18x","layer":"quakes","mag":5.8,"depth_km":10.0,"event_id":"us6000u18x"}},{"type":"Feature","geometry":{"type":"Point","coordinates":[-80.2885,7.586]},"properties":{"title":"M 5.5 - 3 km SW of Bajo Corral, Panama","summary":"M5.5 · 3 km SW of Bajo Corral, Panama · depth 10 km","date":"2026-10-09T18:22:15Z","ts":1791570135,"severity":6,"source":"usgs_live","url":"https://earthquake.usgs.gov/earthquakes/eventpage/us6000u18t","layer":"quakes","mag":5.5,"depth_km":10.0,"event_id":"us6000u18t"}},{"type":"Feature","geometry":{"type":"Point","coordinates":[-80.769,7.5868]},"properties":{"title":"M 7.7 - 12 km WSW of Pitaloza Arriba, Panama","summary":"M7.7 · 12 km WSW of Pitaloza Arriba, Panama · depth 12.647 km","date":"2026-10-09T17:56:06Z","ts":1791568566,"severity":10,"source":"usgs_live","url":"https://earthquake.usgs.gov/earthquakes/eventpage/us6000u18k","layer":"quakes","mag":7.7,"depth_km":12.647,"event_id":"us6000u18k"}},{"type":"Feature","geometry":{"type":"Point","coordinates":[160.6987,51.8952]},"properties":{"title":"M 4.8 - 191 km SE of Petropavlovsk-Kamchatsky, Russia","summary":"M4.8 · 191 km SE of Petropavlovsk-Kamchatsky, Russia · depth 10 km","date":"2026-10-09T17:09:04Z","ts":1791565744,"severity":4,"source":"usgs_live","url":"https://earthquake.usgs.gov/earthquakes/eventpage/us6000u18e","layer":"quakes","mag":4.8,"depth_km":10.0,"event_id":"us6000u18e"}},{"type":"Feature","geometry":{"type":"Point","coordinates":[160.1309,52.2214]},"properties":{"title":"M 4.7 - 138 km SE of Petropavlovsk-Kamchatsky, Russia","summary":"M4.7 · 138 km SE of Petropavlovsk-Kamchatsky, Russia · depth 33.508 km","date":"2026-10-09T16:59:35Z","ts":1791565175,"severity":4,"source":"usgs_live","url":"https://earthquake.usgs.gov/earthquakes/eventpage/us6000u18d","layer":"quakes","mag":4.7,"depth_km":33.508,"event_id":"us6000u18d"}},{"type":"Feature","geometry":{"type":"Point","coordinates":[179.9109,-24.7105]},"properties":{"title":"M 4.6 - south of the Fiji Islands","summary":"M4.6 · south of the Fiji Islands · depth 501.59 km","date":"2026-10-09T15:18:55Z","ts":1791559135,"severity":4,"source":"usgs_live","url":"https://earthquake.usgs.gov/earthquakes/eventpage/us6000u168","layer":"quakes","mag":4.6,"depth_km":501.59,"event_id":"us6000u168"}},{"type":"Feature","geometry":{"type":"Point","coordinates":[154.4619,-60.9758]},"properties":{"title":"M 5.9 - west of Macquarie Island","summary":"M5.9 · west of Macquarie Island · depth 10 km","date":"2026-10-09T14:49:41Z","ts":1791557381,"severity":6,"source":"usgs_live","url":"https://earthquake.usgs.gov/earthquakes/eventpage/us6000u164","layer":"quakes","mag":5.9,"depth_km":10.0,"event_id":"us6000u164"}},{"type":"Feature","geometry":{"type":"Point","coordinates":[168.1451,-15.5361]},"properties":{"title":"M 5.4 - 99 km NE of Norsup, Vanuatu","summary":"M5.4 · 99 km NE of Norsup, Vanuatu · depth 10 km","date":"2026-10-09T13:51:42Z","ts":1791553902,"severity":5,"source":"usgs_live","url":"https://earthquake.usgs.gov/earthquakes/eventpage/us6000u15x","layer":"quakes","mag":5.4,"depth_km":10.0,"event_id":"us6000u15x"}}]}