{"type":"FeatureCollection","features":[{"type":"Feature","geometry":{"type":"Polygon","coordinates":[[[27.0,41.5],[60.0,41.5],[60.0,70.0],[27.0,70.0],[27.0,41.5]]]},"properties":{"title":"Russia oil sanctions perimeter","summary":"high priority · sberbank, rosneft, lukoil, gazprom, tatneft, novatek, surgutneftegas, shadow fleet, dark fleet, g7 price cap, oil price cap, novorossiysk","date":"2026-10-09T23:30:00Z","ts":1791588600,"severity":7,"source":"watchareas","url":"","layer":"watch_areas","name":"Russia oil sanctions perimeter","priority":"high","bbox":[27.0,41.5,60.0,70.0]}},{"type":"Feature","geometry":{"type":"Polygon","coordinates":[[[33.0,28.0],[60.0,28.0],[60.0,38.0],[33.0,38.0],[33.0,28.0]]]},"properties":{"title":"Israel-Iran-Hezbollah axis","summary":"high priority · hezbollah, hamas, islamic jihad, houthi, irgc, quds force, khamenei, netanyahu, nasrallah, haniyeh, shifa, rafah","date":"2026-10-09T23:30:00Z","ts":1791588600,"severity":7,"source":"watchareas","url":"","layer":"watch_areas","name":"Israel-Iran-Hezbollah axis","priority":"high","bbox":[33.0,28.0,60.0,38.0]}},{"type":"Feature","geometry":{"type":"Polygon","coordinates":[[[105.0,5.0],[130.0,5.0],[130.0,28.0],[105.0,28.0],[105.0,5.0]]]},"properties":{"title":"Taiwan Strait + South China Sea","summary":"high priority · taiwan strait, taiwan median line, adiz, pla navy, pla air force, aukus, pratas, senkaku, diaoyu, scarborough shoal, second thomas shoal, mischief reef","date":"2026-10-09T23:30:00Z","ts":1791588600,"severity":7,"source":"watchareas","url":"","layer":"watch_areas","name":"Taiwan Strait + South China Sea","priority":"high","bbox":[105.0,5.0,130.0,28.0]}},{"type":"Feature","geometry":{"type":"Polygon","coordinates":[[[-17.0,10.0],[16.0,10.0],[16.0,18.0],[-17.0,18.0],[-17.0,10.0]]]},"properties":{"title":"Sahel jihadist corridor","summary":"normal priority · jnim, iswap, boko haram, mnla, cma, wagner, africa corps, junta, coup, ouagadougou, bamako, niamey","date":"2026-10-09T23:30:00Z","ts":1791588600,"severity":5,"source":"watchareas","url":"","layer":"watch_areas","name":"Sahel jihadist corridor","priority":"normal","bbox":[-17.0,10.0,16.0,18.0]}},{"type":"Feature","geometry":{"type":"Polygon","coordinates":[[[-180.0,66.0],[180.0,66.0],[180.0,90.0],[-180.0,90.0],[-180.0,66.0]]]},"properties":{"title":"Arctic + High North","summary":"low priority · northern sea route, nsr, arctic council, lng 2, yamal, vostok oil, svalbard, jan mayen, bear island, thule, pituffik, keflavik","date":"2026-10-09T23:30:00Z","ts":1791588600,"severity":3,"source":"watchareas","url":"","layer":"watch_areas","name":"Arctic + High North","priority":"low","bbox":[-180.0,66.0,180.0,90.0]}},{"type":"Feature","geometry":{"type":"Polygon","coordinates":[[[124.0,33.0],[132.0,33.0],[132.0,43.0],[124.0,43.0],[124.0,33.0]]]},"properties":{"title":"Korean peninsula","summary":"normal priority · dprk, kcna, kim jong un, hwasong, pukguksong, nlt, nll, panmunjom, dmz, yongbyon, kaesong, pyongyang","date":"2026-10-09T23:30:00Z","ts":1791588600,"severity":5,"source":"watchareas","url":"","layer":"watch_areas","name":"Korean peninsula","priority":"normal","bbox":[124.0,33.0,132.0,43.0]}}]}