{
  "type": "FeatureCollection",
  "features": [
    {
      "type": "Feature",
      "geometry": {
        "type": "Point",
        "coordinates": [
          32.222,
          52.805
        ]
      },
      "properties": {
        "title": "FIRMS thermal: Sumy Oblast N",
        "summary": "VIIRS S-NPP thermal anomaly, FRP 0.85 MW (nominal confidence), June 6 2026",
        "date": "2026-06-06",
        "severity": 3,
        "source": "firms"
      }
    },
    {
      "type": "Feature",
      "geometry": {
        "type": "Point",
        "coordinates": [
          33.729,
          52.477
        ]
      },
      "properties": {
        "title": "FIRMS thermal: Sumy Oblast E",
        "summary": "VIIRS S-NPP thermal anomaly, FRP 6.35 MW (nominal confidence), June 6 2026",
        "date": "2026-06-06",
        "severity": 10,
        "source": "firms"
      }
    },
    {
      "type": "Feature",
      "geometry": {
        "type": "Point",
        "coordinates": [
          33.896,
          52.34
        ]
      },
      "properties": {
        "title": "FIRMS thermal: Sumy Oblast SE",
        "summary": "VIIRS S-NPP thermal anomaly, FRP 3.37 MW (nominal confidence), June 6 2026",
        "date": "2026-06-06",
        "severity": 8,
        "source": "firms"
      }
    },
    {
      "type": "Feature",
      "geometry": {
        "type": "Point",
        "coordinates": [
          33.4,
          47.882
        ]
      },
      "properties": {
        "title": "FIRMS thermal: Dnipropetrovsk Oblast",
        "summary": "VIIRS S-NPP thermal anomaly, FRP 2.13 MW (nominal confidence), June 6 2026",
        "date": "2026-06-06",
        "severity": 6,
        "source": "firms"
      }
    },
    {
      "type": "Feature",
      "geometry": {
        "type": "Point",
        "coordinates": [
          34.645,
          48.534
        ]
      },
      "properties": {
        "title": "FIRMS thermal: Dnipropetrovsk/Zaporizhzhia",
        "summary": "VIIRS S-NPP thermal anomaly, FRP 2.96 MW (nominal confidence), June 6 2026",
        "date": "2026-06-06",
        "severity": 7,
        "source": "firms"
      }
    },
    {
      "type": "Feature",
      "geometry": {
        "type": "Point",
        "coordinates": [
          34.21,
          51.976
        ]
      },
      "properties": {
        "title": "FIRMS thermal: Sumy/Kharkiv border",
        "summary": "VIIRS S-NPP thermal anomaly, FRP 3.79 MW (nominal confidence), June 6 2026",
        "date": "2026-06-06",
        "severity": 9,
        "source": "firms"
      }
    },
    {
      "type": "Feature",
      "geometry": {
        "type": "Point",
        "coordinates": [
          29.988,
          52.849
        ]
      },
      "properties": {
        "title": "FIRMS thermal: Chernihiv Oblast",
        "summary": "VIIRS S-NPP thermal anomaly, FRP 1.01 MW (nominal confidence), June 6 2026",
        "date": "2026-06-06",
        "severity": 4,
        "source": "firms"
      }
    },
    {
      "type": "Feature",
      "geometry": {
        "type": "Point",
        "coordinates": [
          -180.1,
          -23.5
        ]
      },
      "properties": {
        "title": "M5.4 south of Fiji Islands",
        "summary": "USGS magnitude 5.4, depth 506.6 km",
        "date": "2026-06-07",
        "severity": 6,
        "source": "usgs"
      }
    },
    {
      "type": "Feature",
      "geometry": {
        "type": "Point",
        "coordinates": [
          -174.2,
          -15.8
        ]
      },
      "properties": {
        "title": "M5.3 NE of Neiafu, Tonga",
        "summary": "USGS magnitude 5.3, depth 10 km",
        "date": "2026-06-07",
        "severity": 6,
        "source": "usgs"
      }
    },
    {
      "type": "Feature",
      "geometry": {
        "type": "Point",
        "coordinates": [
          126.8,
          -8.8
        ]
      },
      "properties": {
        "title": "M5.2 E of Venilale, Timor Leste",
        "summary": "USGS magnitude 5.2, depth 10 km",
        "date": "2026-06-07",
        "severity": 5,
        "source": "usgs"
      }
    },
    {
      "type": "Feature",
      "geometry": {
        "type": "Point",
        "coordinates": [
          130.4,
          -1.9
        ]
      },
      "properties": {
        "title": "M5.2 ESE of Modisi, Indonesia",
        "summary": "USGS magnitude 5.2, depth 35 km",
        "date": "2026-06-07",
        "severity": 5,
        "source": "usgs"
      }
    },
    {
      "type": "Feature",
      "geometry": {
        "type": "Point",
        "coordinates": [
          46.7,
          -18.8
        ]
      },
      "properties": {
        "title": "GDACS Orange: Drought in Madagascar",
        "summary": "Orange alert drought, agricultural drought affecting 398,352 km2",
        "date": "2026-06-07",
        "severity": 6,
        "source": "gdacs"
      }
    },
    {
      "type": "Feature",
      "geometry": {
        "type": "Point",
        "coordinates": [
          30.0517,
          51.5
        ]
      },
      "properties": {
        "title": "Russian drone strike: Chornobyl CSFSF",
        "summary": "Shahed drone hit Central Spent Nuclear Fuel Storage Facility container reception building, no radiation release",
        "date": "2026-06-07",
        "severity": 9,
        "source": "acled"
      }
    },
    {
      "type": "Feature",
      "geometry": {
        "type": "Point",
        "coordinates": [
          35.1,
          47.8
        ]
      },
      "properties": {
        "title": "ZNPP 15-hour off-site power blackout",
        "summary": "Power restored June 6 after 15-hour blackout, 18th loss of off-site power since war began",
        "date": "2026-06-06",
        "severity": 8,
        "source": "acled"
      }
    },
    {
      "type": "Feature",
      "geometry": {
        "type": "Point",
        "coordinates": [
          48.0,
          29.4
        ]
      },
      "properties": {
        "title": "Iran ballistic missile strikes on Kuwait & Bahrain",
        "summary": "Iran fired 7 ballistic missiles at US bases in Kuwait and Bahrain; 6 intercepted, 1 short. US strikes Iranian radar on Qeshm Island",
        "date": "2026-06-06",
        "severity": 9,
        "source": "acled"
      }
    },
    {
      "type": "Feature",
      "geometry": {
        "type": "Point",
        "coordinates": [
          30.3,
          59.9
        ]
      },
      "properties": {
        "title": "Ukrainian drone strikes on St Petersburg during SPIEF",
        "summary": "140+ drones downed on closing day; hits on Kronstadt naval base and oil terminal. Russia intercepted 354 drones total",
        "date": "2026-06-06",
        "severity": 7,
        "source": "acled"
      }
    },
    {
      "type": "Feature",
      "geometry": {
        "type": "Point",
        "coordinates": [
          31.5,
          44.5
        ]
      },
      "properties": {
        "title": "Turkish fishing vessel Duru 67 sunk in Black Sea",
        "summary": "Turkish-flagged vessel attacked west of Russian-occupied Sevastopol; 1 killed, 4 wounded",
        "date": "2026-06-05",
        "severity": 6,
        "source": "acled"
      }
    },
    {
      "type": "Feature",
      "geometry": {
        "type": "Point",
        "coordinates": [
          123.5,
          24.0
        ]
      },
      "properties": {
        "title": "China maritime enforcement operation east of Taiwan",
        "summary": "China deploys coast guard east of Taiwan in response to Japan-Philippines maritime boundary talks",
        "date": "2026-06-06",
        "severity": 7,
        "source": "acled"
      }
    }
  ]
}