{
  "type": "FeatureCollection",
  "features": [
    {
      "type": "Feature",
      "geometry": {
        "type": "Point",
        "coordinates": [
          104.5066,
          31.8458
        ]
      },
      "properties": {
        "title": "M5.4 earthquake: 21 km WNW of Jiangyou, China",
        "summary": "Magnitude 5.4 earthquake near 21 km WNW of Jiangyou, China",
        "date": "2026-09-04",
        "severity": 8,
        "source": "usgs"
      }
    },
    {
      "type": "Feature",
      "geometry": {
        "type": "Point",
        "coordinates": [
          -169.4088,
          52.2579
        ]
      },
      "properties": {
        "title": "M6.3 earthquake: 84 km SSW of Nikolski, Alaska",
        "summary": "Magnitude 6.3 earthquake near 84 km SSW of Nikolski, Alaska",
        "date": "2026-09-04",
        "severity": 9,
        "source": "usgs"
      }
    },
    {
      "type": "Feature",
      "geometry": {
        "type": "Point",
        "coordinates": [
          34.591,
          47.354
        ]
      },
      "properties": {
        "title": "FIRMS thermal anomaly 23.8 MW",
        "summary": "VIIRS S-NPP NRT, sat N, acquired 2026-09-02 0924Z, FRP 23.78 MW",
        "date": "2026-09-03",
        "severity": 4,
        "source": "firms"
      }
    },
    {
      "type": "Feature",
      "geometry": {
        "type": "Point",
        "coordinates": [
          34.584,
          47.351
        ]
      },
      "properties": {
        "title": "FIRMS thermal anomaly 19.9 MW",
        "summary": "VIIRS S-NPP NRT, sat N, acquired 2026-09-02 0924Z, FRP 19.88 MW",
        "date": "2026-09-03",
        "severity": 3,
        "source": "firms"
      }
    },
    {
      "type": "Feature",
      "geometry": {
        "type": "Point",
        "coordinates": [
          34.599,
          47.356
        ]
      },
      "properties": {
        "title": "FIRMS thermal anomaly 23.8 MW",
        "summary": "VIIRS S-NPP NRT, sat N, acquired 2026-09-02 0924Z, FRP 23.78 MW",
        "date": "2026-09-03",
        "severity": 4,
        "source": "firms"
      }
    },
    {
      "type": "Feature",
      "geometry": {
        "type": "Point",
        "coordinates": [
          34.598,
          47.354
        ]
      },
      "properties": {
        "title": "FIRMS thermal anomaly 25.0 MW",
        "summary": "VIIRS S-NPP NRT, sat N, acquired 2026-09-02 0924Z, FRP 24.96 MW",
        "date": "2026-09-03",
        "severity": 4,
        "source": "firms"
      }
    },
    {
      "type": "Feature",
      "geometry": {
        "type": "Point",
        "coordinates": [
          23.168,
          44.02
        ]
      },
      "properties": {
        "title": "FIRMS thermal anomaly 19.5 MW",
        "summary": "VIIRS S-NPP NRT, sat N, acquired 2026-09-02 1104Z, FRP 19.51 MW",
        "date": "2026-09-03",
        "severity": 3,
        "source": "firms"
      }
    },
    {
      "type": "Feature",
      "geometry": {
        "type": "Point",
        "coordinates": [
          22.686,
          44.337
        ]
      },
      "properties": {
        "title": "FIRMS thermal anomaly 15.8 MW",
        "summary": "VIIRS S-NPP NRT, sat N, acquired 2026-09-02 1104Z, FRP 15.82 MW",
        "date": "2026-09-03",
        "severity": 3,
        "source": "firms"
      }
    },
    {
      "type": "Feature",
      "geometry": {
        "type": "Point",
        "coordinates": [
          32.463,
          46.278
        ]
      },
      "properties": {
        "title": "FIRMS thermal anomaly 15.5 MW",
        "summary": "VIIRS S-NPP NRT, sat N, acquired 2026-09-02 1104Z, FRP 15.46 MW",
        "date": "2026-09-03",
        "severity": 3,
        "source": "firms"
      }
    },
    {
      "type": "Feature",
      "geometry": {
        "type": "Point",
        "coordinates": [
          32.457,
          46.278
        ]
      },
      "properties": {
        "title": "FIRMS thermal anomaly 15.5 MW",
        "summary": "VIIRS S-NPP NRT, sat N, acquired 2026-09-02 1104Z, FRP 15.46 MW",
        "date": "2026-09-03",
        "severity": 3,
        "source": "firms"
      }
    },
    {
      "type": "Feature",
      "geometry": {
        "type": "Point",
        "coordinates": [
          33.975,
          46.473
        ]
      },
      "properties": {
        "title": "FIRMS thermal anomaly 49.4 MW",
        "summary": "VIIRS S-NPP NRT, sat N, acquired 2026-09-02 1104Z, FRP 49.4 MW",
        "date": "2026-09-03",
        "severity": 9,
        "source": "firms"
      }
    },
    {
      "type": "Feature",
      "geometry": {
        "type": "Point",
        "coordinates": [
          33.032,
          46.666
        ]
      },
      "properties": {
        "title": "FIRMS thermal anomaly 48.2 MW",
        "summary": "VIIRS S-NPP NRT, sat N, acquired 2026-09-02 1104Z, FRP 48.22 MW",
        "date": "2026-09-03",
        "severity": 9,
        "source": "firms"
      }
    },
    {
      "type": "Feature",
      "geometry": {
        "type": "Point",
        "coordinates": [
          33.037,
          46.67
        ]
      },
      "properties": {
        "title": "FIRMS thermal anomaly 24.6 MW",
        "summary": "VIIRS S-NPP NRT, sat N, acquired 2026-09-02 1104Z, FRP 24.64 MW",
        "date": "2026-09-03",
        "severity": 4,
        "source": "firms"
      }
    },
    {
      "type": "Feature",
      "geometry": {
        "type": "Point",
        "coordinates": [
          33.031,
          46.669
        ]
      },
      "properties": {
        "title": "FIRMS thermal anomaly 24.6 MW",
        "summary": "VIIRS S-NPP NRT, sat N, acquired 2026-09-02 1104Z, FRP 24.64 MW",
        "date": "2026-09-03",
        "severity": 4,
        "source": "firms"
      }
    },
    {
      "type": "Feature",
      "geometry": {
        "type": "Point",
        "coordinates": [
          33.019,
          46.668
        ]
      },
      "properties": {
        "title": "FIRMS thermal anomaly 15.4 MW",
        "summary": "VIIRS S-NPP NRT, sat N, acquired 2026-09-02 1104Z, FRP 15.39 MW",
        "date": "2026-09-03",
        "severity": 3,
        "source": "firms"
      }
    },
    {
      "type": "Feature",
      "geometry": {
        "type": "Point",
        "coordinates": [
          33.036,
          46.674
        ]
      },
      "properties": {
        "title": "FIRMS thermal anomaly 24.6 MW",
        "summary": "VIIRS S-NPP NRT, sat N, acquired 2026-09-02 1104Z, FRP 24.64 MW",
        "date": "2026-09-03",
        "severity": 4,
        "source": "firms"
      }
    },
    {
      "type": "Feature",
      "geometry": {
        "type": "Point",
        "coordinates": [
          33.03,
          46.673
        ]
      },
      "properties": {
        "title": "FIRMS thermal anomaly 24.6 MW",
        "summary": "VIIRS S-NPP NRT, sat N, acquired 2026-09-02 1104Z, FRP 24.64 MW",
        "date": "2026-09-03",
        "severity": 4,
        "source": "firms"
      }
    },
    {
      "type": "Feature",
      "geometry": {
        "type": "Point",
        "coordinates": [
          34.507,
          46.839
        ]
      },
      "properties": {
        "title": "FIRMS thermal anomaly 15.2 MW",
        "summary": "VIIRS S-NPP NRT, sat N, acquired 2026-09-02 1104Z, FRP 15.16 MW",
        "date": "2026-09-03",
        "severity": 3,
        "source": "firms"
      }
    },
    {
      "type": "Feature",
      "geometry": {
        "type": "Point",
        "coordinates": [
          33.035,
          46.677
        ]
      },
      "properties": {
        "title": "FIRMS thermal anomaly 27.3 MW",
        "summary": "VIIRS S-NPP NRT, sat N, acquired 2026-09-02 1104Z, FRP 27.3 MW",
        "date": "2026-09-03",
        "severity": 5,
        "source": "firms"
      }
    },
    {
      "type": "Feature",
      "geometry": {
        "type": "Point",
        "coordinates": [
          34.506,
          46.843
        ]
      },
      "properties": {
        "title": "FIRMS thermal anomaly 15.2 MW",
        "summary": "VIIRS S-NPP NRT, sat N, acquired 2026-09-02 1104Z, FRP 15.16 MW",
        "date": "2026-09-03",
        "severity": 3,
        "source": "firms"
      }
    },
    {
      "type": "Feature",
      "geometry": {
        "type": "Point",
        "coordinates": [
          33.028,
          46.68
        ]
      },
      "properties": {
        "title": "FIRMS thermal anomaly 27.3 MW",
        "summary": "VIIRS S-NPP NRT, sat N, acquired 2026-09-02 1104Z, FRP 27.3 MW",
        "date": "2026-09-03",
        "severity": 5,
        "source": "firms"
      }
    },
    {
      "type": "Feature",
      "geometry": {
        "type": "Point",
        "coordinates": [
          34.497,
          46.854
        ]
      },
      "properties": {
        "title": "FIRMS thermal anomaly 21.0 MW",
        "summary": "VIIRS S-NPP NRT, sat N, acquired 2026-09-02 1104Z, FRP 20.97 MW",
        "date": "2026-09-03",
        "severity": 4,
        "source": "firms"
      }
    },
    {
      "type": "Feature",
      "geometry": {
        "type": "Point",
        "coordinates": [
          33.883,
          47.454
        ]
      },
      "properties": {
        "title": "FIRMS thermal anomaly 24.6 MW",
        "summary": "VIIRS S-NPP NRT, sat N, acquired 2026-09-02 1104Z, FRP 24.63 MW",
        "date": "2026-09-03",
        "severity": 4,
        "source": "firms"
      }
    },
    {
      "type": "Feature",
      "geometry": {
        "type": "Point",
        "coordinates": [
          33.882,
          47.458
        ]
      },
      "properties": {
        "title": "FIRMS thermal anomaly 24.6 MW",
        "summary": "VIIRS S-NPP NRT, sat N, acquired 2026-09-02 1104Z, FRP 24.63 MW",
        "date": "2026-09-03",
        "severity": 4,
        "source": "firms"
      }
    },
    {
      "type": "Feature",
      "geometry": {
        "type": "Point",
        "coordinates": [
          33.704,
          46.007
        ]
      },
      "properties": {
        "title": "FIRMS thermal anomaly 26.5 MW",
        "summary": "VIIRS S-NPP NRT, sat N, acquired 2026-09-02 0924Z, FRP 26.51 MW",
        "date": "2026-09-03",
        "severity": 5,
        "source": "firms"
      }
    },
    {
      "type": "Feature",
      "geometry": {
        "type": "Point",
        "coordinates": [
          33.695,
          46.004
        ]
      },
      "properties": {
        "title": "FIRMS thermal anomaly 16.3 MW",
        "summary": "VIIRS S-NPP NRT, sat N, acquired 2026-09-02 0924Z, FRP 16.33 MW",
        "date": "2026-09-03",
        "severity": 3,
        "source": "firms"
      }
    },
    {
      "type": "Feature",
      "geometry": {
        "type": "Point",
        "coordinates": [
          33.96,
          46.472
        ]
      },
      "properties": {
        "title": "FIRMS thermal anomaly 20.5 MW",
        "summary": "VIIRS S-NPP NRT, sat N, acquired 2026-09-02 0924Z, FRP 20.53 MW",
        "date": "2026-09-03",
        "severity": 4,
        "source": "firms"
      }
    },
    {
      "type": "Feature",
      "geometry": {
        "type": "Point",
        "coordinates": [
          33.959,
          46.472
        ]
      },
      "properties": {
        "title": "FIRMS thermal anomaly 18.0 MW",
        "summary": "VIIRS S-NPP NRT, sat N, acquired 2026-09-02 0924Z, FRP 17.97 MW",
        "date": "2026-09-03",
        "severity": 3,
        "source": "firms"
      }
    },
    {
      "type": "Feature",
      "geometry": {
        "type": "Point",
        "coordinates": [
          33.955,
          46.478
        ]
      },
      "properties": {
        "title": "FIRMS thermal anomaly 18.0 MW",
        "summary": "VIIRS S-NPP NRT, sat N, acquired 2026-09-02 0924Z, FRP 17.97 MW",
        "date": "2026-09-03",
        "severity": 3,
        "source": "firms"
      }
    },
    {
      "type": "Feature",
      "geometry": {
        "type": "Point",
        "coordinates": [
          34.577,
          47.109
        ]
      },
      "properties": {
        "title": "FIRMS thermal anomaly 31.2 MW",
        "summary": "VIIRS S-NPP NRT, sat N, acquired 2026-09-02 0924Z, FRP 31.2 MW",
        "date": "2026-09-03",
        "severity": 6,
        "source": "firms"
      }
    },
    {
      "type": "Feature",
      "geometry": {
        "type": "Point",
        "coordinates": [
          34.507,
          50.99
        ]
      },
      "properties": {
        "title": "FIRMS thermal anomaly 30.6 MW",
        "summary": "VIIRS S-NPP NRT, sat N, acquired 2026-09-02 2318Z, FRP 30.6 MW",
        "date": "2026-09-03",
        "severity": 6,
        "source": "firms"
      }
    },
    {
      "type": "Feature",
      "geometry": {
        "type": "Point",
        "coordinates": [
          34.515,
          50.99
        ]
      },
      "properties": {
        "title": "FIRMS thermal anomaly 30.6 MW",
        "summary": "VIIRS S-NPP NRT, sat N, acquired 2026-09-02 2318Z, FRP 30.6 MW",
        "date": "2026-09-03",
        "severity": 6,
        "source": "firms"
      }
    }
  ]
}