{"type": "FeatureCollection", "features": [{"type": "Feature", "geometry": {"type": "Point", "coordinates": [30.52, 50.45]}, "properties": {"title": "Russian missile strike on drone exhibition near Kyiv", "summary": "Russian missile strike on drone exhibition near Kyiv", "date": "2026-07-25", "severity": 8, "source": "acled"}}, {"type": "Feature", "geometry": {"type": "Point", "coordinates": [34.8, 50.91]}, "properties": {"title": "Russian strike on Nova Poshta terminal in Sumy", "summary": "Russian strike on Nova Poshta terminal in Sumy", "date": "2026-07-25", "severity": 6, "source": "acled"}}, {"type": "Feature", "geometry": {"type": "Point", "coordinates": [60.6, 56.83]}, "properties": {"title": "Ukrainian drone strike Wildberries warehouse Yekaterinburg fire", "summary": "Ukrainian drone strike Wildberries warehouse Yekaterinburg fire", "date": "2026-07-25", "severity": 5, "source": "acled"}}, {"type": "Feature", "geometry": {"type": "Point", "coordinates": [39.31, 48.57]}, "properties": {"title": "Explosions reported in Luhansk", "summary": "Explosions reported in Luhansk", "date": "2026-07-25", "severity": 5, "source": "acled"}}, {"type": "Feature", "geometry": {"type": "Point", "coordinates": [36.59, 50.6]}, "properties": {"title": "Explosions in Belgorod Russia", "summary": "Explosions in Belgorod Russia", "date": "2026-07-25", "severity": 5, "source": "acled"}}, {"type": "Feature", "geometry": {"type": "Point", "coordinates": [39.71, 47.23]}, "properties": {"title": "300+ Ukrainian drones attack Russian regions overnight", "summary": "300+ Ukrainian drones attack Russian regions overnight", "date": "2026-07-25", "severity": 7, "source": "acled"}}, {"type": "Feature", "geometry": {"type": "Point", "coordinates": [24.97, 45.94]}, "properties": {"title": "Romania shoots down drone violating airspace", "summary": "Romania shoots down drone violating airspace", "date": "2026-07-25", "severity": 4, "source": "acled"}}, {"type": "Feature", "geometry": {"type": "Point", "coordinates": [42.95, 14.8]}, "properties": {"title": "Saudi-led coalition strikes Hodeidah Yemen", "summary": "Saudi-led coalition strikes Hodeidah Yemen", "date": "2026-07-25", "severity": 6, "source": "acled"}}, {"type": "Feature", "geometry": {"type": "Point", "coordinates": [56.25, 26.56]}, "properties": {"title": "IRGC claims shot down US cruise missile Strait of Hormuz", "summary": "IRGC claims shot down US cruise missile Strait of Hormuz", "date": "2026-07-25", "severity": 8, "source": "acled"}}, {"type": "Feature", "geometry": {"type": "Point", "coordinates": [46.72, 24.69]}, "properties": {"title": "Houthi missile attack on Saudi Arabia", "summary": "Houthi missile attack on Saudi Arabia", "date": "2026-07-25", "severity": 7, "source": "acled"}}, {"type": "Feature", "geometry": {"type": "Point", "coordinates": [35.26, 32.22]}, "properties": {"title": "Four Palestinians killed near Nablus West Bank", "summary": "Four Palestinians killed near Nablus West Bank", "date": "2026-07-25", "severity": 5, "source": "acled"}}, {"type": "Feature", "geometry": {"type": "Point", "coordinates": [39.19, 21.48]}, "properties": {"title": "Jeddah airport air traffic holding patterns disrupted", "summary": "Jeddah airport air traffic holding patterns disrupted", "date": "2026-07-25", "severity": 4, "source": "acled"}}, {"type": "Feature", "geometry": {"type": "Point", "coordinates": [127.5, 21.0]}, "properties": {"title": "Typhoon Noul-26 Cat1 7.4M population affected", "summary": "Typhoon Noul-26 Cat1 7.4M population affected", "date": "2026-07-25", "severity": 7, "source": "gdacs"}}, {"type": "Feature", "geometry": {"type": "Point", "coordinates": [-1.5, 44.5]}, "properties": {"title": "Wildfires France Spain 200000 evacuated national emergency", "summary": "Wildfires France Spain 200000 evacuated national emergency", "date": "2026-07-25", "severity": 7, "source": "gdacs"}}, {"type": "Feature", "geometry": {"type": "Point", "coordinates": [77.21, 28.61]}, "properties": {"title": "India Cockroach Protests Delhi pellet guns deployed", "summary": "India Cockroach Protests Delhi pellet guns deployed", "date": "2026-07-25", "severity": 5, "source": "acled"}}, {"type": "Feature", "geometry": {"type": "Point", "coordinates": [117.5, 14.5]}, "properties": {"title": "China Philippines coastguard clash South China Sea", "summary": "China Philippines coastguard clash South China Sea", "date": "2026-07-25", "severity": 6, "source": "acled"}}, {"type": "Feature", "geometry": {"type": "Point", "coordinates": [30.32, 59.95]}, "properties": {"title": "Fires at logistics warehouses near St Petersburg", "summary": "Fires at logistics warehouses near St Petersburg", "date": "2026-07-25", "severity": 5, "source": "firms"}}, {"type": "Feature", "geometry": {"type": "Point", "coordinates": [8.68, 9.08]}, "properties": {"title": "Nigeria government approves largest military expansion", "summary": "Nigeria government approves largest military expansion", "date": "2026-07-25", "severity": 4, "source": "acled"}}, {"type": "Feature", "geometry": {"type": "Point", "coordinates": [167.5, -14.0]}, "properties": {"title": "M6.0 Vanuatu earthquake", "summary": "M6.0 Vanuatu earthquake", "date": "2026-07-25", "severity": 4, "source": "usgs"}}, {"type": "Feature", "geometry": {"type": "Point", "coordinates": [-121.5, 44.8]}, "properties": {"title": "Wildfire 0579 TEN MILE Oregon USA", "summary": "Wildfire 0579 TEN MILE Oregon USA", "date": "2026-07-25", "severity": 4, "source": "firms"}}]}