{"type": "FeatureCollection", "features": [{"type": "Feature", "geometry": {"type": "Point", "coordinates": [106.903, -5.0932]}, "properties": {"title": "M 6.6 - 115 km NNE of Teluknaga, Indonesia", "summary": "M6.6 \u00b7 115 km NNE of Teluknaga, Indonesia \u00b7 depth 358.597 km", "date": "2026-09-11", "severity": 7, "source": "usgs"}}, {"type": "Feature", "geometry": {"type": "Point", "coordinates": [128.9383, -7.2863]}, "properties": {"title": "M 5.9 - 253 km ENE of Lospalos, Timor Leste", "summary": "M5.9 \u00b7 253 km ENE of Lospalos, Timor Leste \u00b7 depth 111.763 km", "date": "2026-09-11", "severity": 7, "source": "usgs"}}, {"type": "Feature", "geometry": {"type": "Point", "coordinates": [-24.9274, -59.1348]}, "properties": {"title": "M 5.1 - South Sandwich Islands region", "summary": "M5.1 \u00b7 South Sandwich Islands region \u00b7 depth 10 km", "date": "2026-09-12", "severity": 6, "source": "usgs"}}, {"type": "Feature", "geometry": {"type": "Point", "coordinates": [30.7326, 46.4825]}, "properties": {"title": "Russia strikes Odessa", "summary": "Russian combined missile-drone strike on Odessa residential building, 35 casualties", "date": "2026-09-12", "severity": 7, "source": "acled"}}, {"type": "Feature", "geometry": {"type": "Point", "coordinates": [42.5, 14.5]}, "properties": {"title": "Saudi oil pipeline drone attack", "summary": "Houthi drone attack shuts critical Saudi oil pipeline near Bab el-Mandeb", "date": "2026-09-12", "severity": 8, "source": "acled"}}, {"type": "Feature", "geometry": {"type": "Point", "coordinates": [25.3, 43.2]}, "properties": {"title": "Bulgaria arms depot explosion", "summary": "EMKO ammunition depot fire and explosions near Gorni Varpishta village", "date": "2026-09-12", "severity": 6, "source": "acled"}}, {"type": "Feature", "geometry": {"type": "Point", "coordinates": [128.0, 40.0]}, "properties": {"title": "North Korea ballistic missile launch", "summary": "North Korea fires ballistic missiles off eastern coast", "date": "2026-09-12", "severity": 7, "source": "acled"}}, {"type": "Feature", "geometry": {"type": "Point", "coordinates": [0.5, 49.5]}, "properties": {"title": "France Normandy train derailment (suspected sabotage)", "summary": "Passenger train derailed in Normandy, dozens injured, French police suspect sabotage", "date": "2026-09-12", "severity": 6, "source": "acled"}}, {"type": "Feature", "geometry": {"type": "Point", "coordinates": [123.0, 11.0]}, "properties": {"title": "Philippines ferry fire", "summary": "MV June Aster ferry fire kills 35, 50+ missing", "date": "2026-09-12", "severity": 7, "source": "gdacs"}}]}