{
  "type": "FeatureCollection",
  "generated": "2026-09-30",
  "features": [
    {
      "type": "Feature",
      "geometry": {
        "type": "Point",
        "coordinates": [
          122.9149,
          23.8027
        ]
      },
      "properties": {
        "source": "USGS",
        "type": "earthquake",
        "magnitude": 5.6,
        "title": "M 5.6 - 74 km S of Yonakuni, Japan",
        "place": "74 km S of Yonakuni, Japan",
        "date": "2026-09-30",
        "url": "https://earthquake.usgs.gov/earthquakes/eventpage/us6000tyhk"
      }
    },
    {
      "type": "Feature",
      "geometry": {
        "type": "Point",
        "coordinates": [
          169.2156,
          -63.0088
        ]
      },
      "properties": {
        "source": "USGS",
        "type": "earthquake",
        "magnitude": 5.4,
        "title": "M 5.4 - Balleny Islands region",
        "place": "Balleny Islands region",
        "date": "2026-09-30",
        "url": "https://earthquake.usgs.gov/earthquakes/eventpage/us6000tyhi"
      }
    },
    {
      "type": "Feature",
      "geometry": {
        "type": "Point",
        "coordinates": [
          171.414,
          -63.5619
        ]
      },
      "properties": {
        "source": "USGS",
        "type": "earthquake",
        "magnitude": 5.2,
        "title": "M 5.2 - Balleny Islands region",
        "place": "Balleny Islands region",
        "date": "2026-09-30",
        "url": "https://earthquake.usgs.gov/earthquakes/eventpage/us6000tyik"
      }
    },
    {
      "type": "Feature",
      "geometry": {
        "type": "Point",
        "coordinates": [
          152.1328,
          -5.435
        ]
      },
      "properties": {
        "source": "USGS",
        "type": "earthquake",
        "magnitude": 5.1,
        "title": "M 5.1 - 121 km S of Kokopo, Papua New Guinea",
        "place": "121 km S of Kokopo, Papua New Guinea",
        "date": "2026-09-30",
        "url": "https://earthquake.usgs.gov/earthquakes/eventpage/us6000tyit"
      }
    },
    {
      "type": "Feature",
      "geometry": {
        "type": "Point",
        "coordinates": [
          123.6462,
          -9.9243
        ]
      },
      "properties": {
        "source": "USGS",
        "type": "earthquake",
        "magnitude": 5.0,
        "title": "M 5.0 - 27 km N of Kupang, Indonesia",
        "place": "27 km N of Kupang, Indonesia",
        "date": "2026-09-30",
        "url": "https://earthquake.usgs.gov/earthquakes/eventpage/us6000tyjb"
      }
    },
    {
      "type": "Feature",
      "geometry": {
        "type": "Point",
        "coordinates": [
          168.4237,
          -20.988
        ]
      },
      "properties": {
        "source": "USGS",
        "type": "earthquake",
        "magnitude": 5.0,
        "title": "M 5.0 - 83 km NE of Tadine, New Caledonia",
        "place": "83 km NE of Tadine, New Caledonia",
        "date": "2026-09-30",
        "url": "https://earthquake.usgs.gov/earthquakes/eventpage/us6000tyid"
      }
    },
    {
      "type": "Feature",
      "geometry": {
        "type": "Point",
        "coordinates": [
          124.0495,
          -8.7834
        ]
      },
      "properties": {
        "source": "USGS",
        "type": "earthquake",
        "magnitude": 5.0,
        "title": "M 5.0 - 58 km NW of Pante Makasar, Timor Leste",
        "place": "58 km NW of Pante Makasar, Timor Leste",
        "date": "2026-09-29",
        "url": "https://earthquake.usgs.gov/earthquakes/eventpage/us6000tyc9"
      }
    },
    {
      "type": "Feature",
      "geometry": {
        "type": "Point",
        "coordinates": [
          -76.2422,
          4.8436
        ]
      },
      "properties": {
        "source": "GDACS",
        "type": "Earthquake",
        "alert_level": "red",
        "title": "[Red] Earthquake in Colombia",
        "country": "Colombia",
        "date": "2026-08-10",
        "url": "https://www.gdacs.org/report.aspx?eventid=1557236&episodeid=1724218&eventtype=EQ"
      }
    },
    {
      "type": "Feature",
      "geometry": {
        "type": "Point",
        "coordinates": [
          111.6474338,
          32.2656451
        ]
      },
      "properties": {
        "source": "GDACS",
        "type": "Flood",
        "alert_level": "orange",
        "title": "[Orange] Flood in China",
        "country": "China",
        "date": "2026-07-31",
        "url": "https://www.gdacs.org/report.aspx?eventid=1104081&episodeid=7&eventtype=FL"
      }
    },
    {
      "type": "Feature",
      "geometry": {
        "type": "Point",
        "coordinates": [
          120.6,
          27.9
        ]
      },
      "properties": {
        "source": "GDACS",
        "type": "Tropical Cyclone",
        "alert_level": "orange",
        "title": "[Orange] Tropical Cyclone DOLPHIN-26",
        "country": "Marshall Islands, Japan, China",
        "date": "2026-07-27",
        "url": "https://www.gdacs.org/report.aspx?eventid=1001297&episodeid=55&eventtype=TC"
      }
    },
    {
      "type": "Feature",
      "geometry": {
        "type": "Point",
        "coordinates": [
          33.25,
          1.187
        ]
      },
      "properties": {
        "source": "GDACS",
        "type": "Drought",
        "alert_level": "orange",
        "title": "[Orange] Drought in Democratic Republic of Congo, Kenya, Tanzania, Uganda",
        "country": "Democratic Republic of Congo, Kenya, Tanzania, Uganda",
        "date": "2026-05-21",
        "url": "https://www.gdacs.org/report.aspx?eventid=1027465&episodeid=2&eventtype=DR"
      }
    },
    {
      "type": "Feature",
      "geometry": {
        "type": "Point",
        "coordinates": [
          47.606,
          -17.932
        ]
      },
      "properties": {
        "source": "GDACS",
        "type": "Drought",
        "alert_level": "orange",
        "title": "[Orange] Drought in Madagascar",
        "country": "Madagascar",
        "date": "2025-11-21",
        "url": "https://www.gdacs.org/report.aspx?eventid=1018431&episodeid=11&eventtype=DR"
      }
    },
    {
      "type": "Feature",
      "geometry": {
        "type": "Point",
        "coordinates": [
          44.618,
          6.545
        ]
      },
      "properties": {
        "source": "GDACS",
        "type": "Drought",
        "alert_level": "orange",
        "title": "[Orange] Drought in Ethiopia, Kenya, Somalia",
        "country": "Ethiopia, Kenya, Somalia",
        "date": "2026-04-21",
        "url": "https://www.gdacs.org/report.aspx?eventid=1027450&episodeid=5&eventtype=DR"
      }
    },
    {
      "type": "Feature",
      "geometry": {
        "type": "Point",
        "coordinates": [
          12.151,
          47.602
        ]
      },
      "properties": {
        "source": "GDACS",
        "type": "Drought",
        "alert_level": "orange",
        "title": "[Orange] Drought in Albania, Austria, Bosnia  and  Herzegovina, Belgium, Bulgaria, Belarus, Switzerland, Czech Republic, Germany, Denmark, Spain, France, Croatia, Hungary, Italy, Liechtenstein, Luxembourg, Monaco, Montenegro, The Republic of North Macedonia, Poland, Romania, Serbia, Sweden, Slovenia, Slovakia, San Marino, Ukraine, , ",
        "country": "Albania, Austria, Bosnia & Herzegovina, Belgium, Bulgaria, Belarus, Switzerland, Czech Republic, Germany, Denmark, Spain, France, Croatia, Hungary, Italy, Liechtenstein, Luxembourg, Monaco, Montenegro, The Republic of North Macedonia, Poland, Romania, Serbia, Sweden, Slovenia, Slovakia, San Marino, Ukraine, , ",
        "date": "2025-12-11",
        "url": "https://www.gdacs.org/report.aspx?eventid=1018332&episodeid=18&eventtype=DR"
      }
    },
    {
      "type": "Feature",
      "geometry": {
        "type": "Point",
        "coordinates": [
          30.79232,
          50.44978
        ]
      },
      "properties": {
        "source": "FIRMS",
        "type": "thermal_anomaly",
        "frp_mw": 62.17,
        "title": "[FIRMS] thermal anomaly 50.450, 30.792 (FRP 62.17 MW, conf nominal)",
        "date": "2026-09-30",
        "url": "https://firms.modaps.eosdis.nasa.gov/usfs/map/#d:24hrs;@30.792,50.450,9z"
      }
    },
    {
      "type": "Feature",
      "geometry": {
        "type": "Point",
        "coordinates": [
          22.79635,
          44.51609
        ]
      },
      "properties": {
        "source": "FIRMS",
        "type": "thermal_anomaly",
        "frp_mw": 35.07,
        "title": "[FIRMS] thermal anomaly 44.516, 22.796 (FRP 35.07 MW, conf nominal)",
        "date": "2026-09-30",
        "url": "https://firms.modaps.eosdis.nasa.gov/usfs/map/#d:24hrs;@22.796,44.516,9z"
      }
    },
    {
      "type": "Feature",
      "geometry": {
        "type": "Point",
        "coordinates": [
          22.79352,
          44.52112
        ]
      },
      "properties": {
        "source": "FIRMS",
        "type": "thermal_anomaly",
        "frp_mw": 35.07,
        "title": "[FIRMS] thermal anomaly 44.521, 22.794 (FRP 35.07 MW, conf nominal)",
        "date": "2026-09-30",
        "url": "https://firms.modaps.eosdis.nasa.gov/usfs/map/#d:24hrs;@22.794,44.521,9z"
      }
    },
    {
      "type": "Feature",
      "geometry": {
        "type": "Point",
        "coordinates": [
          22.78884,
          44.51978
        ]
      },
      "properties": {
        "source": "FIRMS",
        "type": "thermal_anomaly",
        "frp_mw": 35.07,
        "title": "[FIRMS] thermal anomaly 44.520, 22.789 (FRP 35.07 MW, conf nominal)",
        "date": "2026-09-30",
        "url": "https://firms.modaps.eosdis.nasa.gov/usfs/map/#d:24hrs;@22.789,44.520,9z"
      }
    },
    {
      "type": "Feature",
      "geometry": {
        "type": "Point",
        "coordinates": [
          22.80091,
          44.5174
        ]
      },
      "properties": {
        "source": "FIRMS",
        "type": "thermal_anomaly",
        "frp_mw": 27.81,
        "title": "[FIRMS] thermal anomaly 44.517, 22.801 (FRP 27.81 MW, conf high)",
        "date": "2026-09-30",
        "url": "https://firms.modaps.eosdis.nasa.gov/usfs/map/#d:24hrs;@22.801,44.517,9z"
      }
    },
    {
      "type": "Feature",
      "geometry": {
        "type": "Point",
        "coordinates": [
          22.80556,
          44.51873
        ]
      },
      "properties": {
        "source": "FIRMS",
        "type": "thermal_anomaly",
        "frp_mw": 27.81,
        "title": "[FIRMS] thermal anomaly 44.519, 22.806 (FRP 27.81 MW, conf nominal)",
        "date": "2026-09-30",
        "url": "https://firms.modaps.eosdis.nasa.gov/usfs/map/#d:24hrs;@22.806,44.519,9z"
      }
    },
    {
      "type": "Feature",
      "geometry": {
        "type": "Point",
        "coordinates": [
          22.79822,
          44.52246
        ]
      },
      "properties": {
        "source": "FIRMS",
        "type": "thermal_anomaly",
        "frp_mw": 27.81,
        "title": "[FIRMS] thermal anomaly 44.522, 22.798 (FRP 27.81 MW, conf high)",
        "date": "2026-09-30",
        "url": "https://firms.modaps.eosdis.nasa.gov/usfs/map/#d:24hrs;@22.798,44.522,9z"
      }
    },
    {
      "type": "Feature",
      "geometry": {
        "type": "Point",
        "coordinates": [
          23.10125,
          44.9166
        ]
      },
      "properties": {
        "source": "FIRMS",
        "type": "thermal_anomaly",
        "frp_mw": 25.08,
        "title": "[FIRMS] thermal anomaly 44.917, 23.101 (FRP 25.08 MW, conf high)",
        "date": "2026-09-30",
        "url": "https://firms.modaps.eosdis.nasa.gov/usfs/map/#d:24hrs;@23.101,44.917,9z"
      }
    },
    {
      "type": "Feature",
      "geometry": {
        "type": "Point",
        "coordinates": [
          33.74709,
          45.87975
        ]
      },
      "properties": {
        "source": "FIRMS",
        "type": "thermal_anomaly",
        "frp_mw": 23.56,
        "title": "[FIRMS] thermal anomaly 45.880, 33.747 (FRP 23.56 MW, conf nominal)",
        "date": "2026-09-29",
        "url": "https://firms.modaps.eosdis.nasa.gov/usfs/map/#d:24hrs;@33.747,45.880,9z"
      }
    },
    {
      "type": "Feature",
      "geometry": {
        "type": "Point",
        "coordinates": [
          33.74619,
          45.88318
        ]
      },
      "properties": {
        "source": "FIRMS",
        "type": "thermal_anomaly",
        "frp_mw": 23.56,
        "title": "[FIRMS] thermal anomaly 45.883, 33.746 (FRP 23.56 MW, conf nominal)",
        "date": "2026-09-29",
        "url": "https://firms.modaps.eosdis.nasa.gov/usfs/map/#d:24hrs;@33.746,45.883,9z"
      }
    },
    {
      "type": "Feature",
      "geometry": {
        "type": "Point",
        "coordinates": [
          33.74085,
          45.88248
        ]
      },
      "properties": {
        "source": "FIRMS",
        "type": "thermal_anomaly",
        "frp_mw": 23.56,
        "title": "[FIRMS] thermal anomaly 45.882, 33.741 (FRP 23.56 MW, conf nominal)",
        "date": "2026-09-29",
        "url": "https://firms.modaps.eosdis.nasa.gov/usfs/map/#d:24hrs;@33.741,45.882,9z"
      }
    },
    {
      "type": "Feature",
      "geometry": {
        "type": "Point",
        "coordinates": [
          33.76976,
          47.3525
        ]
      },
      "properties": {
        "source": "FIRMS",
        "type": "thermal_anomaly",
        "frp_mw": 23.55,
        "title": "[FIRMS] thermal anomaly 47.352, 33.770 (FRP 23.55 MW, conf nominal)",
        "date": "2026-09-30",
        "url": "https://firms.modaps.eosdis.nasa.gov/usfs/map/#d:24hrs;@33.770,47.352,9z"
      }
    },
    {
      "type": "Feature",
      "geometry": {
        "type": "Point",
        "coordinates": [
          29.87944,
          48.48195
        ]
      },
      "properties": {
        "source": "FIRMS",
        "type": "thermal_anomaly",
        "frp_mw": 22.03,
        "title": "[FIRMS] thermal anomaly 48.482, 29.879 (FRP 22.03 MW, conf high)",
        "date": "2026-09-29",
        "url": "https://firms.modaps.eosdis.nasa.gov/usfs/map/#d:24hrs;@29.879,48.482,9z"
      }
    },
    {
      "type": "Feature",
      "geometry": {
        "type": "Point",
        "coordinates": [
          33.93962,
          46.71448
        ]
      },
      "properties": {
        "source": "FIRMS",
        "type": "thermal_anomaly",
        "frp_mw": 21.5,
        "title": "[FIRMS] thermal anomaly 46.714, 33.940 (FRP 21.5 MW, conf nominal)",
        "date": "2026-09-29",
        "url": "https://firms.modaps.eosdis.nasa.gov/usfs/map/#d:24hrs;@33.940,46.714,9z"
      }
    },
    {
      "type": "Feature",
      "geometry": {
        "type": "Point",
        "coordinates": [
          34.38748,
          46.93399
        ]
      },
      "properties": {
        "source": "FIRMS",
        "type": "thermal_anomaly",
        "frp_mw": 19.83,
        "title": "[FIRMS] thermal anomaly 46.934, 34.387 (FRP 19.83 MW, conf nominal)",
        "date": "2026-09-30",
        "url": "https://firms.modaps.eosdis.nasa.gov/usfs/map/#d:24hrs;@34.387,46.934,9z"
      }
    },
    {
      "type": "Feature",
      "geometry": {
        "type": "Point",
        "coordinates": [
          29.88457,
          48.48274
        ]
      },
      "properties": {
        "source": "FIRMS",
        "type": "thermal_anomaly",
        "frp_mw": 18.64,
        "title": "[FIRMS] thermal anomaly 48.483, 29.885 (FRP 18.64 MW, conf nominal)",
        "date": "2026-09-29",
        "url": "https://firms.modaps.eosdis.nasa.gov/usfs/map/#d:24hrs;@29.885,48.483,9z"
      }
    },
    {
      "type": "Feature",
      "geometry": {
        "type": "Point",
        "coordinates": [
          29.88343,
          48.48601
        ]
      },
      "properties": {
        "source": "FIRMS",
        "type": "thermal_anomaly",
        "frp_mw": 18.64,
        "title": "[FIRMS] thermal anomaly 48.486, 29.883 (FRP 18.64 MW, conf nominal)",
        "date": "2026-09-29",
        "url": "https://firms.modaps.eosdis.nasa.gov/usfs/map/#d:24hrs;@29.883,48.486,9z"
      }
    },
    {
      "type": "Feature",
      "geometry": {
        "type": "Point",
        "coordinates": [
          34.8314,
          46.10386
        ]
      },
      "properties": {
        "source": "FIRMS",
        "type": "thermal_anomaly",
        "frp_mw": 18.43,
        "title": "[FIRMS] thermal anomaly 46.104, 34.831 (FRP 18.43 MW, conf nominal)",
        "date": "2026-09-30",
        "url": "https://firms.modaps.eosdis.nasa.gov/usfs/map/#d:24hrs;@34.831,46.104,9z"
      }
    },
    {
      "type": "Feature",
      "geometry": {
        "type": "Point",
        "coordinates": [
          34.83638,
          46.10233
        ]
      },
      "properties": {
        "source": "FIRMS",
        "type": "thermal_anomaly",
        "frp_mw": 18.43,
        "title": "[FIRMS] thermal anomaly 46.102, 34.836 (FRP 18.43 MW, conf nominal)",
        "date": "2026-09-30",
        "url": "https://firms.modaps.eosdis.nasa.gov/usfs/map/#d:24hrs;@34.836,46.102,9z"
      }
    },
    {
      "type": "Feature",
      "geometry": {
        "type": "Point",
        "coordinates": [
          34.82618,
          46.10704
        ]
      },
      "properties": {
        "source": "FIRMS",
        "type": "thermal_anomaly",
        "frp_mw": 18.23,
        "title": "[FIRMS] thermal anomaly 46.107, 34.826 (FRP 18.23 MW, conf nominal)",
        "date": "2026-09-30",
        "url": "https://firms.modaps.eosdis.nasa.gov/usfs/map/#d:24hrs;@34.826,46.107,9z"
      }
    },
    {
      "type": "Feature",
      "geometry": {
        "type": "Point",
        "coordinates": [
          34.83119,
          46.10554
        ]
      },
      "properties": {
        "source": "FIRMS",
        "type": "thermal_anomaly",
        "frp_mw": 18.23,
        "title": "[FIRMS] thermal anomaly 46.106, 34.831 (FRP 18.23 MW, conf high)",
        "date": "2026-09-30",
        "url": "https://firms.modaps.eosdis.nasa.gov/usfs/map/#d:24hrs;@34.831,46.106,9z"
      }
    },
    {
      "type": "Feature",
      "geometry": {
        "type": "Point",
        "coordinates": [
          34.82788,
          46.10036
        ]
      },
      "properties": {
        "source": "FIRMS",
        "type": "thermal_anomaly",
        "frp_mw": 18.23,
        "title": "[FIRMS] thermal anomaly 46.100, 34.828 (FRP 18.23 MW, conf high)",
        "date": "2026-09-30",
        "url": "https://firms.modaps.eosdis.nasa.gov/usfs/map/#d:24hrs;@34.828,46.100,9z"
      }
    },
    {
      "type": "Feature",
      "geometry": {
        "type": "Point",
        "coordinates": [
          33.74355,
          45.87222
        ]
      },
      "properties": {
        "source": "FIRMS",
        "type": "thermal_anomaly",
        "frp_mw": 18.19,
        "title": "[FIRMS] thermal anomaly 45.872, 33.744 (FRP 18.19 MW, conf nominal)",
        "date": "2026-09-29",
        "url": "https://firms.modaps.eosdis.nasa.gov/usfs/map/#d:24hrs;@33.744,45.872,9z"
      }
    },
    {
      "type": "Feature",
      "geometry": {
        "type": "Point",
        "coordinates": [
          33.748,
          45.87633
        ]
      },
      "properties": {
        "source": "FIRMS",
        "type": "thermal_anomaly",
        "frp_mw": 18.19,
        "title": "[FIRMS] thermal anomaly 45.876, 33.748 (FRP 18.19 MW, conf nominal)",
        "date": "2026-09-29",
        "url": "https://firms.modaps.eosdis.nasa.gov/usfs/map/#d:24hrs;@33.748,45.876,9z"
      }
    },
    {
      "type": "Feature",
      "geometry": {
        "type": "Point",
        "coordinates": [
          33.74265,
          45.87564
        ]
      },
      "properties": {
        "source": "FIRMS",
        "type": "thermal_anomaly",
        "frp_mw": 18.19,
        "title": "[FIRMS] thermal anomaly 45.876, 33.743 (FRP 18.19 MW, conf nominal)",
        "date": "2026-09-29",
        "url": "https://firms.modaps.eosdis.nasa.gov/usfs/map/#d:24hrs;@33.743,45.876,9z"
      }
    },
    {
      "type": "Feature",
      "geometry": {
        "type": "Point",
        "coordinates": [
          34.66996,
          46.93564
        ]
      },
      "properties": {
        "source": "FIRMS",
        "type": "thermal_anomaly",
        "frp_mw": 16.72,
        "title": "[FIRMS] thermal anomaly 46.936, 34.670 (FRP 16.72 MW, conf nominal)",
        "date": "2026-09-29",
        "url": "https://firms.modaps.eosdis.nasa.gov/usfs/map/#d:24hrs;@34.670,46.936,9z"
      }
    },
    {
      "type": "Feature",
      "geometry": {
        "type": "Point",
        "coordinates": [
          34.66907,
          46.9392
        ]
      },
      "properties": {
        "source": "FIRMS",
        "type": "thermal_anomaly",
        "frp_mw": 16.72,
        "title": "[FIRMS] thermal anomaly 46.939, 34.669 (FRP 16.72 MW, conf nominal)",
        "date": "2026-09-29",
        "url": "https://firms.modaps.eosdis.nasa.gov/usfs/map/#d:24hrs;@34.669,46.939,9z"
      }
    },
    {
      "type": "Feature",
      "geometry": {
        "type": "Point",
        "coordinates": [
          34.82969,
          46.11057
        ]
      },
      "properties": {
        "source": "FIRMS",
        "type": "thermal_anomaly",
        "frp_mw": 16.61,
        "title": "[FIRMS] thermal anomaly 46.111, 34.830 (FRP 16.61 MW, conf nominal)",
        "date": "2026-09-30",
        "url": "https://firms.modaps.eosdis.nasa.gov/usfs/map/#d:24hrs;@34.830,46.111,9z"
      }
    },
    {
      "type": "Feature",
      "geometry": {
        "type": "Point",
        "coordinates": [
          34.82642,
          46.10538
        ]
      },
      "properties": {
        "source": "FIRMS",
        "type": "thermal_anomaly",
        "frp_mw": 16.61,
        "title": "[FIRMS] thermal anomaly 46.105, 34.826 (FRP 16.61 MW, conf high)",
        "date": "2026-09-30",
        "url": "https://firms.modaps.eosdis.nasa.gov/usfs/map/#d:24hrs;@34.826,46.105,9z"
      }
    },
    {
      "type": "Feature",
      "geometry": {
        "type": "Point",
        "coordinates": [
          34.86217,
          46.91222
        ]
      },
      "properties": {
        "source": "FIRMS",
        "type": "thermal_anomaly",
        "frp_mw": 16.33,
        "title": "[FIRMS] thermal anomaly 46.912, 34.862 (FRP 16.33 MW, conf high)",
        "date": "2026-09-29",
        "url": "https://firms.modaps.eosdis.nasa.gov/usfs/map/#d:24hrs;@34.862,46.912,9z"
      }
    },
    {
      "type": "Feature",
      "geometry": {
        "type": "Point",
        "coordinates": [
          26.56568,
          44.56954
        ]
      },
      "properties": {
        "source": "FIRMS",
        "type": "thermal_anomaly",
        "frp_mw": 15.86,
        "title": "[FIRMS] thermal anomaly 44.570, 26.566 (FRP 15.86 MW, conf nominal)",
        "date": "2026-09-29",
        "url": "https://firms.modaps.eosdis.nasa.gov/usfs/map/#d:24hrs;@26.566,44.570,9z"
      }
    },
    {
      "type": "Feature",
      "geometry": {
        "type": "Point",
        "coordinates": [
          23.10342,
          44.91732
        ]
      },
      "properties": {
        "source": "FIRMS",
        "type": "thermal_anomaly",
        "frp_mw": 13.64,
        "title": "[FIRMS] thermal anomaly 44.917, 23.103 (FRP 13.64 MW, conf nominal)",
        "date": "2026-09-30",
        "url": "https://firms.modaps.eosdis.nasa.gov/usfs/map/#d:24hrs;@23.103,44.917,9z"
      }
    },
    {
      "type": "Feature",
      "geometry": {
        "type": "Point",
        "coordinates": [
          23.09952,
          44.91622
        ]
      },
      "properties": {
        "source": "FIRMS",
        "type": "thermal_anomaly",
        "frp_mw": 13.52,
        "title": "[FIRMS] thermal anomaly 44.916, 23.100 (FRP 13.52 MW, conf nominal)",
        "date": "2026-09-30",
        "url": "https://firms.modaps.eosdis.nasa.gov/usfs/map/#d:24hrs;@23.100,44.916,9z"
      }
    },
    {
      "type": "Feature",
      "geometry": {
        "type": "Point",
        "coordinates": [
          23.09563,
          44.91512
        ]
      },
      "properties": {
        "source": "FIRMS",
        "type": "thermal_anomaly",
        "frp_mw": 13.52,
        "title": "[FIRMS] thermal anomaly 44.915, 23.096 (FRP 13.52 MW, conf nominal)",
        "date": "2026-09-30",
        "url": "https://firms.modaps.eosdis.nasa.gov/usfs/map/#d:24hrs;@23.096,44.915,9z"
      }
    },
    {
      "type": "Feature",
      "geometry": {
        "type": "Point",
        "coordinates": [
          29.88684,
          48.47621
        ]
      },
      "properties": {
        "source": "FIRMS",
        "type": "thermal_anomaly",
        "frp_mw": 12.58,
        "title": "[FIRMS] thermal anomaly 48.476, 29.887 (FRP 12.58 MW, conf nominal)",
        "date": "2026-09-29",
        "url": "https://firms.modaps.eosdis.nasa.gov/usfs/map/#d:24hrs;@29.887,48.476,9z"
      }
    },
    {
      "type": "Feature",
      "geometry": {
        "type": "Point",
        "coordinates": [
          29.8857,
          48.47948
        ]
      },
      "properties": {
        "source": "FIRMS",
        "type": "thermal_anomaly",
        "frp_mw": 12.58,
        "title": "[FIRMS] thermal anomaly 48.479, 29.886 (FRP 12.58 MW, conf nominal)",
        "date": "2026-09-29",
        "url": "https://firms.modaps.eosdis.nasa.gov/usfs/map/#d:24hrs;@29.886,48.479,9z"
      }
    },
    {
      "type": "Feature",
      "geometry": {
        "type": "Point",
        "coordinates": [
          23.23629,
          44.73226
        ]
      },
      "properties": {
        "source": "FIRMS",
        "type": "thermal_anomaly",
        "frp_mw": 12.16,
        "title": "[FIRMS] thermal anomaly 44.732, 23.236 (FRP 12.16 MW, conf nominal)",
        "date": "2026-09-29",
        "url": "https://firms.modaps.eosdis.nasa.gov/usfs/map/#d:24hrs;@23.236,44.732,9z"
      }
    },
    {
      "type": "Feature",
      "geometry": {
        "type": "Point",
        "coordinates": [
          23.23127,
          44.7311
        ]
      },
      "properties": {
        "source": "FIRMS",
        "type": "thermal_anomaly",
        "frp_mw": 12.16,
        "title": "[FIRMS] thermal anomaly 44.731, 23.231 (FRP 12.16 MW, conf nominal)",
        "date": "2026-09-29",
        "url": "https://firms.modaps.eosdis.nasa.gov/usfs/map/#d:24hrs;@23.231,44.731,9z"
      }
    },
    {
      "type": "Feature",
      "geometry": {
        "type": "Point",
        "coordinates": [
          26.56381,
          44.56246
        ]
      },
      "properties": {
        "source": "FIRMS",
        "type": "thermal_anomaly",
        "frp_mw": 12.09,
        "title": "[FIRMS] thermal anomaly 44.562, 26.564 (FRP 12.09 MW, conf nominal)",
        "date": "2026-09-30",
        "url": "https://firms.modaps.eosdis.nasa.gov/usfs/map/#d:24hrs;@26.564,44.562,9z"
      }
    },
    {
      "type": "Feature",
      "geometry": {
        "type": "Point",
        "coordinates": [
          34.9117,
          51.22889
        ]
      },
      "properties": {
        "source": "FIRMS",
        "type": "thermal_anomaly",
        "frp_mw": 11.86,
        "title": "[FIRMS] thermal anomaly 51.229, 34.912 (FRP 11.86 MW, conf nominal)",
        "date": "2026-09-30",
        "url": "https://firms.modaps.eosdis.nasa.gov/usfs/map/#d:24hrs;@34.912,51.229,9z"
      }
    },
    {
      "type": "Feature",
      "geometry": {
        "type": "Point",
        "coordinates": [
          34.83619,
          46.10404
        ]
      },
      "properties": {
        "source": "FIRMS",
        "type": "thermal_anomaly",
        "frp_mw": 11.75,
        "title": "[FIRMS] thermal anomaly 46.104, 34.836 (FRP 11.75 MW, conf nominal)",
        "date": "2026-09-30",
        "url": "https://firms.modaps.eosdis.nasa.gov/usfs/map/#d:24hrs;@34.836,46.104,9z"
      }
    },
    {
      "type": "Feature",
      "geometry": {
        "type": "Point",
        "coordinates": [
          34.8329,
          46.09885
        ]
      },
      "properties": {
        "source": "FIRMS",
        "type": "thermal_anomaly",
        "frp_mw": 11.75,
        "title": "[FIRMS] thermal anomaly 46.099, 34.833 (FRP 11.75 MW, conf nominal)",
        "date": "2026-09-30",
        "url": "https://firms.modaps.eosdis.nasa.gov/usfs/map/#d:24hrs;@34.833,46.099,9z"
      }
    },
    {
      "type": "Feature",
      "geometry": {
        "type": "Point",
        "coordinates": [
          25.53153,
          49.31221
        ]
      },
      "properties": {
        "source": "FIRMS",
        "type": "thermal_anomaly",
        "frp_mw": 11.56,
        "title": "[FIRMS] thermal anomaly 49.312, 25.532 (FRP 11.56 MW, conf nominal)",
        "date": "2026-09-29",
        "url": "https://firms.modaps.eosdis.nasa.gov/usfs/map/#d:24hrs;@25.532,49.312,9z"
      }
    },
    {
      "type": "Feature",
      "geometry": {
        "type": "Point",
        "coordinates": [
          25.52575,
          49.3111
        ]
      },
      "properties": {
        "source": "FIRMS",
        "type": "thermal_anomaly",
        "frp_mw": 11.56,
        "title": "[FIRMS] thermal anomaly 49.311, 25.526 (FRP 11.56 MW, conf nominal)",
        "date": "2026-09-29",
        "url": "https://firms.modaps.eosdis.nasa.gov/usfs/map/#d:24hrs;@25.526,49.311,9z"
      }
    },
    {
      "type": "Feature",
      "geometry": {
        "type": "Point",
        "coordinates": [
          30.88143,
          50.6122
        ]
      },
      "properties": {
        "source": "FIRMS",
        "type": "thermal_anomaly",
        "frp_mw": 10.78,
        "title": "[FIRMS] thermal anomaly 50.612, 30.881 (FRP 10.78 MW, conf nominal)",
        "date": "2026-09-30",
        "url": "https://firms.modaps.eosdis.nasa.gov/usfs/map/#d:24hrs;@30.881,50.612,9z"
      }
    },
    {
      "type": "Feature",
      "geometry": {
        "type": "Point",
        "coordinates": [
          31.6744,
          45.25806
        ]
      },
      "properties": {
        "source": "FIRMS",
        "type": "thermal_anomaly",
        "frp_mw": 10.75,
        "title": "[FIRMS] thermal anomaly 45.258, 31.674 (FRP 10.75 MW, conf nominal)",
        "date": "2026-09-30",
        "url": "https://firms.modaps.eosdis.nasa.gov/usfs/map/#d:24hrs;@31.674,45.258,9z"
      }
    },
    {
      "type": "Feature",
      "geometry": {
        "type": "Point",
        "coordinates": [
          31.67455,
          45.25872
        ]
      },
      "properties": {
        "source": "FIRMS",
        "type": "thermal_anomaly",
        "frp_mw": 10.64,
        "title": "[FIRMS] thermal anomaly 45.259, 31.675 (FRP 10.64 MW, conf nominal)",
        "date": "2026-09-29",
        "url": "https://firms.modaps.eosdis.nasa.gov/usfs/map/#d:24hrs;@31.675,45.259,9z"
      }
    },
    {
      "type": "Feature",
      "geometry": {
        "type": "Point",
        "coordinates": [
          34.90224,
          51.22503
        ]
      },
      "properties": {
        "source": "FIRMS",
        "type": "thermal_anomaly",
        "frp_mw": 9.87,
        "title": "[FIRMS] thermal anomaly 51.225, 34.902 (FRP 9.87 MW, conf nominal)",
        "date": "2026-09-30",
        "url": "https://firms.modaps.eosdis.nasa.gov/usfs/map/#d:24hrs;@34.902,51.225,9z"
      }
    },
    {
      "type": "Feature",
      "geometry": {
        "type": "Point",
        "coordinates": [
          30.18533,
          47.72418
        ]
      },
      "properties": {
        "source": "FIRMS",
        "type": "thermal_anomaly",
        "frp_mw": 9.78,
        "title": "[FIRMS] thermal anomaly 47.724, 30.185 (FRP 9.78 MW, conf nominal)",
        "date": "2026-09-30",
        "url": "https://firms.modaps.eosdis.nasa.gov/usfs/map/#d:24hrs;@30.185,47.724,9z"
      }
    },
    {
      "type": "Feature",
      "geometry": {
        "type": "Point",
        "coordinates": [
          23.09734,
          44.91552
        ]
      },
      "properties": {
        "source": "FIRMS",
        "type": "thermal_anomaly",
        "frp_mw": 9.26,
        "title": "[FIRMS] thermal anomaly 44.916, 23.097 (FRP 9.26 MW, conf high)",
        "date": "2026-09-30",
        "url": "https://firms.modaps.eosdis.nasa.gov/usfs/map/#d:24hrs;@23.097,44.916,9z"
      }
    },
    {
      "type": "Feature",
      "geometry": {
        "type": "Point",
        "coordinates": [
          -122.722,
          47.4003333333333
        ]
      },
      "properties": {
        "source": "USGS_live",
        "type": "earthquake_significant",
        "magnitude": 4.15,
        "place": "6 km WNW of Wauna, Washington",
        "title": "M 4.2 - 6 km WNW of Wauna, Washington",
        "url": "https://earthquake.usgs.gov/earthquakes/eventpage/uw714111952"
      }
    }
  ]
}