{
  "type": "FeatureCollection",
  "features": [
    {
      "type": "Feature",
      "geometry": {
        "type": "Point",
        "coordinates": [
          -76.2422,
          4.8436
        ]
      },
      "properties": {
        "title": "M7.4 Earthquake - San Jos\u00e9 del Palmar, Colombia",
        "summary": "Depth 110km. PAGER Orange. 1.5 million in MMI>=VII. At least 111 killed.",
        "date": "2026-08-10",
        "severity": 9,
        "source": "usgs"
      }
    },
    {
      "type": "Feature",
      "geometry": {
        "type": "Point",
        "coordinates": [
          -76.24,
          4.84
        ]
      },
      "properties": {
        "title": "GDACS Orange - Colombia M7.4",
        "summary": "1.5 million affected in MMI>=VII zone.",
        "date": "2026-08-10",
        "severity": 9,
        "source": "gdacs"
      }
    },
    {
      "type": "Feature",
      "geometry": {
        "type": "Point",
        "coordinates": [
          32.868,
          52.304
        ]
      },
      "properties": {
        "title": "FIRMS thermal anomaly (FRP 0.89 MW)",
        "summary": "VIIRS NRT thermal detection, FRP 0.89 MW, Ukraine theater",
        "date": "2026-08-10",
        "severity": 3,
        "source": "firms"
      }
    },
    {
      "type": "Feature",
      "geometry": {
        "type": "Point",
        "coordinates": [
          29.988,
          52.846
        ]
      },
      "properties": {
        "title": "FIRMS thermal anomaly (FRP 1.79 MW)",
        "summary": "VIIRS NRT thermal detection, FRP 1.79 MW, Ukraine theater",
        "date": "2026-08-10",
        "severity": 5,
        "source": "firms"
      }
    },
    {
      "type": "Feature",
      "geometry": {
        "type": "Point",
        "coordinates": [
          29.346,
          51.896
        ]
      },
      "properties": {
        "title": "FIRMS thermal anomaly (FRP 1.85 MW)",
        "summary": "VIIRS NRT thermal detection, FRP 1.85 MW, Ukraine theater",
        "date": "2026-08-10",
        "severity": 5,
        "source": "firms"
      }
    },
    {
      "type": "Feature",
      "geometry": {
        "type": "Point",
        "coordinates": [
          29.341,
          51.89
        ]
      },
      "properties": {
        "title": "FIRMS thermal anomaly (FRP 1.85 MW)",
        "summary": "VIIRS NRT thermal detection, FRP 1.85 MW, Ukraine theater",
        "date": "2026-08-10",
        "severity": 5,
        "source": "firms"
      }
    },
    {
      "type": "Feature",
      "geometry": {
        "type": "Point",
        "coordinates": [
          32.224,
          52.804
        ]
      },
      "properties": {
        "title": "FIRMS thermal anomaly (FRP 0.78 MW)",
        "summary": "VIIRS NRT thermal detection, FRP 0.78 MW, Ukraine theater",
        "date": "2026-08-10",
        "severity": 3,
        "source": "firms"
      }
    },
    {
      "type": "Feature",
      "geometry": {
        "type": "Point",
        "coordinates": [
          29.992,
          52.849
        ]
      },
      "properties": {
        "title": "FIRMS thermal anomaly (FRP 1.5 MW)",
        "summary": "VIIRS NRT thermal detection, FRP 1.5 MW, Ukraine theater",
        "date": "2026-08-10",
        "severity": 5,
        "source": "firms"
      }
    },
    {
      "type": "Feature",
      "geometry": {
        "type": "Point",
        "coordinates": [
          29.991,
          52.846
        ]
      },
      "properties": {
        "title": "FIRMS thermal anomaly (FRP 2.33 MW)",
        "summary": "VIIRS NRT thermal detection, FRP 2.33 MW, Ukraine theater",
        "date": "2026-08-10",
        "severity": 6,
        "source": "firms"
      }
    },
    {
      "type": "Feature",
      "geometry": {
        "type": "Point",
        "coordinates": [
          32.872,
          52.296
        ]
      },
      "properties": {
        "title": "FIRMS thermal anomaly (FRP 0.57 MW)",
        "summary": "VIIRS NRT thermal detection, FRP 0.57 MW, Ukraine theater",
        "date": "2026-08-10",
        "severity": 3,
        "source": "firms"
      }
    },
    {
      "type": "Feature",
      "geometry": {
        "type": "Point",
        "coordinates": [
          30.5238,
          50.4547
        ]
      },
      "properties": {
        "title": "Russian strike - Kyiv (MOD claim)",
        "summary": "Sputnik: Russia claims strikes on military enterprises, logistics in Kyiv.",
        "date": "2026-08-11",
        "severity": 7,
        "source": "acled"
      }
    },
    {
      "type": "Feature",
      "geometry": {
        "type": "Point",
        "coordinates": [
          35.1396,
          47.8388
        ]
      },
      "properties": {
        "title": "Russian strike - Zaporizhzhia (MOD claim)",
        "summary": "Russian MOD claims strikes on Zaporizhzhia logistics centers.",
        "date": "2026-08-11",
        "severity": 6,
        "source": "acled"
      }
    },
    {
      "type": "Feature",
      "geometry": {
        "type": "Point",
        "coordinates": [
          4.5624,
          7.5629
        ]
      },
      "properties": {
        "title": "Osun election violence - Nigeria",
        "summary": "IPAC warns politicians: 'You can't kill people you want to govern.' Pre-election tensions.",
        "date": "2026-08-11",
        "severity": 4,
        "source": "acled"
      }
    },
    {
      "type": "Feature",
      "geometry": {
        "type": "Point",
        "coordinates": [
          112.0,
          28.0
        ]
      },
      "properties": {
        "title": "Typhoon Dolphin - Central China",
        "summary": "Typhoon Dolphin moves inland, threatens central China with floods.",
        "date": "2026-08-11",
        "severity": 6,
        "source": "gdacs"
      }
    },
    {
      "type": "Feature",
      "geometry": {
        "type": "Point",
        "coordinates": [
          56.5,
          26.5
        ]
      },
      "properties": {
        "title": "Strait of Hormuz - ongoing blockade",
        "summary": "Polymarket: 3% chance normal traffic by Aug 31. WTI up 6.73%.",
        "date": "2026-08-11",
        "severity": 9,
        "source": "gdacs"
      }
    }
  ]
}