{
  "type": "FeatureCollection",
  "features": [
    {
      "type": "Feature",
      "geometry": {
        "type": "Point",
        "coordinates": [
          33.3852,
          47.9105
        ]
      },
      "properties": {
        "title": "Kryvyi Rih mall double-tap drone strike",
        "summary": "14 killed, 100+ wounded in Russian double-tap drone strike on Sunny Gallery mall, Zelensky's hometown",
        "date": "2026-08-21",
        "severity": 9,
        "source": "acled"
      }
    },
    {
      "type": "Feature",
      "geometry": {
        "type": "Point",
        "coordinates": [
          50.4467,
          53.0163
        ]
      },
      "properties": {
        "title": "Ukraine struck Ozon warehouse + Novokuybyshevsk refinery",
        "summary": "Ukrainian drones hit 135k sqm Ozon logistics hub in Chapayevsk and Novokuybyshevsk oil refinery (8.8Mt/yr capacity)",
        "date": "2026-08-22",
        "severity": 7,
        "source": "acled"
      }
    },
    {
      "type": "Feature",
      "geometry": {
        "type": "Point",
        "coordinates": [
          28.6766,
          45.9432
        ]
      },
      "properties": {
        "title": "Russia struck Ukrainian-Moldovan border crossing",
        "summary": "Strike on Tabaky checkpoint, later reopened",
        "date": "2026-08-20",
        "severity": 6,
        "source": "acled"
      }
    },
    {
      "type": "Feature",
      "geometry": {
        "type": "Point",
        "coordinates": [
          31.1,
          44.3
        ]
      },
      "properties": {
        "title": "Romanian F-16 destroys Russian sea drone near Neptun Deep",
        "summary": "Explosive-laden maritime drone destroyed 80nm east of Constanta, near key 2027 gas project",
        "date": "2026-08-20",
        "severity": 6,
        "source": "firms"
      }
    },
    {
      "type": "Feature",
      "geometry": {
        "type": "Point",
        "coordinates": [
          95.5833,
          21.9167
        ]
      },
      "properties": {
        "title": "Myanmar Sagaing monastery airstrike",
        "summary": "Myanmar junta jet bombed Swel Le Oh village monastery, 14 killed, 20 wounded during Buddhist Lent retreat",
        "date": "2026-08-21",
        "severity": 7,
        "source": "acled"
      }
    },
    {
      "type": "Feature",
      "geometry": {
        "type": "Point",
        "coordinates": [
          -170.7,
          28.1
        ]
      },
      "properties": {
        "title": "Tropical Storm Lala",
        "summary": "Active tropical storm in Pacific",
        "date": "2026-08-22",
        "severity": 4,
        "source": "gdacs"
      }
    },
    {
      "type": "Feature",
      "geometry": {
        "type": "Point",
        "coordinates": [
          146.5,
          17.9
        ]
      },
      "properties": {
        "title": "Typhoon Saudel",
        "summary": "Active typhoon near Mariana Islands",
        "date": "2026-08-22",
        "severity": 6,
        "source": "gdacs"
      }
    },
    {
      "type": "Feature",
      "geometry": {
        "type": "Point",
        "coordinates": [
          113.9131,
          22.3067
        ]
      },
      "properties": {
        "title": "China AF12 VIP flight at Hong Kong",
        "summary": "Chinese Air Force VIP aircraft (7b1008) on ground at HK International Airport",
        "date": "2026-08-22",
        "severity": 2,
        "source": "firms"
      }
    },
    {
      "type": "Feature",
      "geometry": {
        "type": "Point",
        "coordinates": [
          -35.0,
          -57.0
        ]
      },
      "properties": {
        "title": "GDACS M6.2 Scotia Sea earthquake",
        "summary": "Green-level earthquake M6.2, depth 10km",
        "date": "2026-08-22",
        "severity": 3,
        "source": "usgs"
      }
    }
  ]
}