{
  "type": "FeatureCollection",
  "features": [
    {
      "type": "Feature",
      "geometry": {
        "type": "Point",
        "coordinates": [
          36.4703,
          45.3354
        ]
      },
      "properties": {
        "title": "Oil terminal fire at Kerch port",
        "summary": "Ukrainian drone strike ignites oil terminal at JSC AEGAZ-Terminal in Kerch, Crimea",
        "date": "2026-07-07",
        "severity": 7,
        "source": "firms"
      }
    },
    {
      "type": "Feature",
      "geometry": {
        "type": "Point",
        "coordinates": [
          36.22,
          49.985
        ]
      },
      "properties": {
        "title": "Drone strike - Kharkiv Kyivskyi district",
        "summary": "1 person wounded by drone strike in Kyivskyi district of Kharkiv",
        "date": "2026-07-07",
        "severity": 4,
        "source": "acled"
      }
    },
    {
      "type": "Feature",
      "geometry": {
        "type": "Point",
        "coordinates": [
          36.88,
          47.97
        ]
      },
      "properties": {
        "title": "Clashes - Oleksandrivka direction",
        "summary": "Clashes near Oleksandrohrad, Sichneve, Ternove, Kalynivske (Dnipropetrovsk Oblast)",
        "date": "2026-07-07",
        "severity": 6,
        "source": "acled"
      }
    },
    {
      "type": "Feature",
      "geometry": {
        "type": "Point",
        "coordinates": [
          37.61,
          48.87
        ]
      },
      "properties": {
        "title": "Clashes - Sloviansk direction",
        "summary": "Clashes near Kryva Luka, Ray-Oleksandrivka, Riznykivka (Donetsk Oblast)",
        "date": "2026-07-07",
        "severity": 6,
        "source": "acled"
      }
    },
    {
      "type": "Feature",
      "geometry": {
        "type": "Point",
        "coordinates": [
          36.588,
          50.597
        ]
      },
      "properties": {
        "title": "Missile strike - Belgorod",
        "summary": "Ukrainian missile strike reported in Belgorod, Russia",
        "date": "2026-07-07",
        "severity": 5,
        "source": "acled"
      }
    },
    {
      "type": "Feature",
      "geometry": {
        "type": "Point",
        "coordinates": [
          37.62,
          55.75
        ]
      },
      "properties": {
        "title": "Missile threat - Moscow region",
        "summary": "Missile threat alert declared in Moscow region",
        "date": "2026-07-07",
        "severity": 5,
        "source": "acled"
      }
    },
    {
      "type": "Feature",
      "geometry": {
        "type": "Point",
        "coordinates": [
          30.52,
          50.45
        ]
      },
      "properties": {
        "title": "Kyiv missile strike - 28 killed",
        "summary": "Russian ballistic missile strike on Kyiv area kills 28 people; air defense unable to intercept",
        "date": "2026-07-07",
        "severity": 9,
        "source": "acled"
      }
    },
    {
      "type": "Feature",
      "geometry": {
        "type": "Point",
        "coordinates": [
          56.9,
          24.5
        ]
      },
      "properties": {
        "title": "Tanker struck in Strait of Hormuz",
        "summary": "Commercial tanker set ablaze after hit by projectile in Strait of Hormuz off coast of Oman",
        "date": "2026-07-07",
        "severity": 8,
        "source": "acled"
      }
    },
    {
      "type": "Feature",
      "geometry": {
        "type": "Point",
        "coordinates": [
          53.5,
          29.0
        ]
      },
      "properties": {
        "title": "US CENTCOM strikes Iran - 80+ targets",
        "summary": "US strikes Iranian air defense, C2, radar, coastal missile batteries, and 60+ IRGC vessels",
        "date": "2026-07-07",
        "severity": 10,
        "source": "acled"
      }
    },
    {
      "type": "Feature",
      "geometry": {
        "type": "Point",
        "coordinates": [
          34.39,
          31.35
        ]
      },
      "properties": {
        "title": "Gaza: Hamas transfers civil administration",
        "summary": "Hamas announces resignation of civil administration; 1,000+ killed since Oct 2025 ceasefire",
        "date": "2026-07-06",
        "severity": 7,
        "source": "acled"
      }
    },
    {
      "type": "Feature",
      "geometry": {
        "type": "Point",
        "coordinates": [
          36.31,
          33.51
        ]
      },
      "properties": {
        "title": "Damascus bomb explosions during Macron visit",
        "summary": "Two bombs explode near Macron's hotel during landmark France-Syria summit; 18 wounded",
        "date": "2026-07-07",
        "severity": 6,
        "source": "acled"
      }
    },
    {
      "type": "Feature",
      "geometry": {
        "type": "Point",
        "coordinates": [
          163.85,
          -20.27
        ]
      },
      "properties": {
        "title": "M5.8 Earthquake - Vanuatu",
        "summary": "M5.8 quake, 10K people in MMI IV zone, Green alert",
        "date": "2026-07-08",
        "severity": 3,
        "source": "usgs"
      }
    },
    {
      "type": "Feature",
      "geometry": {
        "type": "Point",
        "coordinates": [
          154.89,
          -61.78
        ]
      },
      "properties": {
        "title": "M5.5 Earthquake - Balleny Islands",
        "summary": "M5.5 quake in uninhabited Balleny Islands region",
        "date": "2026-07-08",
        "severity": 2,
        "source": "usgs"
      }
    }
  ]
}