{
  "type": "FeatureCollection",
  "features": [
    {"type":"Feature","geometry":{"type":"Point","coordinates":[148.52,-3.22]},"properties":{"title":"M6.4 Earthquake - Papua New Guinea","summary":"Significant earthquake 191km SE of Lorengau, Papua New Guinea","date":"2026-07-13","severity":5,"source":"usgs"}},
    {"type":"Feature","geometry":{"type":"Point","coordinates":[36.47,45.36]},"properties":{"title":"Kerch Port Fire - Ukraine Strike","summary":"Oil terminal fire at Kerch port following Ukrainian drone/naval drone strike. Russia closed Kerch Strait.","date":"2026-07-13","severity":8,"source":"acled"}},
    {"type":"Feature","geometry":{"type":"Point","coordinates":[37.83,47.14]},"properties":{"title":"Sea of Azov Shadow Fleet Strikes","summary":"Ukraine hit 90 Russian shadow fleet vessels July 6-12 in sustained operation. 32+ tankers confirmed damaged.","date":"2026-07-12","severity":9,"source":"acled"}},
    {"type":"Feature","geometry":{"type":"Point","coordinates":[73.37,54.99]},"properties":{"title":"Omsk Refinery Strike - Ukraine Drone","summary":"Ukrainian long-range drone hit Omsk refinery, 2,500km from Ukrainian border. Contributed to Russia fuel crisis.","date":"2026-07-06","severity":8,"source":"acled"}},
    {"type":"Feature","geometry":{"type":"Point","coordinates":[36.59,50.60]},"properties":{"title":"Belgorod Missile Strike","summary":"Ukraine struck Belgorod oil depot near city. 1 reported killed.","date":"2026-07-07","severity":6,"source":"acled"}},
    {"type":"Feature","geometry":{"type":"Point","coordinates":[30.52,50.43]},"properties":{"title":"Kyiv Area Strike - 28 Killed","summary":"Major Russian missile/drone salvo killed 28 in Kyiv area (Vyshneve). Russian attack exposed air defence strain.","date":"2026-07-06","severity":9,"source":"acled"}},
    {"type":"Feature","geometry":{"type":"Point","coordinates":[36.28,33.51]},"properties":{"title":"Damascus Explosions During Macron Visit","summary":"Two IED explosions near Macron's hotel. 18 injured. No group claimed. Macron unharmed, met President al-Sharaa.","date":"2026-07-07","severity":6,"source":"acled"}},
    {"type":"Feature","geometry":{"type":"Point","coordinates":[56.27,27.19]},"properties":{"title":"US Strikes on Bandar Abbas, Iran","summary":"US military hit 90 targets along Iran's coastline in resumed strikes after ceasefire breakdown.","date":"2026-07-08","severity":9,"source":"acled"}},
    {"type":"Feature","geometry":{"type":"Point","coordinates":[57.31,35.69]},"properties":{"title":"Khamenei Burial - Mashhad","summary":"Ali Khamenei buried at Imam Reza shrine after assassination (Feb 28, 2026). Week-long funeral drew 15M+ people.","date":"2026-07-09","severity":7,"source":"acled"}},
    {"type":"Feature","geometry":{"type":"Point","coordinates":[32.86,39.93]},"properties":{"title":"NATO Ankara Summit","summary":"NATO heads of state pledged EUR 70B for Ukraine 2026, endorsed continued support for 2027. Rutte: 'NATO delivers.'","date":"2026-07-07","severity":6,"source":"acled"}},
    {"type":"Feature","geometry":{"type":"Point","coordinates":[121.15,29.00]},"properties":{"title":"Typhoon Bavi Landfall - Zhejiang, China","summary":"Super Typhoon Bavi (peak 205km/h) made landfall near Yuhuan, Zhejiang on July 11. 1.7M evacuated.","date":"2026-07-11","severity":7,"source":"gdacs"}},
    {"type":"Feature","geometry":{"type":"Point","coordinates":[36.82,47.50]},"properties":{"title":"Zaporizhzhia Explosion","summary":"Explosion reported in Zaporizhzhia city. Ongoing Russian shelling of surrounding region.","date":"2026-07-12","severity":6,"source":"acled"}},
    {"type":"Feature","geometry":{"type":"Point","coordinates":[-118.93,34.81]},"properties":{"title":"M4.1 Earthquake - Frazier Park CA","summary":"M4.1 earthquake 2km ESE of Frazier Park, California","date":"2026-07-13","severity":2,"source":"usgs"}}
  ]
}
