{
  "type": "FeatureCollection",
  "features": [
    {
      "type": "Feature",
      "geometry": {"type": "Point", "coordinates": [30.5238, 50.4501]},
      "properties": {"title": "Russia missile/drone strike on Kyiv - Podil district", "summary": "Cruise missile hit 9-story residential building in Podil, Kyiv. 7 killed, 24 wounded. Kalibr from sea + strategic bombers.", "date": "2026-07-06", "severity": 8, "source": "acled"}
    },
    {
      "type": "Feature",
      "geometry": {"type": "Point", "coordinates": [30.3209, 50.3050]},
      "properties": {"title": "Russia strike on Kyivshchyna oblast", "summary": "1 killed, 10 wounded in Bucha-area attack. Rail movement restricted.", "date": "2026-07-06", "severity": 6, "source": "acled"}
    },
    {
      "type": "Feature",
      "geometry": {"type": "Point", "coordinates": [33.5224, 44.6166]},
      "properties": {"title": "Ukraine drone strike on Sevastopol", "summary": "Drone strike left occupied Sevastopol without electricity.", "date": "2026-07-06", "severity": 5, "source": "acled"}
    },
    {
      "type": "Feature",
      "geometry": {"type": "Point", "coordinates": [30.7233, 46.4775]},
      "properties": {"title": "Russian drone strike on Odesa", "summary": "Russian UAV attack on Odesa, buildings damaged, one wounded.", "date": "2026-07-05", "severity": 4, "source": "acled"}
    },
    {
      "type": "Feature",
      "geometry": {"type": "Point", "coordinates": [-66.9036, 10.4806]},
      "properties": {"title": "Venezuela M7.5/7.2 earthquake doublet - humanitarian crisis", "summary": "June 24 earthquake, 2595+ dead, 50,000 unaccounted. 26 countries deployed USAR teams.", "date": "2026-06-24", "severity": 9, "source": "usgs"}
    },
    {
      "type": "Feature",
      "geometry": {"type": "Point", "coordinates": [51.3890, 35.6892]},
      "properties": {"title": "Khamenei funeral - Tehran", "summary": "Six-day funeral for slain Supreme Leader Ali Khamenei. New leader Mojtaba absent. Iran tightening Hormuz control.", "date": "2026-07-06", "severity": 8, "source": "gdacs"}
    },
    {
      "type": "Feature",
      "geometry": {"type": "Point", "coordinates": [-2.1034, 17.5707]},
      "properties": {"title": "Tuareg claim Russian African Corps helicopter shot down - Mali", "summary": "CMA/Tuareg rebels claim shootdown of Russian rotary-wing aircraft, push toward strategic town.", "date": "2026-07-06", "severity": 6, "source": "acled"}
    },
    {
      "type": "Feature",
      "geometry": {"type": "Point", "coordinates": [121.0244, 14.5995]},
      "properties": {"title": "Philippines M5.8 earthquake", "summary": "M5.8 at 35km depth, 270,000 in MMI>=IV zone. Green GDACS status.", "date": "2026-07-06", "severity": 4, "source": "usgs"}
    },
    {
      "type": "Feature",
      "geometry": {"type": "Point", "coordinates": [15.0, 37.7483]},
      "properties": {"title": "Etna volcanic eruption - ongoing", "summary": "Etna emitting ash clouds, Green aviation alert. Southern Mediterranean air lanes affected.", "date": "2026-07-06", "severity": 3, "source": "gdacs"}
    },
    {
      "type": "Feature",
      "geometry": {"type": "Point", "coordinates": [104.1596, 31.4700]},
      "properties": {"title": "Sichuan earthquake swarm M5.0 x3 - Mianzhu, Deyang", "summary": "Three M5.0 earthquakes near Mianzhu July 5, near 2008 Wenchuan area. Adjacent to Sichuan industrial corridor.", "date": "2026-07-05", "severity": 4, "source": "usgs"}
    }
  ]
}
