{
  "type": "FeatureCollection",
  "metadata": {
    "generated": "2026-08-02",
    "sources": ["ACLED", "USGS", "GDACS", "FIRMS", "lake/sections"],
    "fallback": true,
    "note": "Events derived from 2026-08-01 lake data; today's bundle zip unavailable"
  },
  "features": [
    {
      "type": "Feature",
      "properties": {
        "type": "conflict",
        "label": "Kyiv ballistic missile strike",
        "fatalities": 9,
        "injuries": 33,
        "date": "2026-08-01",
        "source": "russian_internal/ukrainian_internal",
        "watch_area": "Israel-Iran/Russia-Ukraine",
        "severity": "high"
      },
      "geometry": { "type": "Point", "coordinates": [30.5234, 50.4501] }
    },
    {
      "type": "Feature",
      "properties": {
        "type": "infrastructure_strike",
        "label": "Ukraine strikes Bashneft refineries, Ufa",
        "date": "2026-08-01",
        "source": "russian_internal",
        "watch_area": "Russia Oil Sanctions",
        "severity": "high",
        "note": "3 refineries struck ~1,600 km from front line"
      },
      "geometry": { "type": "Point", "coordinates": [55.9678, 54.7351] }
    },
    {
      "type": "Feature",
      "properties": {
        "type": "maritime_strike",
        "label": "Ukraine sinks Fesco/Rosatom container ship Yanina, Black Sea",
        "fatalities": 0,
        "crew_rescued": 17,
        "date": "2026-08-01",
        "source": "russian_internal",
        "watch_area": "Russia Oil Sanctions",
        "severity": "high"
      },
      "geometry": { "type": "Point", "coordinates": [32.5, 43.5] }
    },
    {
      "type": "Feature",
      "properties": {
        "type": "terrorism",
        "label": "Balzi Rossi restaurant bombing, Moscow (targets Gen. Chaiko VKS birthday)",
        "fatalities": 3,
        "injuries": 21,
        "date": "2026-08-01",
        "source": "russian_internal",
        "watch_area": "Russia/CIS",
        "severity": "high"
      },
      "geometry": { "type": "Point", "coordinates": [37.6173, 55.7558] }
    },
    {
      "type": "Feature",
      "properties": {
        "type": "conflict",
        "label": "Gaza/Lebanon hostilities (est. fatalities)",
        "fatalities_est": 12,
        "date": "2026-08-01",
        "source": "foreign_news",
        "watch_area": "Israel-Iran-Hezbollah Axis",
        "severity": "high"
      },
      "geometry": { "type": "Point", "coordinates": [34.4641, 31.5] }
    },
    {
      "type": "Feature",
      "properties": {
        "type": "conflict",
        "label": "Sudan ongoing conflict (daily fatalities)",
        "fatalities_24h": 35,
        "date": "2026-08-01",
        "source": "foreign_news/reliefweb",
        "watch_area": "Sahel Corridor",
        "severity": "high"
      },
      "geometry": { "type": "Point", "coordinates": [32.5599, 15.5007] }
    },
    {
      "type": "Feature",
      "properties": {
        "type": "disease_outbreak",
        "label": "DRC Ebola outbreak (North Kivu/Ituri)",
        "cumulative_cases": 3605,
        "cumulative_deaths": 1587,
        "date": "2026-08-01",
        "source": "promed/reliefweb",
        "watch_area": "Critical Minerals / DRC",
        "severity": "high"
      },
      "geometry": { "type": "Point", "coordinates": [29.2, 0.7] }
    },
    {
      "type": "Feature",
      "properties": {
        "type": "natural_disaster",
        "label": "Pakistan avalanche (Hunza district)",
        "fatalities": 10,
        "date": "2026-08-01",
        "source": "foreign_news",
        "watch_area": "S. Asia",
        "severity": "medium"
      },
      "geometry": { "type": "Point", "coordinates": [74.65, 36.32] }
    },
    {
      "type": "Feature",
      "properties": {
        "type": "vip_flight",
        "label": "JAF7XM (Belgium) near Ceuta/Morocco corridor",
        "altitude_m": 5539,
        "date": "2026-08-01",
        "source": "vip_flights",
        "severity": "low"
      },
      "geometry": { "type": "Point", "coordinates": [-2.4701, 35.206] }
    },
    {
      "type": "Feature",
      "properties": {
        "type": "vip_flight",
        "label": "NCR826 (US) near Armenia/Azerbaijan/Georgia border",
        "altitude_m": 11582,
        "date": "2026-08-01",
        "source": "vip_flights",
        "severity": "medium"
      },
      "geometry": { "type": "Point", "coordinates": [45.75, 40.79] }
    },
    {
      "type": "Feature",
      "properties": {
        "type": "vip_flight",
        "label": "JAF9EG (Belgium) near Strait of Gibraltar",
        "date": "2026-08-01",
        "source": "vip_flights",
        "severity": "low"
      },
      "geometry": { "type": "Point", "coordinates": [-5.87, 36.73] }
    },
    {
      "type": "Feature",
      "properties": {
        "type": "cyber",
        "label": "CISA KEV: Cisco FMC hard-coded password (CVE-2026-20316) deadline TODAY",
        "cve": "CVE-2026-20316",
        "deadline": "2026-08-01",
        "date": "2026-08-01",
        "source": "cisa_kev",
        "severity": "high"
      },
      "geometry": { "type": "Point", "coordinates": [-77.0369, 38.9072] }
    },
    {
      "type": "Feature",
      "properties": {
        "type": "procurement",
        "label": "DOE: Sandia National Labs contract ($42.8B, NTESS)",
        "value_usd": 42774168231,
        "date": "2026-08-01",
        "source": "sanctions_procurement",
        "severity": "medium"
      },
      "geometry": { "type": "Point", "coordinates": [-106.65, 34.95] }
    },
    {
      "type": "Feature",
      "properties": {
        "type": "procurement",
        "label": "DOE: Lawrence Livermore National Lab contract ($41.5B, LLNL)",
        "value_usd": 41457264329,
        "date": "2026-08-01",
        "source": "sanctions_procurement",
        "severity": "medium"
      },
      "geometry": { "type": "Point", "coordinates": [-121.7, 37.69] }
    },
    {
      "type": "Feature",
      "properties": {
        "type": "procurement",
        "label": "DOE: Los Alamos National Lab contract ($35.1B, Triad National Security)",
        "value_usd": 35144939584,
        "date": "2026-08-01",
        "source": "sanctions_procurement",
        "severity": "medium"
      },
      "geometry": { "type": "Point", "coordinates": [-106.32, 35.88] }
    }
  ]
}
