{
  "type": "FeatureCollection",
  "features": [
    {
      "type": "Feature",
      "geometry": {
        "type": "Point",
        "coordinates": [
          142.0,
          54.0
        ]
      },
      "properties": {
        "title": "M5.9 Earthquake - Russia",
        "summary": "Green alert. Depth 75.8km, few affected.",
        "date": "2026-07-03",
        "severity": 2,
        "source": "gdacs"
      }
    },
    {
      "type": "Feature",
      "geometry": {
        "type": "Point",
        "coordinates": [
          136.5,
          35.5
        ]
      },
      "properties": {
        "title": "M6.1 Earthquake - Japan",
        "summary": "Green alert. Depth 10km, 560k in MMI IV.",
        "date": "2026-07-03",
        "severity": 3,
        "source": "gdacs"
      }
    },
    {
      "type": "Feature",
      "geometry": {
        "type": "Point",
        "coordinates": [
          119.5,
          -0.5
        ]
      },
      "properties": {
        "title": "M6.2 Earthquake - Indonesia",
        "summary": "Green alert. Depth 120km, 720k in MMI IV.",
        "date": "2026-07-03",
        "severity": 3,
        "source": "gdacs"
      }
    },
    {
      "type": "Feature",
      "geometry": {
        "type": "Point",
        "coordinates": [
          107.5,
          20.0
        ]
      },
      "properties": {
        "title": "Tropical Cyclone MAYSAK-26 - Vietnam/China/Laos",
        "summary": "Orange alert. Category 1 winds, 16.4M in Tropical Storm range.",
        "date": "2026-07-04",
        "severity": 7,
        "source": "gdacs"
      }
    },
    {
      "type": "Feature",
      "geometry": {
        "type": "Point",
        "coordinates": [
          17.5,
          -11.5
        ]
      },
      "properties": {
        "title": "Forest Fire - Angola",
        "summary": "Green notification.",
        "date": "2026-07-04",
        "severity": 1,
        "source": "gdacs"
      }
    },
    {
      "type": "Feature",
      "geometry": {
        "type": "Point",
        "coordinates": [
          31.0,
          48.5
        ]
      },
      "properties": {
        "title": "Flood Alert - Ukraine",
        "summary": "Green flood alert, ongoing.",
        "date": "2026-07-04",
        "severity": 2,
        "source": "gdacs"
      }
    },
    {
      "type": "Feature",
      "geometry": {
        "type": "Point",
        "coordinates": [
          -8.0,
          39.5
        ]
      },
      "properties": {
        "title": "Forest Fires - Portugal",
        "summary": "Green fire notification.",
        "date": "2026-07-03",
        "severity": 1,
        "source": "gdacs"
      }
    },
    {
      "type": "Feature",
      "geometry": {
        "type": "Point",
        "coordinates": [
          151.5,
          12.5
        ]
      },
      "properties": {
        "title": "Super Typhoon Bavi",
        "summary": "Cat4+ typhoon, 185km/h sustained winds. Tracking toward Guam/Northern Marianas by Monday.",
        "date": "2026-07-04",
        "severity": 8,
        "source": "usgs"
      }
    },
    {
      "type": "Feature",
      "geometry": {
        "type": "Point",
        "coordinates": [
          -128.0,
          19.1
        ]
      },
      "properties": {
        "title": "Tropical Storm Douglas",
        "summary": "Eastern Pacific tropical storm, not threatening land.",
        "date": "2026-07-03",
        "severity": 3,
        "source": "usgs"
      }
    }
  ]
}