{
  "type": "FeatureCollection",
  "features": [
    {
      "type": "Feature",
      "geometry": {
        "type": "Point",
        "coordinates": [
          48.18,
          30.98
        ]
      },
      "properties": {
        "title": "Darkhovin Nuclear Plant Strike",
        "summary": "CENTCOM strike on Darkhovin NPP construction site (Iran claims). IAEA investigating. No nuclear material confirmed at site.",
        "date": "2026-07-19",
        "severity": 9,
        "source": "acled"
      }
    },
    {
      "type": "Feature",
      "geometry": {
        "type": "Point",
        "coordinates": [
          56.27,
          26.96
        ]
      },
      "properties": {
        "title": "Qeshm Island Explosions",
        "summary": "Multiple explosions reported on Qeshm Island, Hormozgan Province. IRGC-linked Fars News Agency confirmed.",
        "date": "2026-07-19",
        "severity": 7,
        "source": "acled"
      }
    },
    {
      "type": "Feature",
      "geometry": {
        "type": "Point",
        "coordinates": [
          48.08,
          29.07
        ]
      },
      "properties": {
        "title": "IRGC Claim: Al-Ahmadi Port Strike",
        "summary": "IRGC claimed strike on US Navy fuel support pier, Kuwait Al-Ahmadi port. Regional govts had not confirmed damage.",
        "date": "2026-07-19",
        "severity": 8,
        "source": "acled"
      }
    },
    {
      "type": "Feature",
      "geometry": {
        "type": "Point",
        "coordinates": [
          50.66,
          25.92
        ]
      },
      "properties": {
        "title": "IRGC Claim: Sheikh Isa Air Base",
        "summary": "IRGC claimed strike on US aircraft positions at Sheikh Isa Air Base, Bahrain. Not independently confirmed.",
        "date": "2026-07-19",
        "severity": 8,
        "source": "acled"
      }
    },
    {
      "type": "Feature",
      "geometry": {
        "type": "Point",
        "coordinates": [
          35.14,
          47.84
        ]
      },
      "properties": {
        "title": "Russian KAB Strike - Zaporizhzhia",
        "summary": "Russian glide-bomb strike on Zaporizhzhia city: 2 killed, 42 wounded including 8 children. Residential buildings destroyed.",
        "date": "2026-07-19",
        "severity": 8,
        "source": "acled"
      }
    },
    {
      "type": "Feature",
      "geometry": {
        "type": "Point",
        "coordinates": [
          30.52,
          50.45
        ]
      },
      "properties": {
        "title": "Kyiv Air Alerts (Night 2)",
        "summary": "Ballistic missile threats triggered air alerts in Kyiv and multiple oblasts for second consecutive night.",
        "date": "2026-07-20",
        "severity": 6,
        "source": "acled"
      }
    },
    {
      "type": "Feature",
      "geometry": {
        "type": "Point",
        "coordinates": [
          36.67,
          45.35
        ]
      },
      "properties": {
        "title": "Crimean Bridge Closure",
        "summary": "Crimean Bridge reportedly closed again, social media reports of drone strikes on occupied Yalta.",
        "date": "2026-07-20",
        "severity": 6,
        "source": "acled"
      }
    },
    {
      "type": "Feature",
      "geometry": {
        "type": "Point",
        "coordinates": [
          31.5,
          45.8
        ]
      },
      "properties": {
        "title": "Russian Strike: MV Golden Leo",
        "summary": "Russian cruise missiles (Kh-59/69) struck Turkish grain carrier Golden Leo exiting Ukraine maritime corridor. 5 killed, 5 missing.",
        "date": "2026-07-19",
        "severity": 8,
        "source": "acled"
      }
    },
    {
      "type": "Feature",
      "geometry": {
        "type": "Point",
        "coordinates": [
          38.44,
          55.79
        ]
      },
      "properties": {
        "title": "Ukrainian Drone Strike - Elektrostal",
        "summary": "Large fire at Wildberries warehouse, Elektrostal, Moscow region after drone strikes.",
        "date": "2026-07-18",
        "severity": 6,
        "source": "firms"
      }
    },
    {
      "type": "Feature",
      "geometry": {
        "type": "Point",
        "coordinates": [
          -75.2,
          -10.6
        ]
      },
      "properties": {
        "title": "M5.5 Earthquake - Peru",
        "summary": "GDACS Orange alert. Magnitude 5.5, depth 10km. At least 6 dead.",
        "date": "2026-07-19",
        "severity": 6,
        "source": "usgs"
      }
    },
    {
      "type": "Feature",
      "geometry": {
        "type": "Point",
        "coordinates": [
          -59.5,
          7.5
        ]
      },
      "properties": {
        "title": "MV Barima Ferry Capsize - Guyana",
        "summary": "MV Barima (116 passengers + 17 crew) capsized off Guyana north coast. 50+ rescued, dozens missing including 15 children.",
        "date": "2026-07-19",
        "severity": 7,
        "source": "gdacs"
      }
    },
    {
      "type": "Feature",
      "geometry": {
        "type": "Point",
        "coordinates": [
          -118.8,
          48.4
        ]
      },
      "properties": {
        "title": "Washington State Wildfire - Nespelem",
        "summary": "Wildfire exploded to 72 sq miles threatening town of Nespelem. Cross-section high-confidence signal.",
        "date": "2026-07-19",
        "severity": 6,
        "source": "firms"
      }
    },
    {
      "type": "Feature",
      "geometry": {
        "type": "Point",
        "coordinates": [
          6.73,
          0.34
        ]
      },
      "properties": {
        "title": "S\u00e3o Tom\u00e9 Presidential Election",
        "summary": "Voting underway July 19. Five candidates. Incumbent Carlos Vila Nova favored. Results pending Monday.",
        "date": "2026-07-19",
        "severity": 4,
        "source": "acled"
      }
    },
    {
      "type": "Feature",
      "geometry": {
        "type": "Point",
        "coordinates": [
          37.0,
          31.5
        ]
      },
      "properties": {
        "title": "2 US Service Members KIA - Jordan",
        "summary": "Two US service members killed in action in Jordan on July 17. CENTCOM confirmed via press release.",
        "date": "2026-07-17",
        "severity": 8,
        "source": "acled"
      }
    },
    {
      "type": "Feature",
      "geometry": {
        "type": "Point",
        "coordinates": [
          35.5,
          33.5
        ]
      },
      "properties": {
        "title": "Lebanon: Israel Withdrawal Negotiations",
        "summary": "Lebanese president says work underway to secure Israeli withdrawal and deploy Lebanese army to border. Large explosion heard in southern Lebanon.",
        "date": "2026-07-19",
        "severity": 5,
        "source": "acled"
      }
    },
    {
      "type": "Feature",
      "geometry": {
        "type": "Point",
        "coordinates": [
          44.2,
          15.4
        ]
      },
      "properties": {
        "title": "Houthi Ballistic Missiles - Yemen",
        "summary": "Houthi missiles targeted Qatar and Saudi Arabia; Qatar and KSA air defenses intercepted. Earlier strikes on Sanaa airport area.",
        "date": "2026-07-14",
        "severity": 6,
        "source": "acled"
      }
    },
    {
      "type": "Feature",
      "geometry": {
        "type": "Point",
        "coordinates": [
          47.5,
          24.5
        ]
      },
      "properties": {
        "title": "Iranian Missile - Prince Sultan AB (claimed)",
        "summary": "Iran claimed ballistic missile targeting of Prince Sultan Air Base, Al-Kharj, south of Riyadh. Not independently confirmed.",
        "date": "2026-07-17",
        "severity": 7,
        "source": "acled"
      }
    }
  ]
}