{"type": "FeatureCollection", "features": [{"type": "Feature", "geometry": {"type": "Point", "coordinates": [-176.6452, -28.5616]}, "properties": {"title": "M 5.4 - Kermadec Islands region", "summary": "M5.4 \u00b7 Kermadec Islands region \u00b7 depth 10 km", "date": "2026-09-04", "severity": 8, "source": "usgs"}}, {"type": "Feature", "geometry": {"type": "Point", "coordinates": [109.0409, -7.9867]}, "properties": {"title": "M 5.2 - 28 km S of Cilacap, Indonesia", "summary": "M5.2 \u00b7 28 km S of Cilacap, Indonesia \u00b7 depth 10 km", "date": "2026-09-04", "severity": 7, "source": "usgs"}}, {"type": "Feature", "geometry": {"type": "Point", "coordinates": [99.0453, 1.3758]}, "properties": {"title": "M 5.1 - 25 km W of Padangsidempuan, Indonesia", "summary": "M5.1 \u00b7 25 km W of Padangsidempuan, Indonesia \u00b7 depth 121.712 km", "date": "2026-09-04", "severity": 7, "source": "usgs"}}, {"type": "Feature", "geometry": {"type": "Point", "coordinates": [-26.1632, -56.1536]}, "properties": {"title": "M 5.0 - South Sandwich Islands region", "summary": "M5.0 \u00b7 South Sandwich Islands region \u00b7 depth 10 km", "date": "2026-09-04", "severity": 7, "source": "usgs"}}, {"type": "Feature", "geometry": {"type": "Point", "coordinates": [176.3482, 51.9555]}, "properties": {"title": "M 5.0 - 236 km ESE of Attu Station, Alaska", "summary": "M5.0 \u00b7 236 km ESE of Attu Station, Alaska \u00b7 depth 10 km \u00b7 TSUNAMI", "date": "2026-09-04", "severity": 7, "source": "usgs"}}, {"type": "Feature", "geometry": {"type": "Point", "coordinates": [33.77642, 46.78014]}, "properties": {"title": "[FIRMS] thermal anomaly 46.780, 33.776 (FRP 197.47 MW, conf high)", "summary": "VIIRS S-NPP NRT, sat N, acquired 2026-09-04 1026Z, FRP 197.47 MW", "date": "2026-09-04", "severity": 9, "source": "firms"}}, {"type": "Feature", "geometry": {"type": "Point", "coordinates": [32.29917, 46.22077]}, "properties": {"title": "[FIRMS] thermal anomaly 46.221, 32.299 (FRP 86.95 MW, conf nominal)", "summary": "VIIRS S-NPP NRT, sat N, acquired 2026-09-03 1043Z, FRP 86.95 MW", "date": "2026-09-03", "severity": 4, "source": "firms"}}, {"type": "Feature", "geometry": {"type": "Point", "coordinates": [23.27268, 44.23994]}, "properties": {"title": "[FIRMS] thermal anomaly 44.240, 23.273 (FRP 81.08 MW, conf nominal)", "summary": "VIIRS S-NPP NRT, sat N, acquired 2026-09-03 1043Z, FRP 81.08 MW", "date": "2026-09-03", "severity": 4, "source": "firms"}}, {"type": "Feature", "geometry": {"type": "Point", "coordinates": [33.76913, 46.78247]}, "properties": {"title": "[FIRMS] thermal anomaly 46.782, 33.769 (FRP 78.04 MW, conf nominal)", "summary": "VIIRS S-NPP NRT, sat N, acquired 2026-09-04 1026Z, FRP 78.04 MW", "date": "2026-09-04", "severity": 3, "source": "firms"}}, {"type": "Feature", "geometry": {"type": "Point", "coordinates": [33.95838, 46.72424]}, "properties": {"title": "[FIRMS] thermal anomaly 46.724, 33.958 (FRP 73.67 MW, conf high)", "summary": "VIIRS S-NPP NRT, sat N, acquired 2026-09-04 1026Z, FRP 73.67 MW", "date": "2026-09-04", "severity": 3, "source": "firms"}}, {"type": "Feature", "geometry": {"type": "Point", "coordinates": [33.96414, 46.72538]}, "properties": {"title": "[FIRMS] thermal anomaly 46.725, 33.964 (FRP 73.67 MW, conf nominal)", "summary": "VIIRS S-NPP NRT, sat N, acquired 2026-09-04 1026Z, FRP 73.67 MW", "date": "2026-09-04", "severity": 3, "source": "firms"}}, {"type": "Feature", "geometry": {"type": "Point", "coordinates": [33.96271, 46.72886]}, "properties": {"title": "[FIRMS] thermal anomaly 46.729, 33.963 (FRP 66.91 MW, conf high)", "summary": "VIIRS S-NPP NRT, sat N, acquired 2026-09-04 1026Z, FRP 66.91 MW", "date": "2026-09-04", "severity": 3, "source": "firms"}}, {"type": "Feature", "geometry": {"type": "Point", "coordinates": [33.95695, 46.72773]}, "properties": {"title": "[FIRMS] thermal anomaly 46.728, 33.957 (FRP 66.91 MW, conf nominal)", "summary": "VIIRS S-NPP NRT, sat N, acquired 2026-09-04 1026Z, FRP 66.91 MW", "date": "2026-09-04", "severity": 3, "source": "firms"}}, {"type": "Feature", "geometry": {"type": "Point", "coordinates": [33.96127, 46.73234]}, "properties": {"title": "[FIRMS] thermal anomaly 46.732, 33.961 (FRP 66.91 MW, conf nominal)", "summary": "VIIRS S-NPP NRT, sat N, acquired 2026-09-04 1026Z, FRP 66.91 MW", "date": "2026-09-04", "severity": 3, "source": "firms"}}, {"type": "Feature", "geometry": {"type": "Point", "coordinates": [33.95552, 46.7312]}, "properties": {"title": "[FIRMS] thermal anomaly 46.731, 33.956 (FRP 66.91 MW, conf nominal)", "summary": "VIIRS S-NPP NRT, sat N, acquired 2026-09-04 1026Z, FRP 66.91 MW", "date": "2026-09-04", "severity": 3, "source": "firms"}}, {"type": "Feature", "geometry": {"type": "Point", "coordinates": [33.97422, 46.73112]}, "properties": {"title": "[FIRMS] thermal anomaly 46.731, 33.974 (FRP 60.54 MW, conf nominal)", "summary": "VIIRS S-NPP NRT, sat N, acquired 2026-09-04 1026Z, FRP 60.54 MW", "date": "2026-09-04", "severity": 3, "source": "firms"}}, {"type": "Feature", "geometry": {"type": "Point", "coordinates": [33.96846, 46.72999]}, "properties": {"title": "[FIRMS] thermal anomaly 46.730, 33.968 (FRP 60.54 MW, conf nominal)", "summary": "VIIRS S-NPP NRT, sat N, acquired 2026-09-04 1026Z, FRP 60.54 MW", "date": "2026-09-04", "severity": 3, "source": "firms"}}, {"type": "Feature", "geometry": {"type": "Point", "coordinates": [33.97279, 46.7346]}, "properties": {"title": "[FIRMS] thermal anomaly 46.735, 33.973 (FRP 60.54 MW, conf nominal)", "summary": "VIIRS S-NPP NRT, sat N, acquired 2026-09-04 1026Z, FRP 60.54 MW", "date": "2026-09-04", "severity": 3, "source": "firms"}}, {"type": "Feature", "geometry": {"type": "Point", "coordinates": [23.27213, 44.24195]}, "properties": {"title": "[FIRMS] thermal anomaly 44.242, 23.272 (FRP 57.72 MW, conf nominal)", "summary": "VIIRS S-NPP NRT, sat N, acquired 2026-09-03 1043Z, FRP 57.72 MW", "date": "2026-09-03", "severity": 2, "source": "firms"}}, {"type": "Feature", "geometry": {"type": "Point", "coordinates": [34.09882, 46.74427]}, "properties": {"title": "[FIRMS] thermal anomaly 46.744, 34.099 (FRP 51.25 MW, conf high)", "summary": "VIIRS S-NPP NRT, sat N, acquired 2026-09-04 1026Z, FRP 51.25 MW", "date": "2026-09-04", "severity": 2, "source": "firms"}}, {"type": "Feature", "geometry": {"type": "Point", "coordinates": [34.10453, 46.74539]}, "properties": {"title": "[FIRMS] thermal anomaly 46.745, 34.105 (FRP 51.25 MW, conf nominal)", "summary": "VIIRS S-NPP NRT, sat N, acquired 2026-09-04 1026Z, FRP 51.25 MW", "date": "2026-09-04", "severity": 2, "source": "firms"}}, {"type": "Feature", "geometry": {"type": "Point", "coordinates": [33.77737, 46.78308]}, "properties": {"title": "[FIRMS] thermal anomaly 46.783, 33.777 (FRP 50.76 MW, conf nominal)", "summary": "VIIRS S-NPP NRT, sat N, acquired 2026-09-04 1026Z, FRP 50.76 MW", "date": "2026-09-04", "severity": 2, "source": "firms"}}, {"type": "Feature", "geometry": {"type": "Point", "coordinates": [33.77592, 46.78658]}, "properties": {"title": "[FIRMS] thermal anomaly 46.787, 33.776 (FRP 50.76 MW, conf nominal)", "summary": "VIIRS S-NPP NRT, sat N, acquired 2026-09-04 1026Z, FRP 50.76 MW", "date": "2026-09-04", "severity": 2, "source": "firms"}}, {"type": "Feature", "geometry": {"type": "Point", "coordinates": [33.77008, 46.78543]}, "properties": {"title": "[FIRMS] thermal anomaly 46.785, 33.770 (FRP 50.76 MW, conf nominal)", "summary": "VIIRS S-NPP NRT, sat N, acquired 2026-09-04 1026Z, FRP 50.76 MW", "date": "2026-09-04", "severity": 2, "source": "firms"}}, {"type": "Feature", "geometry": {"type": "Point", "coordinates": [33.49043, 47.13242]}, "properties": {"title": "[FIRMS] thermal anomaly 47.132, 33.490 (FRP 45.24 MW, conf nominal)", "summary": "VIIRS S-NPP NRT, sat N, acquired 2026-09-04 1026Z, FRP 45.24 MW", "date": "2026-09-04", "severity": 2, "source": "firms"}}, {"type": "Feature", "geometry": {"type": "Point", "coordinates": [30.12965, 45.97399]}, "properties": {"title": "[FIRMS] thermal anomaly 45.974, 30.130 (FRP 45.17 MW, conf nominal)", "summary": "VIIRS S-NPP NRT, sat N, acquired 2026-09-04 1026Z, FRP 45.17 MW", "date": "2026-09-04", "severity": 2, "source": "firms"}}, {"type": "Feature", "geometry": {"type": "Point", "coordinates": [31.57463, 52.66223]}, "properties": {"title": "[FIRMS] thermal anomaly 52.662, 31.575 (FRP 41.01 MW, conf nominal)", "summary": "VIIRS S-NPP NRT, sat N, acquired 2026-09-04 1028Z, FRP 41.01 MW", "date": "2026-09-04", "severity": 2, "source": "firms"}}, {"type": "Feature", "geometry": {"type": "Point", "coordinates": [33.93416, 46.97139]}, "properties": {"title": "[FIRMS] thermal anomaly 46.971, 33.934 (FRP 39.63 MW, conf nominal)", "summary": "VIIRS S-NPP NRT, sat N, acquired 2026-09-04 1026Z, FRP 39.63 MW", "date": "2026-09-04", "severity": 1, "source": "firms"}}, {"type": "Feature", "geometry": {"type": "Point", "coordinates": [33.9284, 46.97026]}, "properties": {"title": "[FIRMS] thermal anomaly 46.970, 33.928 (FRP 39.63 MW, conf nominal)", "summary": "VIIRS S-NPP NRT, sat N, acquired 2026-09-04 1026Z, FRP 39.63 MW", "date": "2026-09-04", "severity": 1, "source": "firms"}}, {"type": "Feature", "geometry": {"type": "Point", "coordinates": [33.77445, 46.77495]}, "properties": {"title": "[FIRMS] thermal anomaly 46.775, 33.774 (FRP 35.5 MW, conf nominal)", "summary": "VIIRS S-NPP NRT, sat N, acquired 2026-09-04 1026Z, FRP 35.5 MW", "date": "2026-09-04", "severity": 1, "source": "firms"}}, {"type": "Feature", "geometry": {"type": "Point", "coordinates": [33.773, 46.77844]}, "properties": {"title": "[FIRMS] thermal anomaly 46.778, 33.773 (FRP 35.5 MW, conf high)", "summary": "VIIRS S-NPP NRT, sat N, acquired 2026-09-04 1026Z, FRP 35.5 MW", "date": "2026-09-04", "severity": 1, "source": "firms"}}, {"type": "Feature", "geometry": {"type": "Point", "coordinates": [33.77884, 46.77958]}, "properties": {"title": "[FIRMS] thermal anomaly 46.780, 33.779 (FRP 35.5 MW, conf nominal)", "summary": "VIIRS S-NPP NRT, sat N, acquired 2026-09-04 1026Z, FRP 35.5 MW", "date": "2026-09-04", "severity": 1, "source": "firms"}}, {"type": "Feature", "geometry": {"type": "Point", "coordinates": [33.85199, 46.85545]}, "properties": {"title": "[FIRMS] thermal anomaly 46.855, 33.852 (FRP 35.14 MW, conf nominal)", "summary": "VIIRS S-NPP NRT, sat N, acquired 2026-09-04 1026Z, FRP 35.14 MW", "date": "2026-09-04", "severity": 1, "source": "firms"}}, {"type": "Feature", "geometry": {"type": "Point", "coordinates": [33.92551, 46.9772]}, "properties": {"title": "[FIRMS] thermal anomaly 46.977, 33.926 (FRP 28.61 MW, conf high)", "summary": "VIIRS S-NPP NRT, sat N, acquired 2026-09-04 1026Z, FRP 28.61 MW", "date": "2026-09-04", "severity": 1, "source": "firms"}}, {"type": "Feature", "geometry": {"type": "Point", "coordinates": [33.93127, 46.97832]}, "properties": {"title": "[FIRMS] thermal anomaly 46.978, 33.931 (FRP 28.61 MW, conf nominal)", "summary": "VIIRS S-NPP NRT, sat N, acquired 2026-09-04 1026Z, FRP 28.61 MW", "date": "2026-09-04", "severity": 1, "source": "firms"}}]}