{
  "type": "FeatureCollection",
  "features": [
    {
      "type": "Feature",
      "geometry": {
        "type": "Point",
        "coordinates": [
          -108.1,
          14.1
        ]
      },
      "properties": {
        "title": "Hurricane Marie",
        "summary": "Severe Storms",
        "date": "2026-09-03",
        "severity": 6,
        "source": "gdacs"
      }
    },
    {
      "type": "Feature",
      "geometry": {
        "type": "Point",
        "coordinates": [
          -91.8,
          28.6
        ]
      },
      "properties": {
        "title": "Tropical Storm Edouard",
        "summary": "Severe Storms",
        "date": "2026-09-03",
        "severity": 4,
        "source": "gdacs"
      }
    },
    {
      "type": "Feature",
      "geometry": {
        "type": "Point",
        "coordinates": [
          131.5,
          22.4
        ]
      },
      "properties": {
        "title": "Tropical Storm Krovanh",
        "summary": "Severe Storms",
        "date": "2026-09-03",
        "severity": 4,
        "source": "gdacs"
      }
    },
    {
      "type": "Feature",
      "geometry": {
        "type": "Point",
        "coordinates": [
          -119.69069,
          45.253405
        ]
      },
      "properties": {
        "title": "Wildfire Ruggs, Morrow, Oregon",
        "summary": "Wildfires",
        "date": "2026-09-03",
        "severity": 4,
        "source": "gdacs"
      }
    },
    {
      "type": "Feature",
      "geometry": {
        "type": "Point",
        "coordinates": [
          -99.07646449,
          33.05632251
        ]
      },
      "properties": {
        "title": "Wildfire Harris, Throckmorton, Texas",
        "summary": "Wildfires",
        "date": "2026-09-03",
        "severity": 4,
        "source": "gdacs"
      }
    },
    {
      "type": "Feature",
      "geometry": {
        "type": "Point",
        "coordinates": [
          154.2,
          8.6
        ]
      },
      "properties": {
        "title": "Typhoon Saudel",
        "summary": "Severe Storms",
        "date": "2026-09-03",
        "severity": 4,
        "source": "gdacs"
      }
    },
    {
      "type": "Feature",
      "geometry": {
        "type": "Point",
        "coordinates": [
          -111.5,
          10.8
        ]
      },
      "properties": {
        "title": "Hurricane Karina",
        "summary": "Severe Storms",
        "date": "2026-09-03",
        "severity": 6,
        "source": "gdacs"
      }
    },
    {
      "type": "Feature",
      "geometry": {
        "type": "Point",
        "coordinates": [
          -134,
          11.2
        ]
      },
      "properties": {
        "title": "Hurricane Lowell",
        "summary": "Severe Storms",
        "date": "2026-09-03",
        "severity": 6,
        "source": "gdacs"
      }
    },
    {
      "type": "Feature",
      "geometry": {
        "type": "Point",
        "coordinates": [
          30.5234,
          50.4501
        ]
      },
      "properties": {
        "title": "Drone/missile attack on Kyiv",
        "summary": "Shevchenkivskyi district hit by drone, Sep 2. Air alerts 7x",
        "date": "2026-09-02",
        "severity": 7,
        "source": "acled"
      }
    },
    {
      "type": "Feature",
      "geometry": {
        "type": "Point",
        "coordinates": [
          30.9417,
          50.353
        ]
      },
      "properties": {
        "title": "Ballistic missile strikes Boryspil",
        "summary": "Kyiv region missile strike, Sep 1",
        "date": "2026-09-01",
        "severity": 8,
        "source": "acled"
      }
    },
    {
      "type": "Feature",
      "geometry": {
        "type": "Point",
        "coordinates": [
          30.7326,
          46.4825
        ]
      },
      "properties": {
        "title": "Russian strike on Odesa",
        "summary": "Multistory building damaged, 8 wounded",
        "date": "2026-09-02",
        "severity": 7,
        "source": "acled"
      }
    },
    {
      "type": "Feature",
      "geometry": {
        "type": "Point",
        "coordinates": [
          37.2786,
          49.207
        ]
      },
      "properties": {
        "title": "Power infrastructure attack Izyum",
        "summary": "Blackout, 2 wounded, 3 feared trapped",
        "date": "2026-08-31",
        "severity": 6,
        "source": "acled"
      }
    },
    {
      "type": "Feature",
      "geometry": {
        "type": "Point",
        "coordinates": [
          12.3731,
          51.3397
        ]
      },
      "properties": {
        "title": "Drone strike on eastern Germany power plant",
        "summary": "Homemade rockets hit power plant near Leipzig",
        "date": "2026-09-01",
        "severity": 7,
        "source": "acled"
      }
    },
    {
      "type": "Feature",
      "geometry": {
        "type": "Point",
        "coordinates": [
          53.688,
          32.4279
        ]
      },
      "properties": {
        "title": "US-Iran airstrike exchange",
        "summary": "Iran claims US killed civilians at wedding. New flare-up in hostilities",
        "date": "2026-09-02",
        "severity": 8,
        "source": "acled"
      }
    },
    {
      "type": "Feature",
      "geometry": {
        "type": "Point",
        "coordinates": [
          34.4656,
          31.5085
        ]
      },
      "properties": {
        "title": "Israeli raids on Gaza City",
        "summary": "5 dead in Israeli raids on several Gaza City areas",
        "date": "2026-08-31",
        "severity": 7,
        "source": "acled"
      }
    },
    {
      "type": "Feature",
      "geometry": {
        "type": "Point",
        "coordinates": [
          32.5599,
          15.5007
        ]
      },
      "properties": {
        "title": "Sudan: RSF defections",
        "summary": "200 RSF fighters defect to army",
        "date": "2026-08-31",
        "severity": 5,
        "source": "acled"
      }
    },
    {
      "type": "Feature",
      "geometry": {
        "type": "Point",
        "coordinates": [
          56.25,
          26.57
        ]
      },
      "properties": {
        "title": "Iranian missiles fired at ships, Strait of Hormuz",
        "summary": "Reports of Iran missile targeting shipping",
        "date": "2026-08-30",
        "severity": 8,
        "source": "acled"
      }
    },
    {
      "type": "Feature",
      "geometry": {
        "type": "Point",
        "coordinates": [
          10.8978,
          48.3705
        ]
      },
      "properties": {
        "title": "Explosion near Augsburg railway station",
        "summary": "Blast near main train station, Germany",
        "date": "2026-09-02",
        "severity": 5,
        "source": "acled"
      }
    }
  ]
}