{
  "type": "FeatureCollection",
  "features": [
    {
      "type": "Feature",
      "geometry": {
        "type": "Point",
        "coordinates": [
          30.23,
          50.55
        ]
      },
      "properties": {
        "title": "Bucha district drone strike explosion",
        "summary": "Bucha district drone strike explosion",
        "date": "2026-08-28",
        "severity": 5,
        "source": "ukraine_theater"
      }
    },
    {
      "type": "Feature",
      "geometry": {
        "type": "Point",
        "coordinates": [
          30.52,
          50.33
        ]
      },
      "properties": {
        "title": "Kyiv ammunition depot strike - 38 killed",
        "summary": "Kyiv ammunition depot strike - 38 killed",
        "date": "2026-08-29",
        "severity": 8,
        "source": "ukraine_theater"
      }
    },
    {
      "type": "Feature",
      "geometry": {
        "type": "Point",
        "coordinates": [
          30.52,
          50.45
        ]
      },
      "properties": {
        "title": "Kyiv drone attack - Aug 30",
        "summary": "Kyiv drone attack - Aug 30",
        "date": "2026-08-30",
        "severity": 6,
        "source": "ukraine_theater"
      }
    },
    {
      "type": "Feature",
      "geometry": {
        "type": "Point",
        "coordinates": [
          32.63,
          46.64
        ]
      },
      "properties": {
        "title": "Kherson drone strike - 1 killed",
        "summary": "Kherson drone strike - 1 killed",
        "date": "2026-08-29",
        "severity": 5,
        "source": "ukraine_theater"
      }
    },
    {
      "type": "Feature",
      "geometry": {
        "type": "Point",
        "coordinates": [
          34.8,
          51.55
        ]
      },
      "properties": {
        "title": "Sumy region airstrikes (Tovstodubove, Nova Sich)",
        "summary": "Sumy region airstrikes (Tovstodubove, Nova Sich)",
        "date": "2026-08-29",
        "severity": 5,
        "source": "ukraine_theater"
      }
    },
    {
      "type": "Feature",
      "geometry": {
        "type": "Point",
        "coordinates": [
          37.72,
          48.53
        ]
      },
      "properties": {
        "title": "Kostiantynivka direction clashes",
        "summary": "Kostiantynivka direction clashes",
        "date": "2026-08-30",
        "severity": 6,
        "source": "ukraine_theater"
      }
    },
    {
      "type": "Feature",
      "geometry": {
        "type": "Point",
        "coordinates": [
          41.24,
          47.82
        ]
      },
      "properties": {
        "title": "Fires in Askay, Rostov region (Russian territory)",
        "summary": "Fires in Askay, Rostov region (Russian territory)",
        "date": "2026-08-30",
        "severity": 5,
        "source": "ukraine_theater"
      }
    },
    {
      "type": "Feature",
      "geometry": {
        "type": "Point",
        "coordinates": [
          36.23,
          49.99
        ]
      },
      "properties": {
        "title": "Kharkiv explosions reported",
        "summary": "Kharkiv explosions reported",
        "date": "2026-08-27",
        "severity": 5,
        "source": "ukraine_theater"
      }
    },
    {
      "type": "Feature",
      "geometry": {
        "type": "Point",
        "coordinates": [
          26.8,
          47.6
        ]
      },
      "properties": {
        "title": "Romania scrambles fighters near Ukraine border",
        "summary": "Romania scrambles fighters near Ukraine border",
        "date": "2026-08-30",
        "severity": 3,
        "source": "ukraine_theater"
      }
    },
    {
      "type": "Feature",
      "geometry": {
        "type": "Point",
        "coordinates": [
          34.58,
          47.51
        ]
      },
      "properties": {
        "title": "Zaporizhzhia NPP running on generators - 10 days diesel",
        "summary": "Zaporizhzhia NPP running on generators - 10 days diesel",
        "date": "2026-08-30",
        "severity": 7,
        "source": "ukraine_theater"
      }
    },
    {
      "type": "Feature",
      "geometry": {
        "type": "Point",
        "coordinates": [
          104.1,
          30.7
        ]
      },
      "properties": {
        "title": "Orange: China M5.0 earthquake - 15.8M in 100km",
        "summary": "GDACS Orange earthquake, 28 Aug 2026",
        "date": "2026-08-28",
        "severity": 6,
        "source": "gdacs"
      }
    },
    {
      "type": "Feature",
      "geometry": {
        "type": "Point",
        "coordinates": [
          85.3,
          27.7
        ]
      },
      "properties": {
        "title": "Nepal glacial collapse - 750+ killed, 3,000 missing",
        "summary": "Major flood/glacial disaster Nepal-Tibet border",
        "date": "2026-08-30",
        "severity": 9,
        "source": "gdacs"
      }
    },
    {
      "type": "Feature",
      "geometry": {
        "type": "Point",
        "coordinates": [
          33.1,
          35.3
        ]
      },
      "properties": {
        "title": "Ferry capsizes north Cyprus - 250+ aboard",
        "summary": "Maritime disaster off northern Cyprus",
        "date": "2026-08-30",
        "severity": 7,
        "source": "gdacs"
      }
    },
    {
      "type": "Feature",
      "geometry": {
        "type": "Point",
        "coordinates": [
          13.5,
          13.5
        ]
      },
      "properties": {
        "title": "Niger military mutiny at airbase - junta regains control",
        "summary": "Soldier mutiny at Niger airbase",
        "date": "2026-08-30",
        "severity": 5,
        "source": "acled"
      }
    },
    {
      "type": "Feature",
      "geometry": {
        "type": "Point",
        "coordinates": [
          30.0,
          -20.0
        ]
      },
      "properties": {
        "title": "Zimbabwe church minibus crash - 27 killed",
        "summary": "Road crash kills 27",
        "date": "2026-08-29",
        "severity": 5,
        "source": "acled"
      }
    },
    {
      "type": "Feature",
      "geometry": {
        "type": "Point",
        "coordinates": [
          34.38,
          31.5
        ]
      },
      "properties": {
        "title": "Israeli strike kills 3-yr-old in Gaza hospital compound",
        "summary": "IDF strike in Gaza",
        "date": "2026-08-30",
        "severity": 7,
        "source": "acled"
      }
    },
    {
      "type": "Feature",
      "geometry": {
        "type": "Point",
        "coordinates": [
          35.33,
          32.16
        ]
      },
      "properties": {
        "title": "Israeli settlers attack Qusra - Netanyahu condemns",
        "summary": "West Bank settler violence",
        "date": "2026-08-29",
        "severity": 6,
        "source": "acled"
      }
    },
    {
      "type": "Feature",
      "geometry": {
        "type": "Point",
        "coordinates": [
          8.2,
          47.1
        ]
      },
      "properties": {
        "title": "Gunman kills woman at Swiss rave party",
        "summary": "Active shooting at rave, manhunt underway",
        "date": "2026-08-30",
        "severity": 5,
        "source": "acled"
      }
    },
    {
      "type": "Feature",
      "geometry": {
        "type": "Point",
        "coordinates": [
          -110.0,
          20.0
        ]
      },
      "properties": {
        "title": "Hurricane Karina-26 (Cat 4 winds, 241km/h)",
        "summary": "Active hurricane E. Pacific",
        "date": "2026-08-31",
        "severity": 4,
        "source": "gdacs"
      }
    },
    {
      "type": "Feature",
      "geometry": {
        "type": "Point",
        "coordinates": [
          115.0,
          17.0
        ]
      },
      "properties": {
        "title": "Tropical Storm Bang-Lang (Philippines)",
        "summary": "Active tropical storm",
        "date": "2026-08-30",
        "severity": 4,
        "source": "gdacs"
      }
    }
  ]
}