{
  "type": "FeatureCollection",
  "features": [
    {
      "type": "Feature",
      "geometry": {
        "type": "Point",
        "coordinates": [
          -92.9517,
          14.6043
        ]
      },
      "properties": {
        "title": "M 7.3 - 58 km WSW of Puerto Madero, Mexico",
        "summary": "M7.3 \u00b7 58 km WSW of Puerto Madero, Mexico \u00b7 depth 18.584 km \u00b7 PAGER yellow",
        "date": "2026-07-17",
        "severity": 9,
        "source": "usgs"
      }
    },
    {
      "type": "Feature",
      "geometry": {
        "type": "Point",
        "coordinates": [
          -93.0929,
          14.2369
        ]
      },
      "properties": {
        "title": "M 6.0 - 90 km SW of Puerto Madero, Mexico",
        "summary": "M6.0 \u00b7 90 km SW of Puerto Madero, Mexico \u00b7 depth 10 km",
        "date": "2026-07-17",
        "severity": 7,
        "source": "usgs"
      }
    },
    {
      "type": "Feature",
      "geometry": {
        "type": "Point",
        "coordinates": [
          -93.1511,
          14.3804
        ]
      },
      "properties": {
        "title": "M 5.3 - 87 km WSW of Puerto Madero, Mexico",
        "summary": "M5.3 \u00b7 87 km WSW of Puerto Madero, Mexico \u00b7 depth 35 km",
        "date": "2026-07-18",
        "severity": 6,
        "source": "usgs"
      }
    },
    {
      "type": "Feature",
      "geometry": {
        "type": "Point",
        "coordinates": [
          124.8574,
          4.5057
        ]
      },
      "properties": {
        "title": "M 5.3 - 119 km SW of Sarangani, Philippines",
        "summary": "M5.3 \u00b7 119 km SW of Sarangani, Philippines \u00b7 depth 10 km",
        "date": "2026-07-18",
        "severity": 6,
        "source": "usgs"
      }
    },
    {
      "type": "Feature",
      "geometry": {
        "type": "Point",
        "coordinates": [
          -93.0992,
          14.189
        ]
      },
      "properties": {
        "title": "M 5.3 - 93 km SW of Puerto Madero, Mexico",
        "summary": "M5.3 \u00b7 93 km SW of Puerto Madero, Mexico \u00b7 depth 10 km",
        "date": "2026-07-17",
        "severity": 6,
        "source": "usgs"
      }
    },
    {
      "type": "Feature",
      "geometry": {
        "type": "Point",
        "coordinates": [
          54.1453,
          14.4873
        ]
      },
      "properties": {
        "title": "M 5.3 - 203 km N of Hadibu, Yemen",
        "summary": "M5.3 \u00b7 203 km N of Hadibu, Yemen \u00b7 depth 10 km",
        "date": "2026-07-17",
        "severity": 6,
        "source": "usgs"
      }
    },
    {
      "type": "Feature",
      "geometry": {
        "type": "Point",
        "coordinates": [
          -178.1149,
          -32.8189
        ]
      },
      "properties": {
        "title": "M 5.2 - south of the Kermadec Islands",
        "summary": "M5.2 \u00b7 south of the Kermadec Islands \u00b7 depth 10 km",
        "date": "2026-07-18",
        "severity": 6,
        "source": "usgs"
      }
    },
    {
      "type": "Feature",
      "geometry": {
        "type": "Point",
        "coordinates": [
          -92.9332,
          14.3713
        ]
      },
      "properties": {
        "title": "M 5.2 - 67 km SW of Puerto Madero, Mexico",
        "summary": "M5.2 \u00b7 67 km SW of Puerto Madero, Mexico \u00b7 depth 10 km",
        "date": "2026-07-17",
        "severity": 6,
        "source": "usgs"
      }
    },
    {
      "type": "Feature",
      "geometry": {
        "type": "Point",
        "coordinates": [
          125.378,
          5.7602
        ]
      },
      "properties": {
        "title": "M 5.2 - 11 km SE of Kiupo, Philippines",
        "summary": "M5.2 \u00b7 11 km SE of Kiupo, Philippines \u00b7 depth 79.819 km",
        "date": "2026-07-17",
        "severity": 6,
        "source": "usgs"
      }
    },
    {
      "type": "Feature",
      "geometry": {
        "type": "Point",
        "coordinates": [
          -93.2679,
          14.3665
        ]
      },
      "properties": {
        "title": "M 5.1 - 99 km WSW of Puerto Madero, Mexico",
        "summary": "M5.1 \u00b7 99 km WSW of Puerto Madero, Mexico \u00b7 depth 10 km",
        "date": "2026-07-18",
        "severity": 6,
        "source": "usgs"
      }
    },
    {
      "type": "Feature",
      "geometry": {
        "type": "Point",
        "coordinates": [
          -92.9705,
          14.3448
        ]
      },
      "properties": {
        "title": "M 5.1 - 72 km SW of Puerto Madero, Mexico",
        "summary": "M5.1 \u00b7 72 km SW of Puerto Madero, Mexico \u00b7 depth 10 km",
        "date": "2026-07-17",
        "severity": 6,
        "source": "usgs"
      }
    },
    {
      "type": "Feature",
      "geometry": {
        "type": "Point",
        "coordinates": [
          -93.0323,
          14.3368
        ]
      },
      "properties": {
        "title": "M 5.1 - 78 km WSW of Puerto Madero, Mexico",
        "summary": "M5.1 \u00b7 78 km WSW of Puerto Madero, Mexico \u00b7 depth 10 km",
        "date": "2026-07-17",
        "severity": 6,
        "source": "usgs"
      }
    },
    {
      "type": "Feature",
      "geometry": {
        "type": "Point",
        "coordinates": [
          -92.5836,
          14.4643
        ]
      },
      "properties": {
        "title": "M 5.1 - 33 km SSW of Puerto Madero, Mexico",
        "summary": "M5.1 \u00b7 33 km SSW of Puerto Madero, Mexico \u00b7 depth 64.924 km",
        "date": "2026-07-17",
        "severity": 6,
        "source": "usgs"
      }
    },
    {
      "type": "Feature",
      "geometry": {
        "type": "Point",
        "coordinates": [
          -93.0044,
          14.4311
        ]
      },
      "properties": {
        "title": "M 5.1 - 70 km WSW of Puerto Madero, Mexico",
        "summary": "M5.1 \u00b7 70 km WSW of Puerto Madero, Mexico \u00b7 depth 10 km",
        "date": "2026-07-17",
        "severity": 6,
        "source": "usgs"
      }
    },
    {
      "type": "Feature",
      "geometry": {
        "type": "Point",
        "coordinates": [
          -93.2998,
          14.3986
        ]
      },
      "properties": {
        "title": "M 5.1 - 101 km WSW of Puerto Madero, Mexico",
        "summary": "M5.1 \u00b7 101 km WSW of Puerto Madero, Mexico \u00b7 depth 10 km",
        "date": "2026-07-17",
        "severity": 6,
        "source": "usgs"
      }
    },
    {
      "type": "Feature",
      "geometry": {
        "type": "Point",
        "coordinates": [
          161.8112,
          -10.3499
        ]
      },
      "properties": {
        "title": "M 5.1 - 16 km NW of Kirakira, Solomon Islands",
        "summary": "M5.1 \u00b7 16 km NW of Kirakira, Solomon Islands \u00b7 depth 66.187 km",
        "date": "2026-07-17",
        "severity": 6,
        "source": "usgs"
      }
    },
    {
      "type": "Feature",
      "geometry": {
        "type": "Point",
        "coordinates": [
          38.4814,
          38.2608
        ]
      },
      "properties": {
        "title": "M 5.0 - 17 km SE of Malatya, Turkey",
        "summary": "M5.0 \u00b7 17 km SE of Malatya, Turkey \u00b7 depth 10 km",
        "date": "2026-07-18",
        "severity": 6,
        "source": "usgs"
      }
    },
    {
      "type": "Feature",
      "geometry": {
        "type": "Point",
        "coordinates": [
          -92.9584,
          14.2237
        ]
      },
      "properties": {
        "title": "M 5.0 - 79 km SW of Puerto Madero, Mexico",
        "summary": "M5.0 \u00b7 79 km SW of Puerto Madero, Mexico \u00b7 depth 35 km",
        "date": "2026-07-17",
        "severity": 6,
        "source": "usgs"
      }
    },
    {
      "type": "Feature",
      "geometry": {
        "type": "Point",
        "coordinates": [
          -92.713,
          14.2633
        ]
      },
      "properties": {
        "title": "M 5.0 - 59 km SSW of Puerto Madero, Mexico",
        "summary": "M5.0 \u00b7 59 km SSW of Puerto Madero, Mexico \u00b7 depth 35.128 km",
        "date": "2026-07-17",
        "severity": 6,
        "source": "usgs"
      }
    },
    {
      "type": "Feature",
      "geometry": {
        "type": "Point",
        "coordinates": [
          -92.9089,
          14.3476
        ]
      },
      "properties": {
        "title": "M 5.0 - 66 km SW of Puerto Madero, Mexico",
        "summary": "M5.0 \u00b7 66 km SW of Puerto Madero, Mexico \u00b7 depth 53.729 km",
        "date": "2026-07-17",
        "severity": 6,
        "source": "usgs"
      }
    },
    {
      "type": "Feature",
      "geometry": {
        "type": "Point",
        "coordinates": [
          -177.9086,
          -32.9894
        ]
      },
      "properties": {
        "title": "M 5.0 - south of the Kermadec Islands",
        "summary": "M5.0 \u00b7 south of the Kermadec Islands \u00b7 depth 10 km",
        "date": "2026-07-17",
        "severity": 6,
        "source": "usgs"
      }
    },
    {
      "type": "Feature",
      "geometry": {
        "type": "Point",
        "coordinates": [
          47.48,
          23.92
        ]
      },
      "properties": {
        "title": "Iran IRGC missile strike, Prince Sultan AB, Saudi Arabia",
        "summary": "Ballistic missile attack on US base in Al-Kharj; 10 US troops wounded",
        "date": "2026-07-17",
        "severity": 9,
        "source": "acled"
      }
    },
    {
      "type": "Feature",
      "geometry": {
        "type": "Point",
        "coordinates": [
          38.56,
          33.48
        ]
      },
      "properties": {
        "title": "IRGC claim: al-Tanf US SOF compound, Syria",
        "summary": "IRGC claims helicopter/radar strike; disputed by Syrian sources",
        "date": "2026-07-17",
        "severity": 6,
        "source": "acled"
      }
    },
    {
      "type": "Feature",
      "geometry": {
        "type": "Point",
        "coordinates": [
          56.37,
          23.6
        ]
      },
      "properties": {
        "title": "Gulf of Oman: 11th MEU boards M/T Wen Yao",
        "summary": "CENTCOM blockade enforcement; 3 vessels redirected",
        "date": "2026-07-16",
        "severity": 7,
        "source": "acled"
      }
    },
    {
      "type": "Feature",
      "geometry": {
        "type": "Point",
        "coordinates": [
          35.23,
          45.37
        ]
      },
      "properties": {
        "title": "Iranian attack on Kuwait power/desalination plant",
        "summary": "Iran struck Kuwait energy infrastructure; fires reported",
        "date": "2026-07-17",
        "severity": 8,
        "source": "acled"
      }
    },
    {
      "type": "Feature",
      "geometry": {
        "type": "Point",
        "coordinates": [
          36.1,
          45.35
        ]
      },
      "properties": {
        "title": "Berdyansk: explosions reported",
        "summary": "Explosions in Russian-held Berdyansk port area",
        "date": "2026-07-16",
        "severity": 6,
        "source": "acled"
      }
    },
    {
      "type": "Feature",
      "geometry": {
        "type": "Point",
        "coordinates": [
          35.24,
          44.95
        ]
      },
      "properties": {
        "title": "Ukraine strikes 12 Russian vessels, Black/Azov Seas",
        "summary": "Operation Molochka: 12 shadow fleet vessels struck; 159 total since Jul 6",
        "date": "2026-07-17",
        "severity": 8,
        "source": "acled"
      }
    },
    {
      "type": "Feature",
      "geometry": {
        "type": "Point",
        "coordinates": [
          36.47,
          45.36
        ]
      },
      "properties": {
        "title": "Drone raid, Moscow region (reported)",
        "summary": "Ukrainian drones shot down over Moscow region",
        "date": "2026-07-13",
        "severity": 5,
        "source": "acled"
      }
    },
    {
      "type": "Feature",
      "geometry": {
        "type": "Point",
        "coordinates": [
          33.4,
          44.57
        ]
      },
      "properties": {
        "title": "Kerch railway + Koktebel/Feodosia strikes, Crimea",
        "summary": "Large-scale drone/missile attack on Russian-occupied Crimea",
        "date": "2026-07-17",
        "severity": 7,
        "source": "acled"
      }
    },
    {
      "type": "Feature",
      "geometry": {
        "type": "Point",
        "coordinates": [
          -92.9517,
          14.6043
        ]
      },
      "properties": {
        "title": "M7.3 earthquake, 58km WSW Puerto Madero, Mexico",
        "summary": "PAGER yellow; tsunami warning issued then cleared; 2 injuries reported",
        "date": "2026-07-17",
        "severity": 7,
        "source": "usgs"
      }
    },
    {
      "type": "Feature",
      "geometry": {
        "type": "Point",
        "coordinates": [
          125.14,
          7.07
        ]
      },
      "properties": {
        "title": "M5.3 Philippines (Sarangani region)",
        "summary": "M5.3 SW of Sarangani; part of Philippines seismic cluster",
        "date": "2026-07-18",
        "severity": 4,
        "source": "usgs"
      }
    }
  ]
}