{
  "type": "FeatureCollection",
  "features": [
    {
      "type": "Feature",
      "geometry": {
        "type": "Point",
        "coordinates": [
          32.41923,
          46.27673
        ]
      },
      "properties": {
        "title": "FIRMS thermal: 37.82 MW",
        "summary": "VIIRS S-NPP thermal anomaly, FRP=37.82MW. Date: 2026-08-08",
        "date": "2026-08-08",
        "severity": 4,
        "source": "firms"
      }
    },
    {
      "type": "Feature",
      "geometry": {
        "type": "Point",
        "coordinates": [
          32.40769,
          46.27449
        ]
      },
      "properties": {
        "title": "FIRMS thermal: 36.93 MW",
        "summary": "VIIRS S-NPP thermal anomaly, FRP=36.93MW. Date: 2026-08-08",
        "date": "2026-08-08",
        "severity": 4,
        "source": "firms"
      }
    },
    {
      "type": "Feature",
      "geometry": {
        "type": "Point",
        "coordinates": [
          32.41781,
          46.28022
        ]
      },
      "properties": {
        "title": "FIRMS thermal: 37.82 MW",
        "summary": "VIIRS S-NPP thermal anomaly, FRP=37.82MW. Date: 2026-08-08",
        "date": "2026-08-08",
        "severity": 4,
        "source": "firms"
      }
    },
    {
      "type": "Feature",
      "geometry": {
        "type": "Point",
        "coordinates": [
          23.45422,
          44.20837
        ]
      },
      "properties": {
        "title": "FIRMS thermal: 29.66 MW",
        "summary": "VIIRS S-NPP thermal anomaly, FRP=29.66MW. Date: 2026-08-08",
        "date": "2026-08-08",
        "severity": 3,
        "source": "firms"
      }
    },
    {
      "type": "Feature",
      "geometry": {
        "type": "Point",
        "coordinates": [
          32.79079,
          46.49874
        ]
      },
      "properties": {
        "title": "FIRMS thermal: 39.32 MW",
        "summary": "VIIRS S-NPP thermal anomaly, FRP=39.32MW. Date: 2026-08-08",
        "date": "2026-08-08",
        "severity": 4,
        "source": "firms"
      }
    },
    {
      "type": "Feature",
      "geometry": {
        "type": "Point",
        "coordinates": [
          33.17371,
          46.64478
        ]
      },
      "properties": {
        "title": "FIRMS thermal: 30.61 MW",
        "summary": "VIIRS S-NPP thermal anomaly, FRP=30.61MW. Date: 2026-08-08",
        "date": "2026-08-08",
        "severity": 4,
        "source": "firms"
      }
    },
    {
      "type": "Feature",
      "geometry": {
        "type": "Point",
        "coordinates": [
          32.95735,
          46.61885
        ]
      },
      "properties": {
        "title": "FIRMS thermal: 58.55 MW",
        "summary": "VIIRS S-NPP thermal anomaly, FRP=58.55MW. Date: 2026-08-08",
        "date": "2026-08-08",
        "severity": 6,
        "source": "firms"
      }
    },
    {
      "type": "Feature",
      "geometry": {
        "type": "Point",
        "coordinates": [
          33.61195,
          46.76672
        ]
      },
      "properties": {
        "title": "FIRMS thermal: 28.5 MW",
        "summary": "VIIRS S-NPP thermal anomaly, FRP=28.5MW. Date: 2026-08-08",
        "date": "2026-08-08",
        "severity": 3,
        "source": "firms"
      }
    },
    {
      "type": "Feature",
      "geometry": {
        "type": "Point",
        "coordinates": [
          33.60661,
          46.76574
        ]
      },
      "properties": {
        "title": "FIRMS thermal: 28.5 MW",
        "summary": "VIIRS S-NPP thermal anomaly, FRP=28.5MW. Date: 2026-08-08",
        "date": "2026-08-08",
        "severity": 3,
        "source": "firms"
      }
    },
    {
      "type": "Feature",
      "geometry": {
        "type": "Point",
        "coordinates": [
          32.12788,
          46.48365
        ]
      },
      "properties": {
        "title": "FIRMS thermal: 21.99 MW",
        "summary": "VIIRS S-NPP thermal anomaly, FRP=21.99MW. Date: 2026-08-08",
        "date": "2026-08-08",
        "severity": 3,
        "source": "firms"
      }
    },
    {
      "type": "Feature",
      "geometry": {
        "type": "Point",
        "coordinates": [
          33.61066,
          46.77008
        ]
      },
      "properties": {
        "title": "FIRMS thermal: 28.5 MW",
        "summary": "VIIRS S-NPP thermal anomaly, FRP=28.5MW. Date: 2026-08-08",
        "date": "2026-08-08",
        "severity": 3,
        "source": "firms"
      }
    },
    {
      "type": "Feature",
      "geometry": {
        "type": "Point",
        "coordinates": [
          33.06258,
          46.68295
        ]
      },
      "properties": {
        "title": "FIRMS thermal: 26.98 MW",
        "summary": "VIIRS S-NPP thermal anomaly, FRP=26.98MW. Date: 2026-08-08",
        "date": "2026-08-08",
        "severity": 3,
        "source": "firms"
      }
    },
    {
      "type": "Feature",
      "geometry": {
        "type": "Point",
        "coordinates": [
          33.185,
          46.74611
        ]
      },
      "properties": {
        "title": "FIRMS thermal: 30.02 MW",
        "summary": "VIIRS S-NPP thermal anomaly, FRP=30.02MW. Date: 2026-08-08",
        "date": "2026-08-08",
        "severity": 4,
        "source": "firms"
      }
    },
    {
      "type": "Feature",
      "geometry": {
        "type": "Point",
        "coordinates": [
          32.1841,
          46.72025
        ]
      },
      "properties": {
        "title": "FIRMS thermal: 43.57 MW",
        "summary": "VIIRS S-NPP thermal anomaly, FRP=43.57MW. Date: 2026-08-08",
        "date": "2026-08-08",
        "severity": 5,
        "source": "firms"
      }
    },
    {
      "type": "Feature",
      "geometry": {
        "type": "Point",
        "coordinates": [
          32.17828,
          46.7191
        ]
      },
      "properties": {
        "title": "FIRMS thermal: 33.54 MW",
        "summary": "VIIRS S-NPP thermal anomaly, FRP=33.54MW. Date: 2026-08-08",
        "date": "2026-08-08",
        "severity": 4,
        "source": "firms"
      }
    },
    {
      "type": "Feature",
      "geometry": {
        "type": "Point",
        "coordinates": [
          34.84932,
          47.31498
        ]
      },
      "properties": {
        "title": "FIRMS thermal: 29.61 MW",
        "summary": "VIIRS S-NPP thermal anomaly, FRP=29.61MW. Date: 2026-08-08",
        "date": "2026-08-08",
        "severity": 3,
        "source": "firms"
      }
    },
    {
      "type": "Feature",
      "geometry": {
        "type": "Point",
        "coordinates": [
          34.84812,
          47.31828
        ]
      },
      "properties": {
        "title": "FIRMS thermal: 29.61 MW",
        "summary": "VIIRS S-NPP thermal anomaly, FRP=29.61MW. Date: 2026-08-08",
        "date": "2026-08-08",
        "severity": 3,
        "source": "firms"
      }
    },
    {
      "type": "Feature",
      "geometry": {
        "type": "Point",
        "coordinates": [
          30.26547,
          46.7412
        ]
      },
      "properties": {
        "title": "FIRMS thermal: 41.74 MW",
        "summary": "VIIRS S-NPP thermal anomaly, FRP=41.74MW. Date: 2026-08-08",
        "date": "2026-08-08",
        "severity": 5,
        "source": "firms"
      }
    },
    {
      "type": "Feature",
      "geometry": {
        "type": "Point",
        "coordinates": [
          32.01335,
          47.40448
        ]
      },
      "properties": {
        "title": "FIRMS thermal: 25.45 MW",
        "summary": "VIIRS S-NPP thermal anomaly, FRP=25.45MW. Date: 2026-08-08",
        "date": "2026-08-08",
        "severity": 3,
        "source": "firms"
      }
    },
    {
      "type": "Feature",
      "geometry": {
        "type": "Point",
        "coordinates": [
          32.00748,
          47.40335
        ]
      },
      "properties": {
        "title": "FIRMS thermal: 88.31 MW",
        "summary": "VIIRS S-NPP thermal anomaly, FRP=88.31MW. Date: 2026-08-08",
        "date": "2026-08-08",
        "severity": 9,
        "source": "firms"
      }
    }
  ]
}