{"type": "FeatureCollection", "features": [{"type": "Feature", "geometry": {"type": "Point", "coordinates": [144.3909, 22.8589]}, "properties": {"title": "Green earthquake (Magnitude 5.5M, Depth:12.806km) in Volcano Islands, Japan Region 16/07/2026 07:49 ", "summary": "Green earthquake (Magnitude 5.5M, Depth:12.806km) in Volcano Islands, Japan Region 16/07/2026 07:49 UTC, [unknown].", "date": "2026-07-16", "severity": 3, "source": "gdacs"}}, {"type": "Feature", "geometry": {"type": "Point", "coordinates": [123.685, 13.257]}, "properties": {"title": "Volcanic eruption is on going for Mayon in Philippines", "summary": "Volcanic eruption is on going for Mayon in Philippines", "date": "2026-07-16", "severity": 3, "source": "gdacs"}}, {"type": "Feature", "geometry": {"type": "Point", "coordinates": [-178.6944, -26.366]}, "properties": {"title": "Green earthquake (Magnitude 5.8M, Depth:340.334km) in South Of Fiji Islands 15/07/2026 22:57 UTC, [u", "summary": "Green earthquake (Magnitude 5.8M, Depth:340.334km) in South Of Fiji Islands 15/07/2026 22:57 UTC, [unknown].", "date": "2026-07-16", "severity": 3, "source": "gdacs"}}, {"type": "Feature", "geometry": {"type": "Point", "coordinates": [-19.003, -59.9671]}, "properties": {"title": "Green earthquake (Magnitude 5.7M, Depth:13.061km) in East Of South Sandwich Islands 15/07/2026 14:51", "summary": "Green earthquake (Magnitude 5.7M, Depth:13.061km) in East Of South Sandwich Islands 15/07/2026 14:51 UTC, [unknown].", "date": "2026-07-16", "severity": 3, "source": "gdacs"}}, {"type": "Feature", "geometry": {"type": "Point", "coordinates": [-178.5092, -20.748]}, "properties": {"title": "Green earthquake (Magnitude 5.5M, Depth:574.304km) in Fiji 14/07/2026 22:50 UTC, Few people affected", "summary": "Green earthquake (Magnitude 5.5M, Depth:574.304km) in Fiji 14/07/2026 22:50 UTC, Few people affected in 100km.", "date": "2026-07-16", "severity": 3, "source": "gdacs"}}, {"type": "Feature", "geometry": {"type": "Point", "coordinates": [-116.5, 15.6]}, "properties": {"title": "Green notification for tropical cyclone ELIDA-26. Population affected by Category 1 (120 km/h) wind ", "summary": "Green notification for tropical cyclone ELIDA-26. Population affected by Category 1 (120 km/h) wind speeds or higher is 0  (0 in Tropical Storm).", "date": "2026-07-16", "severity": 3, "source": "gdacs"}}, {"type": "Feature", "geometry": {"type": "Point", "coordinates": [125.1655, 5.3269]}, "properties": {"title": "Green earthquake (Magnitude 6.2M, Depth:67.854km) in Philippines 14/07/2026 15:49 UTC, 30 thousand i", "summary": "Green earthquake (Magnitude 6.2M, Depth:67.854km) in Philippines 14/07/2026 15:49 UTC, 30 thousand in MMI VI.", "date": "2026-07-16", "severity": 3, "source": "gdacs"}}, {"type": "Feature", "geometry": {"type": "Point", "coordinates": [-71.4358, -14.5779]}, "properties": {"title": "Green earthquake (Magnitude 5.6M, Depth:140.088km) in Peru 14/07/2026 08:21 UTC, 20 thousand in MMI ", "summary": "Green earthquake (Magnitude 5.6M, Depth:140.088km) in Peru 14/07/2026 08:21 UTC, 20 thousand in MMI IV.", "date": "2026-07-16", "severity": 3, "source": "gdacs"}}, {"type": "Feature", "geometry": {"type": "Point", "coordinates": [-89.98649887867269, 49.64474792149531]}, "properties": {"title": "Green forest fire notification in Canada", "summary": "Green forest fire notification in Canada", "date": "2026-07-16", "severity": 3, "source": "gdacs"}}, {"type": "Feature", "geometry": {"type": "Point", "coordinates": [-88.9538316910347, 50.50240788471389]}, "properties": {"title": "Green forest fire notification in Canada", "summary": "Green forest fire notification in Canada", "date": "2026-07-16", "severity": 3, "source": "gdacs"}}, {"type": "Feature", "geometry": {"type": "Point", "coordinates": [-90.01066476827206, 49.99266791385682]}, "properties": {"title": "Green forest fire notification in Canada", "summary": "Green forest fire notification in Canada", "date": "2026-07-16", "severity": 3, "source": "gdacs"}}, {"type": "Feature", "geometry": {"type": "Point", "coordinates": [171.5199, -22.7889]}, "properties": {"title": "Green earthquake (Magnitude 6.3M, Depth:10km) in New Caledonia 13/07/2026 14:45 UTC, Few people affe", "summary": "Green earthquake (Magnitude 6.3M, Depth:10km) in New Caledonia 13/07/2026 14:45 UTC, Few people affected in MMI V.", "date": "2026-07-16", "severity": 3, "source": "gdacs"}}, {"type": "Feature", "geometry": {"type": "Point", "coordinates": [148.5218, -3.2207]}, "properties": {"title": "Green earthquake (Magnitude 6.4M, Depth:10km) in Papua New Guinea 13/07/2026 08:53 UTC, 60 thousand ", "summary": "Green earthquake (Magnitude 6.4M, Depth:10km) in Papua New Guinea 13/07/2026 08:53 UTC, 60 thousand in MMI IV.", "date": "2026-07-16", "severity": 3, "source": "gdacs"}}, {"type": "Feature", "geometry": {"type": "Point", "coordinates": [12.5755471, 53.7735064]}, "properties": {"title": "Green flood alert in Germany", "summary": "Green flood alert in Germany", "date": "2026-07-16", "severity": 3, "source": "gdacs"}}, {"type": "Feature", "geometry": {"type": "Point", "coordinates": [-89.37568704890312, 50.26870634479649]}, "properties": {"title": "Green forest fire notification in Canada", "summary": "Green forest fire notification in Canada", "date": "2026-07-16", "severity": 3, "source": "gdacs"}}, {"type": "Feature", "geometry": {"type": "Point", "coordinates": [-89.83374534700602, 50.79806009274994]}, "properties": {"title": "Green forest fire notification in Canada", "summary": "Green forest fire notification in Canada", "date": "2026-07-16", "severity": 3, "source": "gdacs"}}, {"type": "Feature", "geometry": {"type": "Point", "coordinates": [-89.28506805419151, 50.48650277442512]}, "properties": {"title": "Green forest fire notification in Canada", "summary": "Green forest fire notification in Canada", "date": "2026-07-16", "severity": 3, "source": "gdacs"}}, {"type": "Feature", "geometry": {"type": "Point", "coordinates": [142.05892253063453, -12.970647333326648]}, "properties": {"title": "Green forest fire notification in Australia", "summary": "Green forest fire notification in Australia", "date": "2026-07-16", "severity": 3, "source": "gdacs"}}, {"type": "Feature", "geometry": {"type": "Point", "coordinates": [19.828188511142898, -8.102519133866576]}, "properties": {"title": "Green forest fire notification in Angola", "summary": "Green forest fire notification in Angola", "date": "2026-07-16", "severity": 3, "source": "gdacs"}}, {"type": "Feature", "geometry": {"type": "Point", "coordinates": [142.07571941315908, -13.506402809293956]}, "properties": {"title": "Green forest fire notification in Australia", "summary": "Green forest fire notification in Australia", "date": "2026-07-16", "severity": 3, "source": "gdacs"}}, {"type": "Feature", "geometry": {"type": "Point", "coordinates": [-118.9732, -54.6008]}, "properties": {"title": "Green earthquake (Magnitude 5.5M, Depth:10km) in Southern East Pacific Rise 12/07/2026 07:29 UTC, [u", "summary": "Green earthquake (Magnitude 5.5M, Depth:10km) in Southern East Pacific Rise 12/07/2026 07:29 UTC, [unknown].", "date": "2026-07-16", "severity": 3, "source": "gdacs"}}, {"type": "Feature", "geometry": {"type": "Point", "coordinates": [-83.7725272, 15.2664413]}, "properties": {"title": "Green flood alert in Honduras", "summary": "Green flood alert in Honduras", "date": "2026-07-16", "severity": 3, "source": "gdacs"}}, {"type": "Feature", "geometry": {"type": "Point", "coordinates": [19.599006640329005, -7.379318302830563]}, "properties": {"title": "Green forest fire notification in Angola", "summary": "Green forest fire notification in Angola", "date": "2026-07-16", "severity": 3, "source": "gdacs"}}, {"type": "Feature", "geometry": {"type": "Point", "coordinates": [2.5494134928232035, 48.37498163050831]}, "properties": {"title": "Orange forest fire notification in France", "summary": "Orange forest fire notification in France", "date": "2026-07-16", "severity": 7, "source": "gdacs"}}, {"type": "Feature", "geometry": {"type": "Point", "coordinates": [-89.5177400023581, 50.85071745396702]}, "properties": {"title": "Green forest fire notification in Canada", "summary": "Green forest fire notification in Canada", "date": "2026-07-16", "severity": 3, "source": "gdacs"}}, {"type": "Feature", "geometry": {"type": "Point", "coordinates": [-91.86775082300672, 48.20899889049098]}, "properties": {"title": "Green forest fire notification in United States, Canada", "summary": "Green forest fire notification in United States, Canada", "date": "2026-07-16", "severity": 3, "source": "gdacs"}}, {"type": "Feature", "geometry": {"type": "Point", "coordinates": [-89.29484958178342, 50.96876404212006]}, "properties": {"title": "Green forest fire notification in Canada", "summary": "Green forest fire notification in Canada", "date": "2026-07-16", "severity": 3, "source": "gdacs"}}, {"type": "Feature", "geometry": {"type": "Point", "coordinates": [-89.32143873608723, 50.68166103860631]}, "properties": {"title": "Green forest fire notification in Canada", "summary": "Green forest fire notification in Canada", "date": "2026-07-16", "severity": 3, "source": "gdacs"}}, {"type": "Feature", "geometry": {"type": "Point", "coordinates": [102.2486651, 2.1942647]}, "properties": {"title": "Green flood alert in Malaysia", "summary": "Green flood alert in Malaysia", "date": "2026-07-16", "severity": 3, "source": "gdacs"}}, {"type": "Feature", "geometry": {"type": "Point", "coordinates": [45.4703169, 41.9197221]}, "properties": {"title": "Green flood alert in Georgia", "summary": "Green flood alert in Georgia", "date": "2026-07-16", "severity": 3, "source": "gdacs"}}, {"type": "Feature", "geometry": {"type": "Point", "coordinates": [15.458981668910573, -3.1360618224552663]}, "properties": {"title": "Green forest fire notification in Congo", "summary": "Green forest fire notification in Congo", "date": "2026-07-16", "severity": 3, "source": "gdacs"}}, {"type": "Feature", "geometry": {"type": "Point", "coordinates": [-90.74395204962661, 48.937796195440825]}, "properties": {"title": "Green forest fire notification in Canada", "summary": "Green forest fire notification in Canada", "date": "2026-07-16", "severity": 3, "source": "gdacs"}}, {"type": "Feature", "geometry": {"type": "Point", "coordinates": [-112.53566542625175, 40.16026138383241]}, "properties": {"title": "Green forest fire notification in United States", "summary": "Green forest fire notification in United States", "date": "2026-07-16", "severity": 3, "source": "gdacs"}}, {"type": "Feature", "geometry": {"type": "Point", "coordinates": [-91.21301477909874, 48.30681946115058]}, "properties": {"title": "Green forest fire notification in Canada", "summary": "Green forest fire notification in Canada", "date": "2026-07-16", "severity": 3, "source": "gdacs"}}, {"type": "Feature", "geometry": {"type": "Point", "coordinates": [145.02280642962404, -16.527695992722013]}, "properties": {"title": "Green forest fire notification in Australia", "summary": "Green forest fire notification in Australia", "date": "2026-07-16", "severity": 3, "source": "gdacs"}}, {"type": "Feature", "geometry": {"type": "Point", "coordinates": [22.840860458542135, -20.423556321609794]}, "properties": {"title": "Green forest fire notification in Botswana", "summary": "Green forest fire notification in Botswana", "date": "2026-07-16", "severity": 3, "source": "gdacs"}}, {"type": "Feature", "geometry": {"type": "Point", "coordinates": [25.74257606383206, -15.788043195380554]}, "properties": {"title": "Green forest fire notification in Zambia", "summary": "Green forest fire notification in Zambia", "date": "2026-07-16", "severity": 3, "source": "gdacs"}}, {"type": "Feature", "geometry": {"type": "Point", "coordinates": [-89.4396587, 16.2004433]}, "properties": {"title": "Green flood alert in Guatemala", "summary": "Green flood alert in Guatemala", "date": "2026-07-16", "severity": 3, "source": "gdacs"}}, {"type": "Feature", "geometry": {"type": "Point", "coordinates": [24.035628799938877, -18.126344039416693]}, "properties": {"title": "Green forest fire notification in Namibia, Botswana", "summary": "Green forest fire notification in Namibia, Botswana", "date": "2026-07-16", "severity": 3, "source": "gdacs"}}, {"type": "Feature", "geometry": {"type": "Point", "coordinates": [127.65433532409882, -20.85998126902073]}, "properties": {"title": "Green forest fire notification in Australia", "summary": "Green forest fire notification in Australia", "date": "2026-07-16", "severity": 3, "source": "gdacs"}}, {"type": "Feature", "geometry": {"type": "Point", "coordinates": [-92.13439000219446, 48.30883947983469]}, "properties": {"title": "Green forest fire notification in United States, Canada", "summary": "Green forest fire notification in United States, Canada", "date": "2026-07-16", "severity": 3, "source": "gdacs"}}, {"type": "Feature", "geometry": {"type": "Point", "coordinates": [-50.16387899085143, -10.15617535390226]}, "properties": {"title": "Green forest fire notification in Brazil", "summary": "Green forest fire notification in Brazil", "date": "2026-07-16", "severity": 3, "source": "gdacs"}}, {"type": "Feature", "geometry": {"type": "Point", "coordinates": [141.84631115242246, -12.799525389347318]}, "properties": {"title": "Green forest fire notification in Australia", "summary": "Green forest fire notification in Australia", "date": "2026-07-16", "severity": 3, "source": "gdacs"}}, {"type": "Feature", "geometry": {"type": "Point", "coordinates": [127.45825753180218, -14.606896233417059]}, "properties": {"title": "Green forest fire notification in Australia", "summary": "Green forest fire notification in Australia", "date": "2026-07-16", "severity": 3, "source": "gdacs"}}, {"type": "Feature", "geometry": {"type": "Point", "coordinates": [142.22434932679118, -14.896643273192227]}, "properties": {"title": "Green forest fire notification in Australia", "summary": "Green forest fire notification in Australia", "date": "2026-07-16", "severity": 3, "source": "gdacs"}}, {"type": "Feature", "geometry": {"type": "Point", "coordinates": [126.63220290713501, -16.77958387240196]}, "properties": {"title": "Green forest fire notification in Australia", "summary": "Green forest fire notification in Australia", "date": "2026-07-16", "severity": 3, "source": "gdacs"}}, {"type": "Feature", "geometry": {"type": "Point", "coordinates": [132.60327188110907, -12.410906396323567]}, "properties": {"title": "Green forest fire notification in Australia", "summary": "Green forest fire notification in Australia", "date": "2026-07-16", "severity": 3, "source": "gdacs"}}, {"type": "Feature", "geometry": {"type": "Point", "coordinates": [132.07222483049586, -13.792865679826528]}, "properties": {"title": "Green forest fire notification in Australia", "summary": "Green forest fire notification in Australia", "date": "2026-07-16", "severity": 3, "source": "gdacs"}}, {"type": "Feature", "geometry": {"type": "Point", "coordinates": [-72.9575043, -36.6170801]}, "properties": {"title": "Green flood alert in Chile", "summary": "Green flood alert in Chile", "date": "2026-07-16", "severity": 3, "source": "gdacs"}}, {"type": "Feature", "geometry": {"type": "Point", "coordinates": [-117.71370245912561, 65.2593658066451]}, "properties": {"title": "Green forest fire notification in Canada", "summary": "Green forest fire notification in Canada", "date": "2026-07-16", "severity": 3, "source": "gdacs"}}, {"type": "Feature", "geometry": {"type": "Point", "coordinates": [142.40445923233636, -15.436922814021335]}, "properties": {"title": "Green forest fire notification in Australia", "summary": "Green forest fire notification in Australia", "date": "2026-07-16", "severity": 3, "source": "gdacs"}}, {"type": "Feature", "geometry": {"type": "Point", "coordinates": [135.24301843853726, -12.827850441078288]}, "properties": {"title": "Green forest fire notification in Australia", "summary": "Green forest fire notification in Australia", "date": "2026-07-16", "severity": 3, "source": "gdacs"}}, {"type": "Feature", "geometry": {"type": "Point", "coordinates": [16.870980652910536, -10.347481095053105]}, "properties": {"title": "Green forest fire notification in Angola", "summary": "Green forest fire notification in Angola", "date": "2026-07-16", "severity": 3, "source": "gdacs"}}, {"type": "Feature", "geometry": {"type": "Point", "coordinates": [17.575484949117, -10.742875028082214]}, "properties": {"title": "Green forest fire notification in Angola", "summary": "Green forest fire notification in Angola", "date": "2026-07-16", "severity": 3, "source": "gdacs"}}, {"type": "Feature", "geometry": {"type": "Point", "coordinates": [-119.45035077031524, 65.40690676322639]}, "properties": {"title": "Green forest fire notification in Canada", "summary": "Green forest fire notification in Canada", "date": "2026-07-16", "severity": 3, "source": "gdacs"}}, {"type": "Feature", "geometry": {"type": "Point", "coordinates": [-120.04363332505673, 65.10829445459187]}, "properties": {"title": "Green forest fire notification in Canada", "summary": "Green forest fire notification in Canada", "date": "2026-07-16", "severity": 3, "source": "gdacs"}}, {"type": "Feature", "geometry": {"type": "Point", "coordinates": [133.47058138822112, -12.162883090884133]}, "properties": {"title": "Green forest fire notification in Australia", "summary": "Green forest fire notification in Australia", "date": "2026-07-16", "severity": 3, "source": "gdacs"}}, {"type": "Feature", "geometry": {"type": "Point", "coordinates": [132.04205685423767, -12.915224283767499]}, "properties": {"title": "Green forest fire notification in Australia", "summary": "Green forest fire notification in Australia", "date": "2026-07-16", "severity": 3, "source": "gdacs"}}, {"type": "Feature", "geometry": {"type": "Point", "coordinates": [136.44710992054894, 62.121269531288505]}, "properties": {"title": "Green forest fire notification in Russian Federation", "summary": "Green forest fire notification in Russian Federation", "date": "2026-07-16", "severity": 3, "source": "gdacs"}}, {"type": "Feature", "geometry": {"type": "Point", "coordinates": [133.4285281128904, -12.337927202892658]}, "properties": {"title": "Green forest fire notification in Australia", "summary": "Green forest fire notification in Australia", "date": "2026-07-16", "severity": 3, "source": "gdacs"}}, {"type": "Feature", "geometry": {"type": "Point", "coordinates": [134.68167168127388, -13.201604138994478]}, "properties": {"title": "Green forest fire notification in Australia", "summary": "Green forest fire notification in Australia", "date": "2026-07-16", "severity": 3, "source": "gdacs"}}, {"type": "Feature", "geometry": {"type": "Point", "coordinates": [23.5139982, 60.6299165]}, "properties": {"title": "Green flood alert in Finland", "summary": "Green flood alert in Finland", "date": "2026-07-16", "severity": 3, "source": "gdacs"}}, {"type": "Feature", "geometry": {"type": "Point", "coordinates": [125.01467380664133, -16.331689336650136]}, "properties": {"title": "Green forest fire notification in Australia", "summary": "Green forest fire notification in Australia", "date": "2026-07-16", "severity": 3, "source": "gdacs"}}, {"type": "Feature", "geometry": {"type": "Point", "coordinates": [16.448561339730677, -7.693148136241457]}, "properties": {"title": "Green forest fire notification in Angola", "summary": "Green forest fire notification in Angola", "date": "2026-07-16", "severity": 3, "source": "gdacs"}}, {"type": "Feature", "geometry": {"type": "Point", "coordinates": [20.10283259398769, -7.956856323235221]}, "properties": {"title": "Green forest fire notification in Angola", "summary": "Green forest fire notification in Angola", "date": "2026-07-16", "severity": 3, "source": "gdacs"}}, {"type": "Feature", "geometry": {"type": "Point", "coordinates": [-118.28637911367703, 66.54651634586648]}, "properties": {"title": "Green forest fire notification in Canada", "summary": "Green forest fire notification in Canada", "date": "2026-07-16", "severity": 3, "source": "gdacs"}}, {"type": "Feature", "geometry": {"type": "Point", "coordinates": [90.60162904665118, 59.0104985928772]}, "properties": {"title": "Green forest fire notification in Russian Federation", "summary": "Green forest fire notification in Russian Federation", "date": "2026-07-16", "severity": 3, "source": "gdacs"}}, {"type": "Feature", "geometry": {"type": "Point", "coordinates": [90.38338146587, 59.695575816312235]}, "properties": {"title": "Green forest fire notification in Russian Federation", "summary": "Green forest fire notification in Russian Federation", "date": "2026-07-16", "severity": 3, "source": "gdacs"}}, {"type": "Feature", "geometry": {"type": "Point", "coordinates": [-78.75977434027396, 50.88234492612499]}, "properties": {"title": "Green forest fire notification in Canada", "summary": "Green forest fire notification in Canada", "date": "2026-07-16", "severity": 3, "source": "gdacs"}}, {"type": "Feature", "geometry": {"type": "Point", "coordinates": [-78.52982814838369, 51.66877852011612]}, "properties": {"title": "Green forest fire notification in Canada", "summary": "Green forest fire notification in Canada", "date": "2026-07-16", "severity": 3, "source": "gdacs"}}, {"type": "Feature", "geometry": {"type": "Point", "coordinates": [28.826619082559876, -25.32011465531303]}, "properties": {"title": "Green forest fire notification in South Africa", "summary": "Green forest fire notification in South Africa", "date": "2026-07-16", "severity": 3, "source": "gdacs"}}, {"type": "Feature", "geometry": {"type": "Point", "coordinates": [95.3728479, 16.9897397]}, "properties": {"title": "Green flood alert in Myanmar", "summary": "Green flood alert in Myanmar", "date": "2026-07-16", "severity": 3, "source": "gdacs"}}, {"type": "Feature", "geometry": {"type": "Point", "coordinates": [21.01375978271781, -9.025491900258128]}, "properties": {"title": "Green forest fire notification in Angola", "summary": "Green forest fire notification in Angola", "date": "2026-07-16", "severity": 3, "source": "gdacs"}}, {"type": "Feature", "geometry": {"type": "Point", "coordinates": [29.656695235844026, -10.800536044596917]}, "properties": {"title": "Green forest fire notification in Zambia", "summary": "Green forest fire notification in Zambia", "date": "2026-07-16", "severity": 3, "source": "gdacs"}}, {"type": "Feature", "geometry": {"type": "Point", "coordinates": [17.34830549273943, -9.06387143847326]}, "properties": {"title": "Green forest fire notification in Angola", "summary": "Green forest fire notification in Angola", "date": "2026-07-16", "severity": 3, "source": "gdacs"}}, {"type": "Feature", "geometry": {"type": "Point", "coordinates": [-116.46510087669799, 64.44788690186785]}, "properties": {"title": "Green forest fire notification in Canada", "summary": "Green forest fire notification in Canada", "date": "2026-07-16", "severity": 3, "source": "gdacs"}}, {"type": "Feature", "geometry": {"type": "Point", "coordinates": [16.970031111986152, -10.81966620245237]}, "properties": {"title": "Green forest fire notification in Angola", "summary": "Green forest fire notification in Angola", "date": "2026-07-16", "severity": 3, "source": "gdacs"}}, {"type": "Feature", "geometry": {"type": "Point", "coordinates": [130.83737836010835, -13.57649624254269]}, "properties": {"title": "Green forest fire notification in Australia", "summary": "Green forest fire notification in Australia", "date": "2026-07-16", "severity": 3, "source": "gdacs"}}, {"type": "Feature", "geometry": {"type": "Point", "coordinates": [141.9870744889038, -13.170396771084645]}, "properties": {"title": "Green forest fire notification in Australia", "summary": "Green forest fire notification in Australia", "date": "2026-07-16", "severity": 3, "source": "gdacs"}}, {"type": "Feature", "geometry": {"type": "Point", "coordinates": [133.71600739619447, -12.551079836976399]}, "properties": {"title": "Green forest fire notification in Australia", "summary": "Green forest fire notification in Australia", "date": "2026-07-16", "severity": 3, "source": "gdacs"}}, {"type": "Feature", "geometry": {"type": "Point", "coordinates": [21.18542380926225, -9.310037165663433]}, "properties": {"title": "Green forest fire notification in Angola", "summary": "Green forest fire notification in Angola", "date": "2026-07-16", "severity": 3, "source": "gdacs"}}, {"type": "Feature", "geometry": {"type": "Point", "coordinates": [-121.6866354582993, 64.8008414904663]}, "properties": {"title": "Green forest fire notification in Canada", "summary": "Green forest fire notification in Canada", "date": "2026-07-16", "severity": 3, "source": "gdacs"}}, {"type": "Feature", "geometry": {"type": "Point", "coordinates": [142.55383757652444, -15.219322502338589]}, "properties": {"title": "Green forest fire notification in Australia", "summary": "Green forest fire notification in Australia", "date": "2026-07-16", "severity": 3, "source": "gdacs"}}, {"type": "Feature", "geometry": {"type": "Point", "coordinates": [110.23820195614508, 64.84140239346662]}, "properties": {"title": "Green forest fire notification in Russian Federation", "summary": "Green forest fire notification in Russian Federation", "date": "2026-07-16", "severity": 3, "source": "gdacs"}}, {"type": "Feature", "geometry": {"type": "Point", "coordinates": [137.25109213741598, -17.851105157804778]}, "properties": {"title": "Green forest fire notification in Australia", "summary": "Green forest fire notification in Australia", "date": "2026-07-16", "severity": 3, "source": "gdacs"}}, {"type": "Feature", "geometry": {"type": "Point", "coordinates": [-119.048984216012, 65.60201698527075]}, "properties": {"title": "Green forest fire notification in Canada", "summary": "Green forest fire notification in Canada", "date": "2026-07-16", "severity": 3, "source": "gdacs"}}, {"type": "Feature", "geometry": {"type": "Point", "coordinates": [-119.12095680409465, 65.49456929620406]}, "properties": {"title": "Green forest fire notification in Canada", "summary": "Green forest fire notification in Canada", "date": "2026-07-16", "severity": 3, "source": "gdacs"}}, {"type": "Feature", "geometry": {"type": "Point", "coordinates": [133.8823552105241, -14.208626559840045]}, "properties": {"title": "Green forest fire notification in Australia", "summary": "Green forest fire notification in Australia", "date": "2026-07-16", "severity": 3, "source": "gdacs"}}, {"type": "Feature", "geometry": {"type": "Point", "coordinates": [23.751935916961042, -7.7864370282474615]}, "properties": {"title": "Green forest fire notification in The Democratic Republic of Congo", "summary": "Green forest fire notification in The Democratic Republic of Congo", "date": "2026-07-16", "severity": 3, "source": "gdacs"}}, {"type": "Feature", "geometry": {"type": "Point", "coordinates": [86.6197009590182, 59.19151091572727]}, "properties": {"title": "Green forest fire notification in Russian Federation", "summary": "Green forest fire notification in Russian Federation", "date": "2026-07-16", "severity": 3, "source": "gdacs"}}, {"type": "Feature", "geometry": {"type": "Point", "coordinates": [16.69268966883263, -10.765043226607391]}, "properties": {"title": "Green forest fire notification in Angola", "summary": "Green forest fire notification in Angola", "date": "2026-07-16", "severity": 3, "source": "gdacs"}}, {"type": "Feature", "geometry": {"type": "Point", "coordinates": [-54.356860868193415, -13.285041204870474]}, "properties": {"title": "Green forest fire notification in Brazil", "summary": "Green forest fire notification in Brazil", "date": "2026-07-16", "severity": 3, "source": "gdacs"}}, {"type": "Feature", "geometry": {"type": "Point", "coordinates": [18.09330272741304, -7.566220222786984]}, "properties": {"title": "Green forest fire notification in The Democratic Republic of Congo", "summary": "Green forest fire notification in The Democratic Republic of Congo", "date": "2026-07-16", "severity": 3, "source": "gdacs"}}, {"type": "Feature", "geometry": {"type": "Point", "coordinates": [-121.42137167971181, 49.986332852196846]}, "properties": {"title": "Green forest fire notification in Canada", "summary": "Green forest fire notification in Canada", "date": "2026-07-16", "severity": 3, "source": "gdacs"}}, {"type": "Feature", "geometry": {"type": "Point", "coordinates": [137.61724686663067, -18.184535238604642]}, "properties": {"title": "Green forest fire notification in Australia", "summary": "Green forest fire notification in Australia", "date": "2026-07-16", "severity": 3, "source": "gdacs"}}, {"type": "Feature", "geometry": {"type": "Point", "coordinates": [-78.77582466915916, 50.18785276157116]}, "properties": {"title": "Green forest fire notification in Canada", "summary": "Green forest fire notification in Canada", "date": "2026-07-16", "severity": 3, "source": "gdacs"}}, {"type": "Feature", "geometry": {"type": "Point", "coordinates": [24.744782728747047, -11.273635767889884]}, "properties": {"title": "Green forest fire notification in The Democratic Republic of Congo, Zambia", "summary": "Green forest fire notification in The Democratic Republic of Congo, Zambia", "date": "2026-07-16", "severity": 3, "source": "gdacs"}}, {"type": "Feature", "geometry": {"type": "Point", "coordinates": [17.125364703619013, -8.342634604409417]}, "properties": {"title": "Green forest fire notification in Angola", "summary": "Green forest fire notification in Angola", "date": "2026-07-16", "severity": 3, "source": "gdacs"}}, {"type": "Feature", "geometry": {"type": "Point", "coordinates": [-78.47620340569878, 50.498567333494776]}, "properties": {"title": "Green forest fire notification in Canada", "summary": "Green forest fire notification in Canada", "date": "2026-07-16", "severity": 3, "source": "gdacs"}}, {"type": "Feature", "geometry": {"type": "Point", "coordinates": [90.4189623706789, 59.38852177551932]}, "properties": {"title": "Green forest fire notification in Russian Federation", "summary": "Green forest fire notification in Russian Federation", "date": "2026-07-16", "severity": 3, "source": "gdacs"}}, {"type": "Feature", "geometry": {"type": "Point", "coordinates": [142.18802823827932, -13.30077041123622]}, "properties": {"title": "Green forest fire notification in Australia", "summary": "Green forest fire notification in Australia", "date": "2026-07-16", "severity": 3, "source": "gdacs"}}, {"type": "Feature", "geometry": {"type": "Point", "coordinates": [141.9989800679208, -13.24963068324353]}, "properties": {"title": "Green forest fire notification in Australia", "summary": "Green forest fire notification in Australia", "date": "2026-07-16", "severity": 3, "source": "gdacs"}}, {"type": "Feature", "geometry": {"type": "Point", "coordinates": [15.046298695484392, -10.352753881725087]}, "properties": {"title": "Green forest fire notification in Angola", "summary": "Green forest fire notification in Angola", "date": "2026-07-16", "severity": 3, "source": "gdacs"}}, {"type": "Feature", "geometry": {"type": "Point", "coordinates": [-117.5754748110533, 65.72236858120581]}, "properties": {"title": "Green forest fire notification in Canada", "summary": "Green forest fire notification in Canada", "date": "2026-07-16", "severity": 3, "source": "gdacs"}}, {"type": "Feature", "geometry": {"type": "Point", "coordinates": [-117.3451019165007, 66.38126356483146]}, "properties": {"title": "Green forest fire notification in Canada", "summary": "Green forest fire notification in Canada", "date": "2026-07-16", "severity": 3, "source": "gdacs"}}, {"type": "Feature", "geometry": {"type": "Point", "coordinates": [-78.18754782295917, 51.61957872638936]}, "properties": {"title": "Green forest fire notification in Canada", "summary": "Green forest fire notification in Canada", "date": "2026-07-16", "severity": 3, "source": "gdacs"}}, {"type": "Feature", "geometry": {"type": "Point", "coordinates": [-119.74950402293773, 63.64506195309418]}, "properties": {"title": "Green forest fire notification in Canada", "summary": "Green forest fire notification in Canada", "date": "2026-07-16", "severity": 3, "source": "gdacs"}}, {"type": "Feature", "geometry": {"type": "Point", "coordinates": [99.6734592, 19.7589517]}, "properties": {"title": "Green flood alert in Thailand", "summary": "Green flood alert in Thailand", "date": "2026-07-16", "severity": 3, "source": "gdacs"}}, {"type": "Feature", "geometry": {"type": "Point", "coordinates": [143.63693266666093, -14.319078406736619]}, "properties": {"title": "Green forest fire notification in Australia", "summary": "Green forest fire notification in Australia", "date": "2026-07-16", "severity": 3, "source": "gdacs"}}, {"type": "Feature", "geometry": {"type": "Point", "coordinates": [135.55234411530944, -12.332785747979354]}, "properties": {"title": "Green forest fire notification in Australia", "summary": "Green forest fire notification in Australia", "date": "2026-07-16", "severity": 3, "source": "gdacs"}}, {"type": "Feature", "geometry": {"type": "Point", "coordinates": [17.706718586401777, -11.48400439735096]}, "properties": {"title": "Green forest fire notification in Angola", "summary": "Green forest fire notification in Angola", "date": "2026-07-16", "severity": 3, "source": "gdacs"}}, {"type": "Feature", "geometry": {"type": "Point", "coordinates": [18.37939748351854, -7.302887836248137]}, "properties": {"title": "Green forest fire notification in The Democratic Republic of Congo", "summary": "Green forest fire notification in The Democratic Republic of Congo", "date": "2026-07-16", "severity": 3, "source": "gdacs"}}, {"type": "Feature", "geometry": {"type": "Point", "coordinates": [133.673032475534, -12.422840135195523]}, "properties": {"title": "Green forest fire notification in Australia", "summary": "Green forest fire notification in Australia", "date": "2026-07-16", "severity": 3, "source": "gdacs"}}, {"type": "Feature", "geometry": {"type": "Point", "coordinates": [24.819214991695624, -3.9757984366907833]}, "properties": {"title": "Green forest fire notification in The Democratic Republic of Congo", "summary": "Green forest fire notification in The Democratic Republic of Congo", "date": "2026-07-16", "severity": 3, "source": "gdacs"}}, {"type": "Feature", "geometry": {"type": "Point", "coordinates": [18.508237966546055, -7.591695402648864]}, "properties": {"title": "Green forest fire notification in The Democratic Republic of Congo", "summary": "Green forest fire notification in The Democratic Republic of Congo", "date": "2026-07-16", "severity": 3, "source": "gdacs"}}, {"type": "Feature", "geometry": {"type": "Point", "coordinates": [18.431903413317382, -7.477382709368394]}, "properties": {"title": "Green forest fire notification in The Democratic Republic of Congo", "summary": "Green forest fire notification in The Democratic Republic of Congo", "date": "2026-07-16", "severity": 3, "source": "gdacs"}}, {"type": "Feature", "geometry": {"type": "Point", "coordinates": [24.412197445975032, -3.98406749994163]}, "properties": {"title": "Green forest fire notification in The Democratic Republic of Congo", "summary": "Green forest fire notification in The Democratic Republic of Congo", "date": "2026-07-16", "severity": 3, "source": "gdacs"}}, {"type": "Feature", "geometry": {"type": "Point", "coordinates": [-91.2766912352465, 48.59518383485279]}, "properties": {"title": "Green forest fire notification in Canada", "summary": "Green forest fire notification in Canada", "date": "2026-07-16", "severity": 3, "source": "gdacs"}}, {"type": "Feature", "geometry": {"type": "Point", "coordinates": [137.0656837347968, -35.76389855651332]}, "properties": {"title": "Green forest fire notification in Australia", "summary": "Green forest fire notification in Australia", "date": "2026-07-16", "severity": 3, "source": "gdacs"}}, {"type": "Feature", "geometry": {"type": "Point", "coordinates": [-117.44729860488665, 65.18743860596668]}, "properties": {"title": "Green forest fire notification in Canada", "summary": "Green forest fire notification in Canada", "date": "2026-07-16", "severity": 3, "source": "gdacs"}}, {"type": "Feature", "geometry": {"type": "Point", "coordinates": [-104.99506407955568, 38.053044951437734]}, "properties": {"title": "Green forest fire notification in United States", "summary": "Green forest fire notification in United States", "date": "2026-07-16", "severity": 3, "source": "gdacs"}}, {"type": "Feature", "geometry": {"type": "Point", "coordinates": [17.843538868399346, -10.803587238258169]}, "properties": {"title": "Green forest fire notification in Angola", "summary": "Green forest fire notification in Angola", "date": "2026-07-16", "severity": 3, "source": "gdacs"}}, {"type": "Feature", "geometry": {"type": "Point", "coordinates": [18.359879934591515, -7.091562633831142]}, "properties": {"title": "Green forest fire notification in The Democratic Republic of Congo", "summary": "Green forest fire notification in The Democratic Republic of Congo", "date": "2026-07-16", "severity": 3, "source": "gdacs"}}, {"type": "Feature", "geometry": {"type": "Point", "coordinates": [16.837274879448604, -10.74097188002368]}, "properties": {"title": "Green forest fire notification in Angola", "summary": "Green forest fire notification in Angola", "date": "2026-07-16", "severity": 3, "source": "gdacs"}}, {"type": "Feature", "geometry": {"type": "Point", "coordinates": [-98.301389, 18.976944]}, "properties": {"title": "Green flood alert in Mexico", "summary": "Green flood alert in Mexico", "date": "2026-07-16", "severity": 3, "source": "gdacs"}}, {"type": "Feature", "geometry": {"type": "Point", "coordinates": [-108.68527637983696, 37.73670061089752]}, "properties": {"title": "Green forest fire notification in United States", "summary": "Green forest fire notification in United States", "date": "2026-07-16", "severity": 3, "source": "gdacs"}}, {"type": "Feature", "geometry": {"type": "Point", "coordinates": [-107.62387694446645, 38.12490645985922]}, "properties": {"title": "Green forest fire notification in United States", "summary": "Green forest fire notification in United States", "date": "2026-07-16", "severity": 3, "source": "gdacs"}}, {"type": "Feature", "geometry": {"type": "Point", "coordinates": [-109.72862041384373, 37.83364590069933]}, "properties": {"title": "Green forest fire notification in United States", "summary": "Green forest fire notification in United States", "date": "2026-07-16", "severity": 3, "source": "gdacs"}}, {"type": "Feature", "geometry": {"type": "Point", "coordinates": [-109.73926869702822, 63.11770509004085]}, "properties": {"title": "Green forest fire notification in Canada", "summary": "Green forest fire notification in Canada", "date": "2026-07-16", "severity": 3, "source": "gdacs"}}, {"type": "Feature", "geometry": {"type": "Point", "coordinates": [-102.90614251332929, 56.36013834941144]}, "properties": {"title": "Green forest fire notification in Canada", "summary": "Green forest fire notification in Canada", "date": "2026-07-16", "severity": 3, "source": "gdacs"}}, {"type": "Feature", "geometry": {"type": "Point", "coordinates": [122.6181417, 7.7992252]}, "properties": {"title": "Green flood alert in Philippines", "summary": "Green flood alert in Philippines", "date": "2026-07-16", "severity": 3, "source": "gdacs"}}, {"type": "Feature", "geometry": {"type": "Point", "coordinates": [118.3664993, 40.2428514]}, "properties": {"title": "Orange flood alert in China", "summary": "Orange flood alert in China", "date": "2026-07-16", "severity": 7, "source": "gdacs"}}, {"type": "Feature", "geometry": {"type": "Point", "coordinates": [-85.866, 12.313]}, "properties": {"title": "Drought is on going in Costa Rica, Honduras, Nicaragua, El Salvador", "summary": "Drought is on going in Costa Rica, Honduras, Nicaragua, El Salvador", "date": "2026-07-16", "severity": 3, "source": "gdacs"}}, {"type": "Feature", "geometry": {"type": "Point", "coordinates": [-97.7407278, 30.3234611]}, "properties": {"title": "Green flood alert in United States", "summary": "Green flood alert in United States", "date": "2026-07-16", "severity": 3, "source": "gdacs"}}, {"type": "Feature", "geometry": {"type": "Point", "coordinates": [73.053, 48.279]}, "properties": {"title": "Drought is on going in Kazakhstan", "summary": "Drought is on going in Kazakhstan", "date": "2026-07-16", "severity": 3, "source": "gdacs"}}, {"type": "Feature", "geometry": {"type": "Point", "coordinates": [44.618, 6.545]}, "properties": {"title": "Drought is on going in Ethiopia, Kenya, Somalia", "summary": "Drought is on going in Ethiopia, Kenya, Somalia", "date": "2026-07-16", "severity": 3, "source": "gdacs"}}, {"type": "Feature", "geometry": {"type": "Point", "coordinates": [-75.074, 5.716]}, "properties": {"title": "Drought is on going in Colombia, Ecuador, Panama, Venezuela", "summary": "Drought is on going in Colombia, Ecuador, Panama, Venezuela", "date": "2026-07-16", "severity": 3, "source": "gdacs"}}, {"type": "Feature", "geometry": {"type": "Point", "coordinates": [105.544, 13.027]}, "properties": {"title": "Drought is on going in China, Indonesia, Cambodia, Laos, Malaysia, Philippines, Thailand, Vietnam", "summary": "Drought is on going in China, Indonesia, Cambodia, Laos, Malaysia, Philippines, Thailand, Vietnam", "date": "2026-07-16", "severity": 3, "source": "gdacs"}}, {"type": "Feature", "geometry": {"type": "Point", "coordinates": [-102.825, 41.674]}, "properties": {"title": "Drought is on going in United States", "summary": "Drought is on going in United States", "date": "2026-07-16", "severity": 3, "source": "gdacs"}}, {"type": "Feature", "geometry": {"type": "Point", "coordinates": [11.835, -0.672]}, "properties": {"title": "Drought is on going in Republic of Congo, Gabon, Equatorial Guinea", "summary": "Drought is on going in Republic of Congo, Gabon, Equatorial Guinea", "date": "2026-07-16", "severity": 3, "source": "gdacs"}}, {"type": "Feature", "geometry": {"type": "Point", "coordinates": [17.752, 51.484]}, "properties": {"title": "Drought is on going in Albania, Austria, Bosnia & Herzegovina, Belarus, Switzerland, Czech Republic,", "summary": "Drought is on going in Albania, Austria, Bosnia & Herzegovina, Belarus, Switzerland, Czech Republic, Germany, Denmark, Estonia, Spain, Finland, France, Croatia, Hungary, Italy, Liechtenstein, Lithuania, Luxembourg, Latvia, Montenegro, Netherlands, Poland, Romania, Serbia, Russia, Sweden, Slovenia, Slovakia, Ukraine, ", "date": "2026-07-16", "severity": 3, "source": "gdacs"}}, {"type": "Feature", "geometry": {"type": "Point", "coordinates": [47.047, -19.279]}, "properties": {"title": "Drought is on going in Madagascar", "summary": "Drought is on going in Madagascar", "date": "2026-07-16", "severity": 3, "source": "gdacs"}}, {"type": "Feature", "geometry": {"type": "Point", "coordinates": [-93.0, 32.501]}, "properties": {"title": "Drought is on going in Mexico, United States", "summary": "Drought is on going in Mexico, United States", "date": "2026-07-16", "severity": 3, "source": "gdacs"}}, {"type": "Feature", "geometry": {"type": "Point", "coordinates": [-50.347, -11.302]}, "properties": {"title": "Drought is on going in Brazil", "summary": "Drought is on going in Brazil", "date": "2026-07-16", "severity": 3, "source": "gdacs"}}]}