{
  "type": "FeatureCollection",
  "features": [
    {
      "type": "Feature",
      "geometry": {
        "type": "Point",
        "coordinates": [
          30.52,
          50.45
        ]
      },
      "properties": {
        "title": "Russian missile strike on Kyiv - 17 killed",
        "summary": "Russian missile strike on Kyiv - 17 killed",
        "date": "2026-08-05",
        "severity": 9,
        "source": "acled"
      }
    },
    {
      "type": "Feature",
      "geometry": {
        "type": "Point",
        "coordinates": [
          37.62,
          55.75
        ]
      },
      "properties": {
        "title": "Russian strike: 5 killed Moscow region (Wildberries retaliation)",
        "summary": "Russian strike: 5 killed Moscow region (Wildberries retaliation)",
        "date": "2026-08-05",
        "severity": 7,
        "source": "acled"
      }
    },
    {
      "type": "Feature",
      "geometry": {
        "type": "Point",
        "coordinates": [
          34.1,
          44.95
        ]
      },
      "properties": {
        "title": "Crimea: Soldier kills 4 in rampage",
        "summary": "Crimea: Soldier kills 4 in rampage",
        "date": "2026-08-05",
        "severity": 6,
        "source": "acled"
      }
    },
    {
      "type": "Feature",
      "geometry": {
        "type": "Point",
        "coordinates": [
          38.74,
          9.03
        ]
      },
      "properties": {
        "title": "Deadly landslide, Ethiopia mountain monastery",
        "summary": "Landslide hits monastery during prayer service, multiple killed",
        "date": "2026-08-04",
        "severity": 7,
        "source": "gdacs"
      }
    },
    {
      "type": "Feature",
      "geometry": {
        "type": "Point",
        "coordinates": [
          -90.88,
          14.47
        ]
      },
      "properties": {
        "title": "Fuego volcano eruption - 1,700 evacuated",
        "summary": "Fuego volcano Guatemala: ash/mud flows, 1,700 evacuated",
        "date": "2026-08-05",
        "severity": 7,
        "source": "gdacs"
      }
    },
    {
      "type": "Feature",
      "geometry": {
        "type": "Point",
        "coordinates": [
          137.0,
          33.0
        ]
      },
      "properties": {
        "title": "Super Typhoon Dolphin approaching Japan",
        "summary": "Super Typhoon Dolphin: Japan preparing, war games delayed",
        "date": "2026-08-05",
        "severity": 8,
        "source": "gdacs"
      }
    },
    {
      "type": "Feature",
      "geometry": {
        "type": "Point",
        "coordinates": [
          -46.63,
          -23.55
        ]
      },
      "properties": {
        "title": "Massive chemical factory fire, Brazil",
        "summary": "Chemical factory fire forces evacuations near Sao Paulo",
        "date": "2026-08-05",
        "severity": 6,
        "source": "firms"
      }
    }
  ]
}