{
  "type": "FeatureCollection",
  "features": [
    {
      "type": "Feature",
      "geometry": {
        "type": "Point",
        "coordinates": [
          125.5,
          5.5
        ]
      },
      "properties": {
        "title": "Philippines M6.6 Earthquake (GDACS Orange)",
        "summary": "M6.6 at 10km depth, Sarangani/Davao Occidental. Aftershock of June 8 M7.8. Phivolcs reported Intensity V in Kiamba. 590,000 population exposure.",
        "date": "2026-06-26",
        "severity": 6,
        "source": "gdacs"
      }
    },
    {
      "type": "Feature",
      "geometry": {
        "type": "Point",
        "coordinates": [
          138.7,
          35.5
        ]
      },
      "properties": {
        "title": "Japan M5.7 near Oshino",
        "summary": "M5.7 earthquake near Oshino, Japan on June 27 UTC.",
        "date": "2026-06-27",
        "severity": 4,
        "source": "gdacs"
      }
    },
    {
      "type": "Feature",
      "geometry": {
        "type": "Point",
        "coordinates": [
          66.0,
          33.0
        ]
      },
      "properties": {
        "title": "Afghanistan M6.1 Earthquake",
        "summary": "M6.1 at 208km depth June 27 UTC. Deep focus limits surface damage. 140,000 population exposed to MMI IV.",
        "date": "2026-06-27",
        "severity": 4,
        "source": "gdacs"
      }
    },
    {
      "type": "Feature",
      "geometry": {
        "type": "Point",
        "coordinates": [
          141.5,
          39.5
        ]
      },
      "properties": {
        "title": "Japan M5.8 near Iwate",
        "summary": "M5.8 earthquake near Iwate Prefecture Japan. 27.8M people exposed to MMI IV.",
        "date": "2026-06-26",
        "severity": 5,
        "source": "gdacs"
      }
    },
    {
      "type": "Feature",
      "geometry": {
        "type": "Point",
        "coordinates": [
          55.96,
          54.73
        ]
      },
      "properties": {
        "title": "Ufa Oil Refineries Strike (FIRMS thermal)",
        "summary": "Ukrainian drone strikes hit two of three Ufa refineries (Bashneft-Ufaneftekhim, Bashneft-Novoil). Combined 22M ton/yr capacity. 870 miles from Ukraine border. Thermal anomaly confirmed.",
        "date": "2026-06-25",
        "severity": 7,
        "source": "firms"
      }
    },
    {
      "type": "Feature",
      "geometry": {
        "type": "Point",
        "coordinates": [
          55.1,
          51.77
        ]
      },
      "properties": {
        "title": "Orenburg Gas Processing Plant Strike",
        "summary": "Ukrainian drones struck Russia's only helium plant in Orenburg region. Also produces ethane used in solid rocket fuel. 1,200+ km from frontline. Ukrainian General Staff confirmed.",
        "date": "2026-06-24",
        "severity": 7,
        "source": "firms"
      }
    },
    {
      "type": "Feature",
      "geometry": {
        "type": "Point",
        "coordinates": [
          34.1,
          44.95
        ]
      },
      "properties": {
        "title": "Crimea State of Emergency Declared",
        "summary": "Russian-installed Aksyonov declared emergency. Power outages in Sevastopol, fuel shortages, tourism suspended, children's camps closed. Follow-on Ukrainian infrastructure strikes.",
        "date": "2026-06-26",
        "severity": 6,
        "source": "acled"
      }
    },
    {
      "type": "Feature",
      "geometry": {
        "type": "Point",
        "coordinates": [
          35.18,
          47.84
        ]
      },
      "properties": {
        "title": "Russian Strike on Zaporizhzhia (Jun 29)",
        "summary": "Russian strike killed 2 people including a 53-year-old woman, injured 17 civilians in Zaporizhzhia city.",
        "date": "2026-06-29",
        "severity": 5,
        "source": "acled"
      }
    },
    {
      "type": "Feature",
      "geometry": {
        "type": "Point",
        "coordinates": [
          -68.75,
          10.34
        ]
      },
      "properties": {
        "title": "Venezuela Twin Earthquakes M7.2+M7.5",
        "summary": "M7.2 foreshock then M7.5 mainshock 39 seconds apart on June 24-25. San Felipe, Yaracuy epicenter. 1,430+ dead, 68,900+ missing, 3,238 injured. USGS models potential 100,000 deaths. La Guaira port disrupted.",
        "date": "2026-06-24",
        "severity": 10,
        "source": "usgs"
      }
    },
    {
      "type": "Feature",
      "geometry": {
        "type": "Point",
        "coordinates": [
          56.5,
          26.5
        ]
      },
      "properties": {
        "title": "Strait of Hormuz Shipping Disruption",
        "summary": "Iran enforcing Tehran-approved routing. 45 incidents since US-Iran war. June 25 ceasefire breach incident. Reuters: 35 vessels preparing to cross June 27. Bloomberg: 3 ships turned back via Oman route.",
        "date": "2026-06-27",
        "severity": 8,
        "source": "acled"
      }
    },
    {
      "type": "Feature",
      "geometry": {
        "type": "Point",
        "coordinates": [
          34.47,
          31.52
        ]
      },
      "properties": {
        "title": "IDF Airstrikes Gaza (ongoing)",
        "summary": "Israeli airstrikes on Gaza City and Al-Maghazi camp June 26. Israeli child killed. Reduced-intensity operations continuing post-ceasefire framework.",
        "date": "2026-06-26",
        "severity": 6,
        "source": "acled"
      }
    },
    {
      "type": "Feature",
      "geometry": {
        "type": "Point",
        "coordinates": [
          35.5,
          33.4
        ]
      },
      "properties": {
        "title": "Israeli strikes in Lebanon (ongoing)",
        "summary": "Israeli warplanes conducted 6 airstrikes in southern Lebanon in the past week. Strike near Zawtar and Mayfadoun killed 3, injured 1. Hezbollah drone airbase discovered underground near Israel border.",
        "date": "2026-06-27",
        "severity": 6,
        "source": "acled"
      }
    },
    {
      "type": "Feature",
      "geometry": {
        "type": "Point",
        "coordinates": [
          141.4,
          35.5
        ]
      },
      "properties": {
        "title": "Typhoon Mekkhala (Extratropical Jun 27)",
        "summary": "Former Category 4 (145mph peak). Two deaths in Taiwan, three in Japan. Strongest June typhoon in 22 years. Extratropical by June 27.",
        "date": "2026-06-27",
        "severity": 5,
        "source": "gdacs"
      }
    }
  ]
}