{
  "type": "FeatureCollection",
  "features": [
    {
      "type": "Feature",
      "geometry": {
        "type": "Point",
        "coordinates": [
          32.225,
          52.808
        ]
      },
      "properties": {
        "title": "FIRMS Ukraine: thermal anomaly 52.8\u00b0N,32.2\u00b0E",
        "summary": "FRP 0.99 MW, VIIRS S-NPP",
        "date": "2026-06-22",
        "severity": 4,
        "source": "firms"
      }
    },
    {
      "type": "Feature",
      "geometry": {
        "type": "Point",
        "coordinates": [
          33.347,
          52.295
        ]
      },
      "properties": {
        "title": "FIRMS Ukraine: thermal anomaly 52.3\u00b0N,33.3\u00b0E",
        "summary": "FRP 1.94 MW, VIIRS S-NPP",
        "date": "2026-06-22",
        "severity": 4,
        "source": "firms"
      }
    },
    {
      "type": "Feature",
      "geometry": {
        "type": "Point",
        "coordinates": [
          34.263,
          51.933
        ]
      },
      "properties": {
        "title": "FIRMS Ukraine: thermal anomaly 51.9\u00b0N,34.3\u00b0E (Sumy Oblast)",
        "summary": "FRP 3.2 MW, VIIRS S-NPP",
        "date": "2026-06-22",
        "severity": 4,
        "source": "firms"
      }
    },
    {
      "type": "Feature",
      "geometry": {
        "type": "Point",
        "coordinates": [
          29.988,
          52.848
        ]
      },
      "properties": {
        "title": "FIRMS Ukraine: thermal anomaly 52.8\u00b0N,30.0\u00b0E (Chernihiv region)",
        "summary": "FRP 2.34 MW, VIIRS S-NPP",
        "date": "2026-06-22",
        "severity": 4,
        "source": "firms"
      }
    },
    {
      "type": "Feature",
      "geometry": {
        "type": "Point",
        "coordinates": [
          30.221,
          50.842
        ]
      },
      "properties": {
        "title": "FIRMS Ukraine: thermal anomaly 50.8\u00b0N,30.2\u00b0E",
        "summary": "FRP 1.58 MW, VIIRS S-NPP",
        "date": "2026-06-22",
        "severity": 4,
        "source": "firms"
      }
    },
    {
      "type": "Feature",
      "geometry": {
        "type": "Point",
        "coordinates": [
          51.26,
          25.91
        ]
      },
      "properties": {
        "title": "Qatar Ras Laffan LNG Explosion",
        "summary": "Barzan gas processing plant explosion: 13 dead (12 Indian nationals, 1 Pakistani), 66 injured. June 22, 2026.",
        "date": "2026-06-22",
        "severity": 8,
        "source": "gdacs"
      }
    },
    {
      "type": "Feature",
      "geometry": {
        "type": "Point",
        "coordinates": [
          -1.5,
          51.5
        ]
      },
      "properties": {
        "title": "UK Extreme Heat - Red Warning",
        "summary": "Temperatures forecast to reach 38-40\u00b0C. Red extreme heat warning issued. Major travel disruption.",
        "date": "2026-06-24",
        "severity": 6,
        "source": "gdacs"
      }
    },
    {
      "type": "Feature",
      "geometry": {
        "type": "Point",
        "coordinates": [
          19.0,
          47.5
        ]
      },
      "properties": {
        "title": "Hungary Flood Alert",
        "summary": "Green flood alert, June 22-24. River flooding.",
        "date": "2026-06-22",
        "severity": 3,
        "source": "gdacs"
      }
    },
    {
      "type": "Feature",
      "geometry": {
        "type": "Point",
        "coordinates": [
          35.2,
          39.9
        ]
      },
      "properties": {
        "title": "Turkey Flood Alert",
        "summary": "Green flood alert June 28-30. 0 deaths reported.",
        "date": "2026-06-28",
        "severity": 3,
        "source": "gdacs"
      }
    },
    {
      "type": "Feature",
      "geometry": {
        "type": "Point",
        "coordinates": [
          148.0,
          16.0
        ]
      },
      "properties": {
        "title": "Tropical Depression HIGOS-26",
        "summary": "Max winds 65 km/h. Affects Northern Mariana Islands and Guam. June 22-24.",
        "date": "2026-06-22",
        "severity": 4,
        "source": "gdacs"
      }
    },
    {
      "type": "Feature",
      "geometry": {
        "type": "Point",
        "coordinates": [
          38.5,
          35.0
        ]
      },
      "properties": {
        "title": "Syria Forest Fire",
        "summary": "Forest fire notification, June 23, 2026.",
        "date": "2026-06-23",
        "severity": 3,
        "source": "firms"
      }
    },
    {
      "type": "Feature",
      "geometry": {
        "type": "Point",
        "coordinates": [
          34.36,
          31.5
        ]
      },
      "properties": {
        "title": "Gaza Conflict - Ongoing",
        "summary": "Continued hostilities. GDELT conflict themes active.",
        "date": "2026-06-23",
        "severity": 8,
        "source": "acled"
      }
    }
  ]
}