{
  "type": "FeatureCollection",
  "features": [
    {
      "type": "Feature",
      "geometry": {
        "type": "Point",
        "coordinates": [
          46.0086,
          51.5406
        ]
      },
      "properties": {
        "title": "Ukrainian strike on Saratov oil refinery",
        "summary": "Ukraine's General Staff confirmed strike on Rosneft Saratov refinery (ELOU-AVT-6 distillation unit, 6M tonne/yr capacity). Major fire reported.",
        "date": "2026-08-02",
        "severity": 7,
        "source": "acled"
      }
    },
    {
      "type": "Feature",
      "geometry": {
        "type": "Point",
        "coordinates": [
          55.9721,
          54.7388
        ]
      },
      "properties": {
        "title": "Ukrainian drone strike on Bashneft-UNPZ, Ufa",
        "summary": "Second consecutive night of Ukrainian drone strikes on Bashneft refinery in Ufa (7M tonne/yr), 1,700+ km from Ukrainian border. Fire confirmed.",
        "date": "2026-08-02",
        "severity": 7,
        "source": "acled"
      }
    },
    {
      "type": "Feature",
      "geometry": {
        "type": "Point",
        "coordinates": [
          46.2186,
          51.5144
        ]
      },
      "properties": {
        "title": "Ukrainian strike on Engels-2 airbase",
        "summary": "Engels-2 strategic aviation base (Tu-160, Tu-95MS, Tu-22M3 bombers) struck. General Staff confirmed.",
        "date": "2026-08-02",
        "severity": 8,
        "source": "acled"
      }
    },
    {
      "type": "Feature",
      "geometry": {
        "type": "Point",
        "coordinates": [
          47.6355,
          42.8929
        ]
      },
      "properties": {
        "title": "Kaspiysk port drone attack (Dagestan)",
        "summary": "Drones targeted port in Kaspiysk, Dagestan on Black/Caspian Sea. Russia reported.",
        "date": "2026-07-31",
        "severity": 5,
        "source": "acled"
      }
    },
    {
      "type": "Feature",
      "geometry": {
        "type": "Point",
        "coordinates": [
          37.6176,
          55.7558
        ]
      },
      "properties": {
        "title": "Moscow restaurant bombing (Balzi Rossi)",
        "summary": "Bomb in gift box exploded outside Balzi Rossi restaurant. 3 dead, 21 injured. Intended target: General Alexander Chayko, Commander-in-Chief of Russian Aerospace Forces.",
        "date": "2026-08-01",
        "severity": 7,
        "source": "acled"
      }
    },
    {
      "type": "Feature",
      "geometry": {
        "type": "Point",
        "coordinates": [
          50.1503,
          53.1959
        ]
      },
      "properties": {
        "title": "Wildberries warehouse drone strike (Samara oblast)",
        "summary": "17th Ukrainian drone strike on Wildberries warehouses. Samara oblast facility set ablaze.",
        "date": "2026-08-02",
        "severity": 5,
        "source": "acled"
      }
    },
    {
      "type": "Feature",
      "geometry": {
        "type": "Point",
        "coordinates": [
          73.3242,
          54.9885
        ]
      },
      "properties": {
        "title": "Omsk oil refinery strike",
        "summary": "Smoke reported rising from Omsk oil refinery after explosions per liveuamap.",
        "date": "2026-08-01",
        "severity": 6,
        "source": "acled"
      }
    },
    {
      "type": "Feature",
      "geometry": {
        "type": "Point",
        "coordinates": [
          36.2304,
          49.9935
        ]
      },
      "properties": {
        "title": "Kharkiv explosion",
        "summary": "Explosion reported in Kharkiv.",
        "date": "2026-07-31",
        "severity": 5,
        "source": "acled"
      }
    },
    {
      "type": "Feature",
      "geometry": {
        "type": "Point",
        "coordinates": [
          56.2478,
          26.5574
        ]
      },
      "properties": {
        "title": "Strait of Hormuz closed to normal traffic",
        "summary": "Hormuz Strait remains closed following US-Iran conflict. 34% of global seaborne crude trade disrupted. Oman-mediated negotiations ongoing.",
        "date": "2026-08-01",
        "severity": 9,
        "source": "gdacs"
      }
    },
    {
      "type": "Feature",
      "geometry": {
        "type": "Point",
        "coordinates": [
          56.4241,
          26.1997
        ]
      },
      "properties": {
        "title": "Ship targeted near Khasab, Oman (Strait of Hormuz)",
        "summary": "Ship targeted and explosions reported 21 nautical miles NE of Khasab. Strait of Hormuz incident.",
        "date": "2026-08-01",
        "severity": 7,
        "source": "acled"
      }
    },
    {
      "type": "Feature",
      "geometry": {
        "type": "Point",
        "coordinates": [
          51.5051,
          30.1197
        ]
      },
      "properties": {
        "title": "Iranian ground forces HQ strike (Noorabad, Fars)",
        "summary": "Ground forces HQ in Noorabad, Fars Province hit three times. IRGC facility.",
        "date": "2026-08-01",
        "severity": 7,
        "source": "acled"
      }
    },
    {
      "type": "Feature",
      "geometry": {
        "type": "Point",
        "coordinates": [
          35.8243,
          33.1255
        ]
      },
      "properties": {
        "title": "IDF raid - Quneitra (Syria)",
        "summary": "Israeli army arrests in Taranga after night raids. Quneitra Governorate.",
        "date": "2026-07-27",
        "severity": 4,
        "source": "acled"
      }
    },
    {
      "type": "Feature",
      "geometry": {
        "type": "Point",
        "coordinates": [
          34.2968,
          31.3469
        ]
      },
      "properties": {
        "title": "Israel raid - Khan Younis (Gaza)",
        "summary": "Palestinian Civil Defense: 1 dead, 1 wounded in Israeli raid on Mawasi Khan Younis, southern Gaza Strip.",
        "date": "2026-07-31",
        "severity": 5,
        "source": "acled"
      }
    },
    {
      "type": "Feature",
      "geometry": {
        "type": "Point",
        "coordinates": [
          47.7839,
          30.5085
        ]
      },
      "properties": {
        "title": "US-Saudi strikes on Iran-aligned militias, Basra",
        "summary": "Saudi airstrike targeted Iran-aligned militias in Basra Governorate, Iraq.",
        "date": "2026-07-28",
        "severity": 6,
        "source": "acled"
      }
    },
    {
      "type": "Feature",
      "geometry": {
        "type": "Point",
        "coordinates": [
          44.0,
          32.0
        ]
      },
      "properties": {
        "title": "US CENTCOM precision strikes, Iraq (Iran-aligned militias)",
        "summary": "US CENTCOM and Saudi armed forces conducted precision strikes in Iraq against Iranian proxy militias.",
        "date": "2026-07-29",
        "severity": 7,
        "source": "acled"
      }
    },
    {
      "type": "Feature",
      "geometry": {
        "type": "Point",
        "coordinates": [
          178.3287,
          -37.73
        ]
      },
      "properties": {
        "title": "GDACS: EQ M5.6 New Zealand (Green)",
        "summary": "Magnitude 5.6M, depth 52.8km, North Island NZ. 30,000 people in MMI IV. Green alert.",
        "date": "2026-08-02",
        "severity": 3,
        "source": "gdacs"
      }
    },
    {
      "type": "Feature",
      "geometry": {
        "type": "Point",
        "coordinates": [
          -121.0,
          38.5
        ]
      },
      "properties": {
        "title": "GDACS: Wildfire United States (Green)",
        "summary": "Forest fire notification, United States, Aug 2 2026.",
        "date": "2026-08-02",
        "severity": 3,
        "source": "gdacs"
      }
    },
    {
      "type": "Feature",
      "geometry": {
        "type": "Point",
        "coordinates": [
          92.9,
          26.2
        ]
      },
      "properties": {
        "title": "Assam floods - 1.35 lakh affected",
        "summary": "135,000 people affected by floods in Assam, India. 85 total deaths reported.",
        "date": "2026-08-03",
        "severity": 5,
        "source": "gdacs"
      }
    },
    {
      "type": "Feature",
      "geometry": {
        "type": "Point",
        "coordinates": [
          35.451,
          33.377
        ]
      },
      "properties": {
        "title": "Lebanon - Nabatieh Israeli drone attack",
        "summary": "Israeli drone launched attack between Nabatieh al-Fawqa and Mayfadoun; Israeli artillery also fired.",
        "date": "2026-07-31",
        "severity": 5,
        "source": "acled"
      }
    }
  ]
}