{
  "type": "FeatureCollection",
  "features": [
    {
      "type": "Feature",
      "geometry": {
        "type": "Point",
        "coordinates": [
          128.4,
          17.4
        ]
      },
      "properties": {
        "title": "Orange notification for tropical cyclone ELEVEN-26. Population affected by Categ",
        "summary": "Orange notification for tropical cyclone ELEVEN-26. Population affected by Category 1 (120 km/h) wind speeds or higher is 17.242 million .",
        "date": "2026-07-23",
        "severity": 7,
        "source": "gdacs"
      }
    },
    {
      "type": "Feature",
      "geometry": {
        "type": "Point",
        "coordinates": [
          -75.3034,
          -12.1036
        ]
      },
      "properties": {
        "title": "Orange earthquake (Magnitude 5.5M, Depth:10km) in Peru 19/07/2026 02:24 UTC, 240",
        "summary": "Orange earthquake (Magnitude 5.5M, Depth:10km) in Peru 19/07/2026 02:24 UTC, 240 thousand (in MMI>=VII).",
        "date": "2026-07-23",
        "severity": 7,
        "source": "gdacs"
      }
    },
    {
      "type": "Feature",
      "geometry": {
        "type": "Point",
        "coordinates": [
          44.618,
          6.545
        ]
      },
      "properties": {
        "title": "Drought is on going in Ethiopia, Kenya, Somalia",
        "summary": "Drought is on going in Ethiopia, Kenya, Somalia",
        "date": "2026-07-23",
        "severity": 7,
        "source": "gdacs"
      }
    },
    {
      "type": "Feature",
      "geometry": {
        "type": "Point",
        "coordinates": [
          13.109,
          47.877
        ]
      },
      "properties": {
        "title": "Drought is on going in Albania, Austria, Bosnia & Herzegovina, Bulgaria, Belarus",
        "summary": "Drought is on going in Albania, Austria, Bosnia & Herzegovina, Bulgaria, Belarus, Switzerland, Czech Republic, Germany, Denmark, Spain, France, Croatia, Hungary, Italy, Liechtenstein, Monaco, Monteneg",
        "date": "2026-07-23",
        "severity": 7,
        "source": "gdacs"
      }
    },
    {
      "type": "Feature",
      "geometry": {
        "type": "Point",
        "coordinates": [
          47.723,
          -17.44
        ]
      },
      "properties": {
        "title": "Drought is on going in Madagascar",
        "summary": "Drought is on going in Madagascar",
        "date": "2026-07-23",
        "severity": 7,
        "source": "gdacs"
      }
    },
    {
      "type": "Feature",
      "geometry": {
        "type": "Point",
        "coordinates": [
          -86,
          28.5
        ]
      },
      "properties": {
        "title": "Tropical Storm Bertha",
        "summary": "Severe Storms - Tropical Storm Bertha",
        "date": "2026-07-23",
        "severity": 5,
        "source": "eonet"
      }
    },
    {
      "type": "Feature",
      "geometry": {
        "type": "Point",
        "coordinates": [
          -127.1,
          25.7
        ]
      },
      "properties": {
        "title": "Tropical Storm Elida",
        "summary": "Severe Storms - Tropical Storm Elida",
        "date": "2026-07-23",
        "severity": 5,
        "source": "eonet"
      }
    },
    {
      "type": "Feature",
      "geometry": {
        "type": "Point",
        "coordinates": [
          -122.4,
          17.4
        ]
      },
      "properties": {
        "title": "Hurricane Fausto",
        "summary": "Severe Storms - Hurricane Fausto",
        "date": "2026-07-23",
        "severity": 5,
        "source": "eonet"
      }
    }
  ]
}