{
  "type": "FeatureCollection",
  "features": [
    {
      "type": "Feature",
      "geometry": {
        "type": "Point",
        "coordinates": [
          33.0,
          47.8
        ]
      },
      "properties": {
        "title": "Ukraine frontline (Zaporizhzhia sector)",
        "summary": "Ongoing heavy fighting, 214 Russian attacks repelled in 24h",
        "date": "2026-07-17",
        "severity": 9,
        "source": "acled"
      }
    },
    {
      "type": "Feature",
      "geometry": {
        "type": "Point",
        "coordinates": [
          30.52,
          50.45
        ]
      },
      "properties": {
        "title": "Russian mass strike on Kyiv area",
        "summary": "28 killed in strikes on Kyiv area including Vyshneve; 123 missiles/drones, 108 intercepted",
        "date": "2026-07-17",
        "severity": 9,
        "source": "acled"
      }
    },
    {
      "type": "Feature",
      "geometry": {
        "type": "Point",
        "coordinates": [
          30.44,
          50.31
        ]
      },
      "properties": {
        "title": "Vyshneve Russian strike damage",
        "summary": "200+ facilities damaged, 7 railway dormitories hit",
        "date": "2026-07-17",
        "severity": 8,
        "source": "acled"
      }
    },
    {
      "type": "Feature",
      "geometry": {
        "type": "Point",
        "coordinates": [
          73.4,
          55.0
        ]
      },
      "properties": {
        "title": "Omsk refinery struck",
        "summary": "Ukrainian drone strike on Omsk refinery (2500km from border), Day 1594",
        "date": "2026-07-17",
        "severity": 7,
        "source": "firms"
      }
    },
    {
      "type": "Feature",
      "geometry": {
        "type": "Point",
        "coordinates": [
          36.47,
          45.37
        ]
      },
      "properties": {
        "title": "Kerch port fire",
        "summary": "Fire reported at Kerch port overnight",
        "date": "2026-07-17",
        "severity": 6,
        "source": "firms"
      }
    },
    {
      "type": "Feature",
      "geometry": {
        "type": "Point",
        "coordinates": [
          60.75,
          25.5
        ]
      },
      "properties": {
        "title": "US CENTCOM strikes Iranian military bases",
        "summary": "CENTCOM targeting Iranian bases to degrade maritime attack capacity in Strait of Hormuz",
        "date": "2026-07-17",
        "severity": 9,
        "source": "acled"
      }
    },
    {
      "type": "Feature",
      "geometry": {
        "type": "Point",
        "coordinates": [
          60.44,
          27.2
        ]
      },
      "properties": {
        "title": "US strike on Iranian Army base Bampur",
        "summary": "Iranian Army Ground Forces base struck, 7 officers killed according to Iran",
        "date": "2026-07-17",
        "severity": 8,
        "source": "acled"
      }
    },
    {
      "type": "Feature",
      "geometry": {
        "type": "Point",
        "coordinates": [
          52.58,
          29.6
        ]
      },
      "properties": {
        "title": "Explosions reported in Shiraz",
        "summary": "Reports of explosions in Shiraz, Fars Province, Iran",
        "date": "2026-07-17",
        "severity": 7,
        "source": "acled"
      }
    },
    {
      "type": "Feature",
      "geometry": {
        "type": "Point",
        "coordinates": [
          47.99,
          29.37
        ]
      },
      "properties": {
        "title": "Iranian drone attacks on Kuwait",
        "summary": "Kuwaiti air defenses intercepting Iranian drone attacks",
        "date": "2026-07-17",
        "severity": 8,
        "source": "acled"
      }
    },
    {
      "type": "Feature",
      "geometry": {
        "type": "Point",
        "coordinates": [
          44.01,
          36.19
        ]
      },
      "properties": {
        "title": "Drone strike on Erbil airport/US consulate",
        "summary": "Powerful explosion, air defenses shot down two drones targeting airport and US consulate",
        "date": "2026-07-17",
        "severity": 8,
        "source": "acled"
      }
    },
    {
      "type": "Feature",
      "geometry": {
        "type": "Point",
        "coordinates": [
          36.59,
          50.6
        ]
      },
      "properties": {
        "title": "Russian Mi-28 helicopter downed",
        "summary": "Ukrainian FPV drone shot down Russian Mi-28 helicopter over Belgorod region",
        "date": "2026-07-17",
        "severity": 6,
        "source": "acled"
      }
    },
    {
      "type": "Feature",
      "geometry": {
        "type": "Point",
        "coordinates": [
          34.46,
          31.5
        ]
      },
      "properties": {
        "title": "Halhul Israeli forces incursion",
        "summary": "Israeli forces stormed Halhul north of Hebron",
        "date": "2026-07-17",
        "severity": 7,
        "source": "acled"
      }
    },
    {
      "type": "Feature",
      "geometry": {
        "type": "Point",
        "coordinates": [
          44.2,
          15.3
        ]
      },
      "properties": {
        "title": "Houthi ceasefire ended",
        "summary": "Houthis declared ceasefire ended; oil tanker targeted off Yemen Red Sea",
        "date": "2026-07-17",
        "severity": 8,
        "source": "acled"
      }
    },
    {
      "type": "Feature",
      "geometry": {
        "type": "Point",
        "coordinates": [
          37.6,
          55.75
        ]
      },
      "properties": {
        "title": "Drone raid on Moscow region",
        "summary": "Drones raided Moscow region, local authorities report shooting them down",
        "date": "2026-07-17",
        "severity": 6,
        "source": "acled"
      }
    }
  ]
}