{
  "type": "FeatureCollection",
  "features": [
    {
      "type": "Feature",
      "geometry": {
        "type": "Point",
        "coordinates": [
          0,
          0
        ]
      },
      "properties": {
        "title": "M 5.8 - 130 km W of Ternate, Indonesia",
        "summary": "M 5.8 - 130 km W of Ternate, Indonesia",
        "date": "2026-07-23",
        "severity": 4,
        "source": "usgs"
      }
    },
    {
      "type": "Feature",
      "geometry": {
        "type": "Point",
        "coordinates": [
          0,
          0
        ]
      },
      "properties": {
        "title": "M 5.1 - 92 km SE of Atka, Alaska",
        "summary": "M 5.1 - 92 km SE of Atka, Alaska",
        "date": "2026-07-23",
        "severity": 4,
        "source": "usgs"
      }
    },
    {
      "type": "Feature",
      "geometry": {
        "type": "Point",
        "coordinates": [
          0,
          0
        ]
      },
      "properties": {
        "title": "M 5.1 - 85 km SE of Tatsug\u014d, Japan",
        "summary": "M 5.1 - 85 km SE of Tatsug\u014d, Japan",
        "date": "2026-07-23",
        "severity": 4,
        "source": "usgs"
      }
    },
    {
      "type": "Feature",
      "geometry": {
        "type": "Point",
        "coordinates": [
          0,
          0
        ]
      },
      "properties": {
        "title": "M 5.1 - central Mid-Atlantic Ridge",
        "summary": "M 5.1 - central Mid-Atlantic Ridge",
        "date": "2026-07-23",
        "severity": 4,
        "source": "usgs"
      }
    },
    {
      "type": "Feature",
      "geometry": {
        "type": "Point",
        "coordinates": [
          0,
          0
        ]
      },
      "properties": {
        "title": "M 5.0 - 38 km SSE of Spearman, Texas",
        "summary": "M 5.0 - 38 km SSE of Spearman, Texas",
        "date": "2026-07-23",
        "severity": 4,
        "source": "usgs"
      }
    },
    {
      "type": "Feature",
      "geometry": {
        "type": "Point",
        "coordinates": [
          0,
          0
        ]
      },
      "properties": {
        "title": "Tropical Cyclone NOUL-26",
        "summary": "[Orange] Tropical Cyclone NOUL-26",
        "date": "2026-07-23",
        "severity": 6,
        "source": "gdacs"
      }
    },
    {
      "type": "Feature",
      "geometry": {
        "type": "Point",
        "coordinates": [
          0,
          0
        ]
      },
      "properties": {
        "title": "Drought in Madagascar",
        "summary": "[Orange] Drought in Madagascar",
        "date": "2026-07-23",
        "severity": 6,
        "source": "gdacs"
      }
    },
    {
      "type": "Feature",
      "geometry": {
        "type": "Point",
        "coordinates": [
          0,
          0
        ]
      },
      "properties": {
        "title": "Drought in Ethiopia, Kenya, Somalia",
        "summary": "[Orange] Drought in Ethiopia, Kenya, Somalia",
        "date": "2026-07-23",
        "severity": 6,
        "source": "gdacs"
      }
    },
    {
      "type": "Feature",
      "geometry": {
        "type": "Point",
        "coordinates": [
          0,
          0
        ]
      },
      "properties": {
        "title": "Drought in Albania, Austria, Bosnia  and  Herzegovina, Bulgaria, Belarus, Switzerland, Czech Republic, Germany, Denmark, Spain, France, Croatia, Hungary, Italy, Liechtenstein, Monaco, Montenegro, The Republic of North Macedonia, Poland, Romania, Serbia, Russia, Sweden, Slovakia, San Marino, Ukraine, , ",
        "summary": "[Orange] Drought in Albania, Austria, Bosnia  and  Herzegovina, Bulgaria, Belarus, Switzerland, Czech Republic, Germany, Denmark, Spain, France, Croatia, Hungary, Italy, Liechtenstein, Monaco, Montenegro, The Republic of North Macedonia, Poland, Romania, Serbia, Russia, Sweden, Slovakia, San Marino, Ukraine, , ",
        "date": "2026-07-23",
        "severity": 6,
        "source": "gdacs"
      }
    },
    {
      "type": "Feature",
      "geometry": {
        "type": "Point",
        "coordinates": [
          52.5,
          29.6
        ]
      },
      "properties": {
        "title": "US airstrike on Shiraz, Iran (no casualties per official)",
        "summary": "US airstrike on Shiraz, Iran (no casualties per official)",
        "date": "2026-07-23",
        "severity": 7,
        "source": "acled"
      }
    },
    {
      "type": "Feature",
      "geometry": {
        "type": "Point",
        "coordinates": [
          47.8,
          29.4
        ]
      },
      "properties": {
        "title": "Iranian strikes on Ali Al Salem Air Base, Kuwait",
        "summary": "Iranian strikes on Ali Al Salem Air Base, Kuwait",
        "date": "2026-07-23",
        "severity": 8,
        "source": "acled"
      }
    },
    {
      "type": "Feature",
      "geometry": {
        "type": "Point",
        "coordinates": [
          40.5,
          18.5
        ]
      },
      "properties": {
        "title": "Yemen Houthi attack on Saudi tanker, Red Sea",
        "summary": "Yemen Houthi attack on Saudi tanker, Red Sea",
        "date": "2026-07-23",
        "severity": 7,
        "source": "acled"
      }
    },
    {
      "type": "Feature",
      "geometry": {
        "type": "Point",
        "coordinates": [
          56.0,
          53.5
        ]
      },
      "properties": {
        "title": "Ukraine drone attack - Subkhanulovo oil pumping station, Bashkiriya",
        "summary": "Ukraine drone attack - Subkhanulovo oil pumping station, Bashkiriya",
        "date": "2026-07-23",
        "severity": 6,
        "source": "acled"
      }
    },
    {
      "type": "Feature",
      "geometry": {
        "type": "Point",
        "coordinates": [
          37.6,
          55.7
        ]
      },
      "properties": {
        "title": "Ukraine attack - Wildberries logistics, Moscow/Tambov regions",
        "summary": "Ukraine attack - Wildberries logistics, Moscow/Tambov regions",
        "date": "2026-07-23",
        "severity": 6,
        "source": "acled"
      }
    },
    {
      "type": "Feature",
      "geometry": {
        "type": "Point",
        "coordinates": [
          34.2,
          44.5
        ]
      },
      "properties": {
        "title": "Ukraine drone attack - Yalta power substation, Crimea",
        "summary": "Ukraine drone attack - Yalta power substation, Crimea",
        "date": "2026-07-23",
        "severity": 5,
        "source": "acled"
      }
    },
    {
      "type": "Feature",
      "geometry": {
        "type": "Point",
        "coordinates": [
          36.6,
          50.6
        ]
      },
      "properties": {
        "title": "Ukraine strikes fuel stations, Belgorod Oblast (20 in 5 days)",
        "summary": "Ukraine strikes fuel stations, Belgorod Oblast (20 in 5 days)",
        "date": "2026-07-23",
        "severity": 5,
        "source": "acled"
      }
    },
    {
      "type": "Feature",
      "geometry": {
        "type": "Point",
        "coordinates": [
          31.9,
          46.5
        ]
      },
      "properties": {
        "title": "Ukrainian forces on Kinburn Spit (Russian retreat)",
        "summary": "Ukrainian forces on Kinburn Spit (Russian retreat)",
        "date": "2026-07-23",
        "severity": 6,
        "source": "acled"
      }
    },
    {
      "type": "Feature",
      "geometry": {
        "type": "Point",
        "coordinates": [
          37.8,
          48.0
        ]
      },
      "properties": {
        "title": "Russian bomb attacks on eastern Ukraine cities",
        "summary": "Russian bomb attacks on eastern Ukraine cities",
        "date": "2026-07-23",
        "severity": 7,
        "source": "acled"
      }
    },
    {
      "type": "Feature",
      "geometry": {
        "type": "Point",
        "coordinates": [
          34.3,
          31.3
        ]
      },
      "properties": {
        "title": "Israel IDF strike, Khan Younis, Gaza",
        "summary": "Israel IDF strike, Khan Younis, Gaza",
        "date": "2026-07-23",
        "severity": 7,
        "source": "acled"
      }
    },
    {
      "type": "Feature",
      "geometry": {
        "type": "Point",
        "coordinates": [
          35.2,
          31.8
        ]
      },
      "properties": {
        "title": "Israeli settler storming Al-Aqsa Mosque compound, Jerusalem",
        "summary": "Israeli settler storming Al-Aqsa Mosque compound, Jerusalem",
        "date": "2026-07-23",
        "severity": 6,
        "source": "acled"
      }
    },
    {
      "type": "Feature",
      "geometry": {
        "type": "Point",
        "coordinates": [
          48.0,
          29.3
        ]
      },
      "properties": {
        "title": "Iran targeting Kuwait desalination plants",
        "summary": "Iran targeting Kuwait desalination plants",
        "date": "2026-07-23",
        "severity": 8,
        "source": "acled"
      }
    },
    {
      "type": "Feature",
      "geometry": {
        "type": "Point",
        "coordinates": [
          55.9,
          28.3
        ]
      },
      "properties": {
        "title": "Explosion Haji Abad missile site, Hormozgan province, Iran",
        "summary": "Explosion Haji Abad missile site, Hormozgan province, Iran",
        "date": "2026-07-23",
        "severity": 7,
        "source": "acled"
      }
    },
    {
      "type": "Feature",
      "geometry": {
        "type": "Point",
        "coordinates": [
          24.9,
          12.1
        ]
      },
      "properties": {
        "title": "Airstrikes Nyala, Sudan (3rd consecutive day)",
        "summary": "Airstrikes Nyala, Sudan (3rd consecutive day)",
        "date": "2026-07-23",
        "severity": 7,
        "source": "acled"
      }
    },
    {
      "type": "Feature",
      "geometry": {
        "type": "Point",
        "coordinates": [
          -0.9,
          44.9
        ]
      },
      "properties": {
        "title": "Wildfire Saumos / Gironde region, France",
        "summary": "Wildfire Saumos / Gironde region, France",
        "date": "2026-07-23",
        "severity": 5,
        "source": "acled"
      }
    },
    {
      "type": "Feature",
      "geometry": {
        "type": "Point",
        "coordinates": [
          -3.7,
          40.4
        ]
      },
      "properties": {
        "title": "Madrid region wildfire evacuations, Spain",
        "summary": "Madrid region wildfire evacuations, Spain",
        "date": "2026-07-23",
        "severity": 5,
        "source": "acled"
      }
    }
  ]
}