{
  "type": "FeatureCollection",
  "features": [
    {
      "type": "Feature",
      "geometry": {
        "type": "Point",
        "coordinates": [
          29.63626,
          49.76793
        ]
      },
      "properties": {
        "title": "FIRMS Thermal Anomaly (FRP 1.57 MW)",
        "summary": "VIIRS thermal anomaly detected, FRP 1.57 MW",
        "date": "2026-07-10",
        "severity": 2,
        "source": "firms"
      }
    },
    {
      "type": "Feature",
      "geometry": {
        "type": "Point",
        "coordinates": [
          29.63328,
          49.76657
        ]
      },
      "properties": {
        "title": "FIRMS Thermal Anomaly (FRP 0.95 MW)",
        "summary": "VIIRS thermal anomaly detected, FRP 0.95 MW",
        "date": "2026-07-10",
        "severity": 1,
        "source": "firms"
      }
    },
    {
      "type": "Feature",
      "geometry": {
        "type": "Point",
        "coordinates": [
          22.10168,
          44.08181
        ]
      },
      "properties": {
        "title": "FIRMS Thermal Anomaly (FRP 0.91 MW)",
        "summary": "VIIRS thermal anomaly detected, FRP 0.91 MW",
        "date": "2026-07-10",
        "severity": 1,
        "source": "firms"
      }
    },
    {
      "type": "Feature",
      "geometry": {
        "type": "Point",
        "coordinates": [
          22.10349,
          44.08025
        ]
      },
      "properties": {
        "title": "FIRMS Thermal Anomaly (FRP 1.08 MW)",
        "summary": "VIIRS thermal anomaly detected, FRP 1.08 MW",
        "date": "2026-07-10",
        "severity": 1,
        "source": "firms"
      }
    },
    {
      "type": "Feature",
      "geometry": {
        "type": "Point",
        "coordinates": [
          25.28123,
          45.95442
        ]
      },
      "properties": {
        "title": "FIRMS Thermal Anomaly (FRP 1.37 MW)",
        "summary": "VIIRS thermal anomaly detected, FRP 1.37 MW",
        "date": "2026-07-10",
        "severity": 2,
        "source": "firms"
      }
    },
    {
      "type": "Feature",
      "geometry": {
        "type": "Point",
        "coordinates": [
          31.6765,
          45.25758
        ]
      },
      "properties": {
        "title": "FIRMS Thermal Anomaly (FRP 10.14 MW)",
        "summary": "VIIRS thermal anomaly detected, FRP 10.14 MW",
        "date": "2026-07-10",
        "severity": 10,
        "source": "firms"
      }
    },
    {
      "type": "Feature",
      "geometry": {
        "type": "Point",
        "coordinates": [
          30.90361,
          45.35509
        ]
      },
      "properties": {
        "title": "FIRMS Thermal Anomaly (FRP 3.23 MW)",
        "summary": "VIIRS thermal anomaly detected, FRP 3.23 MW",
        "date": "2026-07-10",
        "severity": 4,
        "source": "firms"
      }
    },
    {
      "type": "Feature",
      "geometry": {
        "type": "Point",
        "coordinates": [
          28.743,
          45.71844
        ]
      },
      "properties": {
        "title": "FIRMS Thermal Anomaly (FRP 5.09 MW)",
        "summary": "VIIRS thermal anomaly detected, FRP 5.09 MW",
        "date": "2026-07-10",
        "severity": 7,
        "source": "firms"
      }
    },
    {
      "type": "Feature",
      "geometry": {
        "type": "Point",
        "coordinates": [
          32.41478,
          46.41919
        ]
      },
      "properties": {
        "title": "FIRMS Thermal Anomaly (FRP 3.92 MW)",
        "summary": "VIIRS thermal anomaly detected, FRP 3.92 MW",
        "date": "2026-07-10",
        "severity": 5,
        "source": "firms"
      }
    },
    {
      "type": "Feature",
      "geometry": {
        "type": "Point",
        "coordinates": [
          29.5755,
          46.86722
        ]
      },
      "properties": {
        "title": "FIRMS Thermal Anomaly (FRP 5.9 MW)",
        "summary": "VIIRS thermal anomaly detected, FRP 5.9 MW",
        "date": "2026-07-10",
        "severity": 8,
        "source": "firms"
      }
    },
    {
      "type": "Feature",
      "geometry": {
        "type": "Point",
        "coordinates": [
          30.22509,
          51.40527
        ]
      },
      "properties": {
        "title": "FIRMS Thermal Anomaly (FRP 7.32 MW)",
        "summary": "VIIRS thermal anomaly detected, FRP 7.32 MW",
        "date": "2026-07-10",
        "severity": 10,
        "source": "firms"
      }
    },
    {
      "type": "Feature",
      "geometry": {
        "type": "Point",
        "coordinates": [
          29.34528,
          51.8918
        ]
      },
      "properties": {
        "title": "FIRMS Thermal Anomaly (FRP 3.54 MW)",
        "summary": "VIIRS thermal anomaly detected, FRP 3.54 MW",
        "date": "2026-07-10",
        "severity": 5,
        "source": "firms"
      }
    },
    {
      "type": "Feature",
      "geometry": {
        "type": "Point",
        "coordinates": [
          36.494,
          45.347
        ]
      },
      "properties": {
        "title": "Kerch port oil terminal fire",
        "summary": "Ukrainian drones struck Kerch port oil/gas terminal, igniting fuel storage tanks. Second attack on this facility.",
        "date": "2026-07-06",
        "severity": 8,
        "source": "acled"
      }
    },
    {
      "type": "Feature",
      "geometry": {
        "type": "Point",
        "coordinates": [
          30.343,
          50.306
        ]
      },
      "properties": {
        "title": "Russian strike on Vyshneve (Kyiv suburb)",
        "summary": "Russian missile/drone strike on Vyshneve, Kyiv suburb. 200+ facilities damaged, 7 railway dormitories hit. Mandatory evacuation ordered in parts of Dnipropetrovsk.",
        "date": "2026-07-07",
        "severity": 9,
        "source": "acled"
      }
    },
    {
      "type": "Feature",
      "geometry": {
        "type": "Point",
        "coordinates": [
          73.369,
          54.936
        ]
      },
      "properties": {
        "title": "Omsk refinery strike (2,500 km from front)",
        "summary": "Ukraine FP-1 drone strike halted Russia's largest oil refinery, eliminating 8.4M tonnes/year processing unit.",
        "date": "2026-07-06",
        "severity": 9,
        "source": "acled"
      }
    },
    {
      "type": "Feature",
      "geometry": {
        "type": "Point",
        "coordinates": [
          36.291,
          33.51
        ]
      },
      "properties": {
        "title": "Damascus explosions near Macron hotel",
        "summary": "Two IEDs detonated near Four Seasons Hotel where Macron was staying. 18 wounded. No group claimed responsibility.",
        "date": "2026-07-07",
        "severity": 7,
        "source": "acled"
      }
    },
    {
      "type": "Feature",
      "geometry": {
        "type": "Point",
        "coordinates": [
          37.612,
          49.715
        ]
      },
      "properties": {
        "title": "Kupyansk direction clashes",
        "summary": "Clashes near Novoplatonivka, Kivsharivka. Ukraine general staff reported active combat operations.",
        "date": "2026-07-09",
        "severity": 6,
        "source": "acled"
      }
    },
    {
      "type": "Feature",
      "geometry": {
        "type": "Point",
        "coordinates": [
          37.543,
          47.096
        ]
      },
      "properties": {
        "title": "Explosions in Mariupol: attack on vessels at sea",
        "summary": "Explosions audible in Mariupol; Ukrainian sources reported attack on Russian vessels in Azov Sea.",
        "date": "2026-07-09",
        "severity": 7,
        "source": "acled"
      }
    },
    {
      "type": "Feature",
      "geometry": {
        "type": "Point",
        "coordinates": [
          44.009,
          36.191
        ]
      },
      "properties": {
        "title": "Drone attack on PJAK camps near Erbil",
        "summary": "Drone attack targeted camps of Iranian Kurdish opposition group PJAK near Erbil, Iraqi Kurdistan.",
        "date": "2026-07-09",
        "severity": 5,
        "source": "acled"
      }
    },
    {
      "type": "Feature",
      "geometry": {
        "type": "Point",
        "coordinates": [
          147.0,
          -37.5
        ]
      },
      "properties": {
        "title": "Australian wildfire (GDACS)",
        "summary": "Forest fire active in Victoria/NSW region, started July 9.",
        "date": "2026-07-09",
        "severity": 3,
        "source": "gdacs"
      }
    },
    {
      "type": "Feature",
      "geometry": {
        "type": "Point",
        "coordinates": [
          123.15,
          10.41
        ]
      },
      "properties": {
        "title": "Kanlaon volcanic eruption (Philippines)",
        "summary": "Volcano Kanlaon emitting ash clouds. GDACS alert active.",
        "date": "2026-07-11",
        "severity": 6,
        "source": "gdacs"
      }
    },
    {
      "type": "Feature",
      "geometry": {
        "type": "Point",
        "coordinates": [
          -78.1,
          34.9
        ]
      },
      "properties": {
        "title": "Rose Hill Bay wildfire, North Carolina",
        "summary": "Wildfire active Duplin County NC (EONET).",
        "date": "2026-07-09",
        "severity": 3,
        "source": "firms"
      }
    },
    {
      "type": "Feature",
      "geometry": {
        "type": "Point",
        "coordinates": [
          -120.4,
          46.9
        ]
      },
      "properties": {
        "title": "Ryegrass Coulee wildfire, Washington State",
        "summary": "Active wildfire Kittitas County WA (EONET).",
        "date": "2026-07-08",
        "severity": 4,
        "source": "firms"
      }
    }
  ]
}