{
  "type": "FeatureCollection",
  "features": [
    {
      "type": "Feature",
      "geometry": {
        "type": "Point",
        "coordinates": [
          50.0,
          29.2
        ]
      },
      "properties": {
        "title": "US strikes IRGC tankers near Kharg Island",
        "summary": "CENTCOM struck M/T Downy and M/T Stark 1, disabling them; M/T Kylo destroyed. Retaliation for IRGC ballistic missile attacks on US Navy ships.",
        "date": "2026-09-05",
        "severity": 8,
        "source": "acled"
      }
    },
    {
      "type": "Feature",
      "geometry": {
        "type": "Point",
        "coordinates": [
          34.2,
          56.5
        ]
      },
      "properties": {
        "title": "IRGC strikes in Strait of Hormuz area",
        "summary": "Iran claims strike on US-linked vessel in Strait of Hormuz as part of escalating tanker war.",
        "date": "2026-09-06",
        "severity": 7,
        "source": "acled"
      }
    },
    {
      "type": "Feature",
      "geometry": {
        "type": "Point",
        "coordinates": [
          47.0,
          34.3
        ]
      },
      "properties": {
        "title": "US strike kills 4 IRGC aerospace members - Kermanshah",
        "summary": "CENTCOM struck IRGC missile launcher in Kermanshah province; IRGC Aerospace: Reza Mohammadi, Shahram Jafari, Alireza Shakiba, Jafar Kahrizi killed.",
        "date": "2026-09-02",
        "severity": 7,
        "source": "acled"
      }
    },
    {
      "type": "Feature",
      "geometry": {
        "type": "Point",
        "coordinates": [
          37.8,
          48.9
        ]
      },
      "properties": {
        "title": "Clashes near Lyman direction - Donetsk Oblast",
        "summary": "Clashes near Novoselivka, Druzhelubivka, and Lyman. Russia launched 167 drones overnight Sep 4-5. ISW: No advances either side Sep 5.",
        "date": "2026-09-06",
        "severity": 6,
        "source": "acled"
      }
    },
    {
      "type": "Feature",
      "geometry": {
        "type": "Point",
        "coordinates": [
          36.2,
          47.5
        ]
      },
      "properties": {
        "title": "IAEA ceasefire - Zaporizhzhia NPP",
        "summary": "Localized IAEA-brokered ceasefire to repair 330kV Ferrosplavna-1 power line. Plant on emergency diesel since Aug 20 damage.",
        "date": "2026-09-05",
        "severity": 9,
        "source": "acled"
      }
    },
    {
      "type": "Feature",
      "geometry": {
        "type": "Point",
        "coordinates": [
          30.5,
          50.5
        ]
      },
      "properties": {
        "title": "Witkoff/Kushner arrive Kyiv for peace talks",
        "summary": "US envoys arrive after meeting Putin in Moscow Sep 5. No-strike order on Kyiv in effect. Talks described as 'useful' but no breakthrough announced.",
        "date": "2026-09-06",
        "severity": 4,
        "source": "acled"
      }
    },
    {
      "type": "Feature",
      "geometry": {
        "type": "Point",
        "coordinates": [
          35.5,
          33.5
        ]
      },
      "properties": {
        "title": "Israeli strikes southern Lebanon kill 4",
        "summary": "Israeli airstrikes on southern Lebanon following alleged Hezbollah drone launch. Netanyahu: 'Qatar is a hostile state.' 9,000 killed in Israeli attacks on Lebanon since 2023.",
        "date": "2026-09-06",
        "severity": 6,
        "source": "acled"
      }
    },
    {
      "type": "Feature",
      "geometry": {
        "type": "Point",
        "coordinates": [
          12.4,
          51.4
        ]
      },
      "properties": {
        "title": "Russian-attributed sabotage - Leipzig airport",
        "summary": "Germany formally blamed Russia for drone-bomb attempt at Leipzig airport Aug 4. Closed Russian House Berlin and Consulate Bonn. Explosives also found at electricity substations.",
        "date": "2026-09-01",
        "severity": 6,
        "source": "acled"
      }
    },
    {
      "type": "Feature",
      "geometry": {
        "type": "Point",
        "coordinates": [
          105.42,
          -6.1
        ]
      },
      "properties": {
        "title": "Anak Krakatau eruption - flights suspended",
        "summary": "30-second eruption ejected ash to 15km. 301 flights cancelled at Soekarno-Hatta International Airport. 6 airports affected.",
        "date": "2026-09-05",
        "severity": 7,
        "source": "gdacs"
      }
    }
  ]
}