{
  "type": "FeatureCollection",
  "features": [
    {
      "type": "Feature",
      "geometry": {
        "type": "Point",
        "coordinates": [
          36.4534072,
          37.2401223
        ]
      },
      "properties": {
        "title": "Green flood alert in T\u00fcrkiye",
        "summary": "On 28/06/2026, a flood started in T\u00fcrkiye, lasting until 30/06/2026 (last update). The flood caused 0 deaths and 0 displaced .",
        "date": "2026-06-20",
        "severity": 3,
        "source": "gdacs"
      }
    },
    {
      "type": "Feature",
      "geometry": {
        "type": "Point",
        "coordinates": [
          -13.2711,
          -7.0346
        ]
      },
      "properties": {
        "title": "Green earthquake (Magnitude 5.5M, Depth:10km) in St. Helena 20/06/2026 06:43 UTC, Few people affecte",
        "summary": "On 6/20/2026 6:43:17 AM, an earthquake occurred in St. Helena potentially affecting Few people affected in MMI III. The earthquake had Magnitude 5.5M, Depth:10km.",
        "date": "2026-06-20",
        "severity": 3,
        "source": "gdacs"
      }
    },
    {
      "type": "Feature",
      "geometry": {
        "type": "Point",
        "coordinates": [
          160.6412,
          52.7287
        ]
      },
      "properties": {
        "title": "Green earthquake (Magnitude 5.8M, Depth:35km) in Russia 20/06/2026 03:49 UTC, 250 thousand in MMI>=I",
        "summary": "On 6/20/2026 3:49:06 AM, an earthquake occurred in Russia potentially affecting 250 thousand in MMI>=III. The earthquake had Magnitude 5.8M, Depth:35km.",
        "date": "2026-06-20",
        "severity": 3,
        "source": "gdacs"
      }
    },
    {
      "type": "Feature",
      "geometry": {
        "type": "Point",
        "coordinates": [
          147.9179,
          -57.129
        ]
      },
      "properties": {
        "title": "Green earthquake (Magnitude 5.7M, Depth:10km) in West Of Macquarie Island 20/06/2026 01:46 UTC, [unk",
        "summary": "On 6/20/2026 1:46:32 AM, an earthquake occurred in West Of Macquarie Island potentially affecting [unknown]. The earthquake had Magnitude 5.7M, Depth:10km.",
        "date": "2026-06-20",
        "severity": 3,
        "source": "gdacs"
      }
    },
    {
      "type": "Feature",
      "geometry": {
        "type": "Point",
        "coordinates": [
          161.1149,
          52.7355
        ]
      },
      "properties": {
        "title": "Green earthquake (Magnitude 5.8M, Depth:10km) in Russia 19/06/2026 07:52 UTC, 240 thousand in MMI>=I",
        "summary": "On 6/19/2026 7:52:57 AM, an earthquake occurred in Russia potentially affecting 240 thousand in MMI>=III. The earthquake had Magnitude 5.8M, Depth:10km.",
        "date": "2026-06-20",
        "severity": 3,
        "source": "gdacs"
      }
    },
    {
      "type": "Feature",
      "geometry": {
        "type": "Point",
        "coordinates": [
          160.5652,
          52.7943
        ]
      },
      "properties": {
        "title": "Green earthquake (Magnitude 6.6M, Depth:10km) in Russia 19/06/2026 06:52 UTC, Few people affected in",
        "summary": "On 6/19/2026 6:52:34 AM, an earthquake occurred in Russia potentially affecting Few people affected in MMI>=V. The earthquake had Magnitude 6.6M, Depth:10km.",
        "date": "2026-06-20",
        "severity": 3,
        "source": "gdacs"
      }
    },
    {
      "type": "Feature",
      "geometry": {
        "type": "Point",
        "coordinates": [
          160.8644,
          52.69
        ]
      },
      "properties": {
        "title": "Green earthquake (Magnitude 6M, Depth:28.383km) in Russia 19/06/2026 06:51 UTC, 8 thousand in MMI IV",
        "summary": "On 6/19/2026 6:51:31 AM, an earthquake occurred in Russia potentially affecting 8 thousand in MMI IV. The earthquake had Magnitude 6M, Depth:28.383km.",
        "date": "2026-06-20",
        "severity": 3,
        "source": "gdacs"
      }
    },
    {
      "type": "Feature",
      "geometry": {
        "type": "Point",
        "coordinates": [
          136.8,
          14.1
        ]
      },
      "properties": {
        "title": "Green notification for tropical cyclone MEKKHALA-26. Population affected by Category 1 (120 km/h) wi",
        "summary": "From 18/06/2026 to 20/06/2026, a Tropical Storm (maximum wind speed of 204 km/h) MEKKHALA-26 was active in NWPacific. The cyclone affects these countries: Japan (vulnerability Low). Estimated populati",
        "date": "2026-06-20",
        "severity": 3,
        "source": "gdacs"
      }
    },
    {
      "type": "Feature",
      "geometry": {
        "type": "Point",
        "coordinates": [
          -74.5373433,
          -8.3907581
        ]
      },
      "properties": {
        "title": "Green flood alert in Peru",
        "summary": "On 18/06/2026, a flood started in Peru, lasting until 20/06/2026 (last update). The flood caused 0 deaths and 0 displaced .",
        "date": "2026-06-20",
        "severity": 3,
        "source": "gdacs"
      }
    },
    {
      "type": "Feature",
      "geometry": {
        "type": "Point",
        "coordinates": [
          26.190831016462056,
          -14.750948203593575
        ]
      },
      "properties": {
        "title": "Green forest fire notification in Zambia",
        "summary": "On 18/06/2026, a forest fire started in Zambia,  until 20/06/2026.",
        "date": "2026-06-20",
        "severity": 3,
        "source": "gdacs"
      }
    },
    {
      "type": "Feature",
      "geometry": {
        "type": "Point",
        "coordinates": [
          -20.0149,
          -0.5246
        ]
      },
      "properties": {
        "title": "Green earthquake (Magnitude 6.6M, Depth:10km) in Central Mid-Atlantic Ridge 17/06/2026 18:56 UTC, [u",
        "summary": "On 6/17/2026 6:56:58 PM, an earthquake occurred in Central Mid-Atlantic Ridge potentially affecting [unknown]. The earthquake had Magnitude 6.6M, Depth:10km.",
        "date": "2026-06-20",
        "severity": 3,
        "source": "gdacs"
      }
    },
    {
      "type": "Feature",
      "geometry": {
        "type": "Point",
        "coordinates": [
          -74.6212148,
          7.2775955
        ]
      },
      "properties": {
        "title": "Green flood alert in Colombia",
        "summary": "On 17/06/2026, a flood started in Colombia, lasting until 19/06/2026 (last update). The flood caused 0 deaths and 0 displaced .",
        "date": "2026-06-20",
        "severity": 3,
        "source": "gdacs"
      }
    },
    {
      "type": "Feature",
      "geometry": {
        "type": "Point",
        "coordinates": [
          70.9090919,
          31.827527
        ]
      },
      "properties": {
        "title": "Green flood alert in Pakistan",
        "summary": "On 17/06/2026, a flood started in Pakistan, lasting until 19/06/2026 (last update). The flood caused 5 deaths and 0 displaced .",
        "date": "2026-06-20",
        "severity": 3,
        "source": "gdacs"
      }
    },
    {
      "type": "Feature",
      "geometry": {
        "type": "Point",
        "coordinates": [
          -94.5,
          29.7
        ]
      },
      "properties": {
        "title": "Green notification for tropical cyclone ARTHUR-26. Population affected by Category 1 (120 km/h) wind",
        "summary": "From 16/06/2026 to 18/06/2026, a Tropical Depression (maximum wind speed of 74 km/h) ARTHUR-26 was active in Atlantic. The cyclone affects these countries: United States (vulnerability Low). Estimated",
        "date": "2026-06-20",
        "severity": 3,
        "source": "gdacs"
      }
    },
    {
      "type": "Feature",
      "geometry": {
        "type": "Point",
        "coordinates": [
          139.8371,
          35.9814
        ]
      },
      "properties": {
        "title": "Green earthquake (Magnitude 5.5M, Depth:71.777km) in Japan 16/06/2026 10:46 UTC, 42.2 million in MMI",
        "summary": "On 6/16/2026 10:46:34 AM, an earthquake occurred in Japan potentially affecting 42.2 million in MMI IV. The earthquake had Magnitude 5.5M, Depth:71.777km.",
        "date": "2026-06-20",
        "severity": 3,
        "source": "gdacs"
      }
    },
    {
      "type": "Feature",
      "geometry": {
        "type": "Point",
        "coordinates": [
          95.4028,
          37.8888
        ]
      },
      "properties": {
        "title": "Orange earthquake (Magnitude 6.3M, Depth:10km) in China 16/06/2026 09:06 UTC, 9 thousand (in MMI>=VI",
        "summary": "On 6/16/2026 9:06:55 AM, an earthquake occurred in China potentially affecting 9 thousand (in MMI>=VII). The earthquake had Magnitude 6.3M, Depth:10km.",
        "date": "2026-06-20",
        "severity": 6,
        "source": "gdacs"
      }
    },
    {
      "type": "Feature",
      "geometry": {
        "type": "Point",
        "coordinates": [
          120.2301,
          -1.1312
        ]
      },
      "properties": {
        "title": "Orange earthquake (Magnitude 6.7M, Depth:10km) in Indonesia 16/06/2026 03:27 UTC, 260 thousand (in M",
        "summary": "On 6/16/2026 3:27:44 AM, an earthquake occurred in Indonesia potentially affecting 260 thousand (in MMI>=VII). The earthquake had Magnitude 6.7M, Depth:10km.",
        "date": "2026-06-20",
        "severity": 6,
        "source": "gdacs"
      }
    },
    {
      "type": "Feature",
      "geometry": {
        "type": "Point",
        "coordinates": [
          -7.4875211,
          42.5105492
        ]
      },
      "properties": {
        "title": "Green flood alert in Spain",
        "summary": "On 16/06/2026, a flood started in Spain, lasting until 19/06/2026 (last update). The flood caused 0 deaths and 0 displaced .",
        "date": "2026-06-20",
        "severity": 3,
        "source": "gdacs"
      }
    },
    {
      "type": "Feature",
      "geometry": {
        "type": "Point",
        "coordinates": [
          142.49156491870613,
          -13.187402710658532
        ]
      },
      "properties": {
        "title": "Green forest fire notification in Australia",
        "summary": "On 16/06/2026, a forest fire started in Australia,  until 19/06/2026.",
        "date": "2026-06-20",
        "severity": 3,
        "source": "gdacs"
      }
    },
    {
      "type": "Feature",
      "geometry": {
        "type": "Point",
        "coordinates": [
          22.701468830992944,
          -20.498318994572664
        ]
      },
      "properties": {
        "title": "Green forest fire notification in Botswana",
        "summary": "On 16/06/2026, a forest fire started in Botswana,  until 18/06/2026.",
        "date": "2026-06-20",
        "severity": 3,
        "source": "gdacs"
      }
    },
    {
      "type": "Feature",
      "geometry": {
        "type": "Point",
        "coordinates": [
          -7.128034,
          40.7818172
        ]
      },
      "properties": {
        "title": "Green flood alert in Portugal",
        "summary": "On 15/06/2026, a flood started in Portugal, lasting until 16/06/2026 (last update). The flood caused 0 deaths and 0 displaced .",
        "date": "2026-06-20",
        "severity": 3,
        "source": "gdacs"
      }
    },
    {
      "type": "Feature",
      "geometry": {
        "type": "Point",
        "coordinates": [
          8.3547342,
          36.2220401
        ]
      },
      "properties": {
        "title": "Green flood alert in Tunisia",
        "summary": "On 15/06/2026, a flood started in Tunisia, lasting until 17/06/2026 (last update). The flood caused 0 deaths and 0 displaced .",
        "date": "2026-06-20",
        "severity": 3,
        "source": "gdacs"
      }
    },
    {
      "type": "Feature",
      "geometry": {
        "type": "Point",
        "coordinates": [
          18.4309501,
          43.8591032
        ]
      },
      "properties": {
        "title": "Green flood alert in Bosnia & Herzegovina",
        "summary": "On 15/06/2026, a flood started in Bosnia & Herzegovina, lasting until 17/06/2026 (last update). The flood caused 0 deaths and 0 displaced .",
        "date": "2026-06-20",
        "severity": 3,
        "source": "gdacs"
      }
    },
    {
      "type": "Feature",
      "geometry": {
        "type": "Point",
        "coordinates": [
          -91.5647814,
          14.3040004
        ]
      },
      "properties": {
        "title": "Green flood alert in Guatemala",
        "summary": "On 15/06/2026, a flood started in Guatemala, lasting until 17/06/2026 (last update). The flood caused 0 deaths and 0 displaced .",
        "date": "2026-06-20",
        "severity": 3,
        "source": "gdacs"
      }
    },
    {
      "type": "Feature",
      "geometry": {
        "type": "Point",
        "coordinates": [
          99.6665094,
          2.8441659
        ]
      },
      "properties": {
        "title": "Green flood alert in Indonesia",
        "summary": "On 15/06/2026, a flood started in Indonesia, lasting until 18/06/2026 (last update). The flood caused 0 deaths and 0 displaced .",
        "date": "2026-06-20",
        "severity": 3,
        "source": "gdacs"
      }
    },
    {
      "type": "Feature",
      "geometry": {
        "type": "Point",
        "coordinates": [
          18.453654146167082,
          -6.453194122941277
        ]
      },
      "properties": {
        "title": "Green forest fire notification in The Democratic Republic of Congo",
        "summary": "On 15/06/2026, a forest fire started in The Democratic Republic of Congo,  until 19/06/2026.",
        "date": "2026-06-20",
        "severity": 3,
        "source": "gdacs"
      }
    },
    {
      "type": "Feature",
      "geometry": {
        "type": "Point",
        "coordinates": [
          -80.44898167654188,
          25.83649750791173
        ]
      },
      "properties": {
        "title": "Green forest fire notification in United States",
        "summary": "On 15/06/2026, a forest fire started in United States,  until 19/06/2026.",
        "date": "2026-06-20",
        "severity": 3,
        "source": "gdacs"
      }
    },
    {
      "type": "Feature",
      "geometry": {
        "type": "Point",
        "coordinates": [
          124.12894823993433,
          55.31830642370396
        ]
      },
      "properties": {
        "title": "Green forest fire notification in Russian Federation",
        "summary": "On 15/06/2026, a forest fire started in Russian Federation,  until 18/06/2026.",
        "date": "2026-06-20",
        "severity": 3,
        "source": "gdacs"
      }
    },
    {
      "type": "Feature",
      "geometry": {
        "type": "Point",
        "coordinates": [
          142.1124694177449,
          -14.182149532762422
        ]
      },
      "properties": {
        "title": "Green forest fire notification in Australia",
        "summary": "On 15/06/2026, a forest fire started in Australia,  until 18/06/2026.",
        "date": "2026-06-20",
        "severity": 3,
        "source": "gdacs"
      }
    },
    {
      "type": "Feature",
      "geometry": {
        "type": "Point",
        "coordinates": [
          -100.5403411,
          28.6913408
        ]
      },
      "properties": {
        "title": "Green flood alert in Mexico",
        "summary": "On 14/06/2026, a flood started in Mexico, lasting until 17/06/2026 (last update). The flood caused 3 deaths and 70 displaced .",
        "date": "2026-06-20",
        "severity": 3,
        "source": "gdacs"
      }
    },
    {
      "type": "Feature",
      "geometry": {
        "type": "Point",
        "coordinates": [
          -114.72,
          42.93
        ]
      },
      "properties": {
        "title": "Median Wildfire, Gooding, Idaho",
        "summary": "Active wildfire near Gooding, Idaho. EONET open event as of June 17 2026.",
        "date": "2026-06-17",
        "severity": 4,
        "source": "eonet"
      }
    },
    {
      "type": "Feature",
      "geometry": {
        "type": "Point",
        "coordinates": [
          33.85,
          35.86
        ]
      },
      "properties": {
        "title": "UK intercepts shadow fleet tanker Smyrtos",
        "summary": "Royal Marine commandos boarded sanctioned Russian oil tanker Smyrtos (600K bbl) in English Channel, June 14 2026. First UK-led operation of its kind.",
        "date": "2026-06-14",
        "severity": 7,
        "source": "acled"
      }
    },
    {
      "type": "Feature",
      "geometry": {
        "type": "Point",
        "coordinates": [
          33.45,
          31.5
        ]
      },
      "properties": {
        "title": "Israel-Hamas ongoing strikes Gaza",
        "summary": "Israel expanding territorial control in Gaza to ~60% post-ceasefire. Senior Hamas commanders killed. Strikes continuing.",
        "date": "2026-06-20",
        "severity": 8,
        "source": "acled"
      }
    },
    {
      "type": "Feature",
      "geometry": {
        "type": "Point",
        "coordinates": [
          44.39,
          33.33
        ]
      },
      "properties": {
        "title": "US-Iran Framework Deal signed Geneva",
        "summary": "Framework MOU signed June 19; 60-day nuclear negotiation process begins; Strait of Hormuz to reopen; Pakistan mediating.",
        "date": "2026-06-19",
        "severity": 6,
        "source": "acled"
      }
    },
    {
      "type": "Feature",
      "geometry": {
        "type": "Point",
        "coordinates": [
          37.95,
          48.95
        ]
      },
      "properties": {
        "title": "Ukraine Frontline - Pokrovsk Sector",
        "summary": "Intense fighting continues. Ukraine recaptured >600 sq km since offensive began. Russian advance slowed markedly.",
        "date": "2026-06-20",
        "severity": 7,
        "source": "acled"
      }
    },
    {
      "type": "Feature",
      "geometry": {
        "type": "Point",
        "coordinates": [
          121.5,
          10.78
        ]
      },
      "properties": {
        "title": "PRC enters Itu Aba (Taiping Island) restricted waters",
        "summary": "Sansha Zhifa 301 entered Taiwan-administered Itu Aba restricted waters June 11 - first ever PRC incursion. Taiwan strongly condemned as sovereignty violation.",
        "date": "2026-06-11",
        "severity": 7,
        "source": "acled"
      }
    },
    {
      "type": "Feature",
      "geometry": {
        "type": "Point",
        "coordinates": [
          -5.15,
          14.48
        ]
      },
      "properties": {
        "title": "JNIM expands into Benin/Nigeria",
        "summary": "JNIM overran Niger National Guard camp at Kirtachi (12 killed). ISSP claims first Nigeria operations in 6+ years. Sahel jihadist corridor extending south.",
        "date": "2026-06-09",
        "severity": 7,
        "source": "acled"
      }
    },
    {
      "type": "Feature",
      "geometry": {
        "type": "Point",
        "coordinates": [
          127.8,
          39.02
        ]
      },
      "properties": {
        "title": "DPRK Kim inspects new nuclear material plant",
        "summary": "Kim Jong Un inspected weapons-grade nuclear material production plant; announced exponential expansion. Plans 2 guided missile destroyers/year.",
        "date": "2026-06-04",
        "severity": 6,
        "source": "acled"
      }
    },
    {
      "type": "Feature",
      "geometry": {
        "type": "Point",
        "coordinates": [
          -58.4,
          10.48
        ]
      },
      "properties": {
        "title": "Maduro extracted to New York by US forces",
        "summary": "Nicolas Maduro captured from Caracas by US military Jan 3 2026; now facing cocaine trafficking charges in New York.",
        "date": "2026-01-03",
        "severity": 7,
        "source": "acled"
      }
    }
  ]
}