{
  "type": "FeatureCollection",
  "features": [
    {
      "type": "Feature",
      "geometry": {
        "type": "Point",
        "coordinates": [
          -79.535,
          -8.2783
        ]
      },
      "properties": {
        "title": "M4.9 earthquake",
        "summary": "48 km SW of Santiago de Cao, Peru",
        "date": "2026-06-04",
        "severity": 7,
        "source": "usgs"
      }
    },
    {
      "type": "Feature",
      "geometry": {
        "type": "Point",
        "coordinates": [
          -83.6704,
          8.4465
        ]
      },
      "properties": {
        "title": "M4.7 earthquake",
        "summary": "59 km SSW of Puerto Cort\u00e9s, Costa Rica",
        "date": "2026-06-04",
        "severity": 7,
        "source": "usgs"
      }
    },
    {
      "type": "Feature",
      "geometry": {
        "type": "Point",
        "coordinates": [
          152.3728,
          46.6387
        ]
      },
      "properties": {
        "title": "M4.6 earthquake",
        "summary": "Kuril Islands",
        "date": "2026-06-04",
        "severity": 6,
        "source": "usgs"
      }
    },
    {
      "type": "Feature",
      "geometry": {
        "type": "Point",
        "coordinates": [
          133.2658,
          -0.8569
        ]
      },
      "properties": {
        "title": "M4.5 earthquake",
        "summary": "88 km W of Manokwari, Indonesia",
        "date": "2026-06-04",
        "severity": 6,
        "source": "usgs"
      }
    },
    {
      "type": "Feature",
      "geometry": {
        "type": "Point",
        "coordinates": [
          -125.003333333333,
          40.358
        ]
      },
      "properties": {
        "title": "M4.48 earthquake",
        "summary": "61 km W of Petrolia, CA",
        "date": "2026-06-04",
        "severity": 6,
        "source": "usgs"
      }
    },
    {
      "type": "Feature",
      "geometry": {
        "type": "Point",
        "coordinates": [
          46.87,
          -18.77
        ]
      },
      "properties": {
        "title": "GDACS Orange: Drought in Madagascar",
        "summary": "Orange alert \u00b7 [Orange] Drought in Madagascar",
        "date": "2026-06-04",
        "severity": 5,
        "source": "gdacs"
      }
    },
    {
      "type": "Feature",
      "geometry": {
        "type": "Point",
        "coordinates": [
          46.87,
          -18.77
        ]
      },
      "properties": {
        "title": "GDACS Orange: Drought in Madagascar",
        "summary": "Orange alert \u00b7 [Orange] Drought in Madagascar",
        "date": "2026-06-04",
        "severity": 5,
        "source": "gdacs"
      }
    }
  ]
}