{"type": "FeatureCollection", "features": [{"type": "Feature", "geometry": {"type": "Point", "coordinates": [29.33772, 51.89664]}, "properties": {"title": "FIRMS thermal 7.16MW", "summary": "VIIRS S-NPP NRT, sat N, acquired 2026-08-31 0154Z, FRP 7.16 MW", "date": "2026-08-31", "severity": 1, "source": "firms"}}, {"type": "Feature", "geometry": {"type": "Point", "coordinates": [34.64627, 48.53232]}, "properties": {"title": "FIRMS thermal 21.4MW", "summary": "VIIRS S-NPP NRT, sat N, acquired 2026-08-31 0013Z, FRP 21.4 MW", "date": "2026-08-31", "severity": 2, "source": "firms"}}, {"type": "Feature", "geometry": {"type": "Point", "coordinates": [33.99057, 45.89404]}, "properties": {"title": "FIRMS thermal 13.08MW", "summary": "VIIRS S-NPP NRT, sat N, acquired 2026-08-31 1000Z, FRP 13.08 MW", "date": "2026-08-31", "severity": 1, "source": "firms"}}, {"type": "Feature", "geometry": {"type": "Point", "coordinates": [33.98366, 45.89224]}, "properties": {"title": "FIRMS thermal 13.08MW", "summary": "VIIRS S-NPP NRT, sat N, acquired 2026-08-31 1000Z, FRP 13.08 MW", "date": "2026-08-31", "severity": 1, "source": "firms"}}, {"type": "Feature", "geometry": {"type": "Point", "coordinates": [33.97676, 45.89044]}, "properties": {"title": "FIRMS thermal 15.26MW", "summary": "VIIRS S-NPP NRT, sat N, acquired 2026-08-31 1000Z, FRP 15.26 MW", "date": "2026-08-31", "severity": 1, "source": "firms"}}, {"type": "Feature", "geometry": {"type": "Point", "coordinates": [33.01543, 46.18848]}, "properties": {"title": "FIRMS thermal 5.54MW", "summary": "VIIRS S-NPP NRT, sat N, acquired 2026-08-31 1002Z, FRP 5.54 MW", "date": "2026-08-31", "severity": 1, "source": "firms"}}, {"type": "Feature", "geometry": {"type": "Point", "coordinates": [32.71041, 46.13821]}, "properties": {"title": "FIRMS thermal 11.09MW", "summary": "VIIRS S-NPP NRT, sat N, acquired 2026-08-31 1002Z, FRP 11.09 MW", "date": "2026-08-31", "severity": 1, "source": "firms"}}, {"type": "Feature", "geometry": {"type": "Point", "coordinates": [32.70267, 46.13612]}, "properties": {"title": "FIRMS thermal 11.09MW", "summary": "VIIRS S-NPP NRT, sat N, acquired 2026-08-31 1002Z, FRP 11.09 MW", "date": "2026-08-31", "severity": 1, "source": "firms"}}, {"type": "Feature", "geometry": {"type": "Point", "coordinates": [33.61759, 46.5918]}, "properties": {"title": "FIRMS thermal 5.47MW", "summary": "VIIRS S-NPP NRT, sat N, acquired 2026-08-31 1002Z, FRP 5.47 MW", "date": "2026-08-31", "severity": 1, "source": "firms"}}, {"type": "Feature", "geometry": {"type": "Point", "coordinates": [34.46679, 46.85829]}, "properties": {"title": "FIRMS thermal 6.03MW", "summary": "VIIRS S-NPP NRT, sat N, acquired 2026-08-31 1002Z, FRP 6.03 MW", "date": "2026-08-31", "severity": 1, "source": "firms"}}, {"type": "Feature", "geometry": {"type": "Point", "coordinates": [34.46278, 46.85389]}, "properties": {"title": "FIRMS thermal 8.66MW", "summary": "VIIRS S-NPP NRT, sat N, acquired 2026-08-31 1002Z, FRP 8.66 MW", "date": "2026-08-31", "severity": 1, "source": "firms"}}, {"type": "Feature", "geometry": {"type": "Point", "coordinates": [34.46681, 46.85979]}, "properties": {"title": "FIRMS thermal 8.82MW", "summary": "VIIRS S-NPP NRT, sat N, acquired 2026-08-31 1002Z, FRP 8.82 MW", "date": "2026-08-31", "severity": 1, "source": "firms"}}, {"type": "Feature", "geometry": {"type": "Point", "coordinates": [32.14946, 46.28853]}, "properties": {"title": "FIRMS thermal 69.06MW", "summary": "VIIRS S-NPP NRT, sat N, acquired 2026-08-31 1002Z, FRP 69.06 MW", "date": "2026-08-31", "severity": 8, "source": "firms"}}, {"type": "Feature", "geometry": {"type": "Point", "coordinates": [32.15352, 46.28967]}, "properties": {"title": "FIRMS thermal 69.06MW", "summary": "VIIRS S-NPP NRT, sat N, acquired 2026-08-31 1002Z, FRP 69.06 MW", "date": "2026-08-31", "severity": 8, "source": "firms"}}, {"type": "Feature", "geometry": {"type": "Point", "coordinates": [32.14539, 46.2874]}, "properties": {"title": "FIRMS thermal 35.77MW", "summary": "VIIRS S-NPP NRT, sat N, acquired 2026-08-31 1002Z, FRP 35.77 MW", "date": "2026-08-31", "severity": 4, "source": "firms"}}, {"type": "Feature", "geometry": {"type": "Point", "coordinates": [33.95613, 46.78341]}, "properties": {"title": "FIRMS thermal 11.63MW", "summary": "VIIRS S-NPP NRT, sat N, acquired 2026-08-31 1002Z, FRP 11.63 MW", "date": "2026-08-31", "severity": 1, "source": "firms"}}, {"type": "Feature", "geometry": {"type": "Point", "coordinates": [33.94949, 46.78169]}, "properties": {"title": "FIRMS thermal 11.63MW", "summary": "VIIRS S-NPP NRT, sat N, acquired 2026-08-31 1002Z, FRP 11.63 MW", "date": "2026-08-31", "severity": 1, "source": "firms"}}, {"type": "Feature", "geometry": {"type": "Point", "coordinates": [33.9604, 46.78951]}, "properties": {"title": "FIRMS thermal 29.2MW", "summary": "VIIRS S-NPP NRT, sat N, acquired 2026-08-31 1002Z, FRP 29.2 MW", "date": "2026-08-31", "severity": 3, "source": "firms"}}, {"type": "Feature", "geometry": {"type": "Point", "coordinates": [33.94711, 46.78609]}, "properties": {"title": "FIRMS thermal 11.63MW", "summary": "VIIRS S-NPP NRT, sat N, acquired 2026-08-31 1002Z, FRP 11.63 MW", "date": "2026-08-31", "severity": 1, "source": "firms"}}, {"type": "Feature", "geometry": {"type": "Point", "coordinates": [34.07027, 46.82267]}, "properties": {"title": "FIRMS thermal 6.81MW", "summary": "VIIRS S-NPP NRT, sat N, acquired 2026-08-31 1002Z, FRP 6.81 MW", "date": "2026-08-31", "severity": 1, "source": "firms"}}, {"type": "Feature", "geometry": {"type": "Point", "coordinates": [32.91428, 46.55682]}, "properties": {"title": "FIRMS thermal 12.89MW", "summary": "VIIRS S-NPP NRT, sat N, acquired 2026-08-31 1002Z, FRP 12.89 MW", "date": "2026-08-31", "severity": 1, "source": "firms"}}, {"type": "Feature", "geometry": {"type": "Point", "coordinates": [33.89893, 46.81887]}, "properties": {"title": "FIRMS thermal 8.89MW", "summary": "VIIRS S-NPP NRT, sat N, acquired 2026-08-31 1002Z, FRP 8.89 MW", "date": "2026-08-31", "severity": 1, "source": "firms"}}, {"type": "Feature", "geometry": {"type": "Point", "coordinates": [33.89223, 46.81716]}, "properties": {"title": "FIRMS thermal 10.76MW", "summary": "VIIRS S-NPP NRT, sat N, acquired 2026-08-31 1002Z, FRP 10.76 MW", "date": "2026-08-31", "severity": 1, "source": "firms"}}, {"type": "Feature", "geometry": {"type": "Point", "coordinates": [33.89653, 46.82327]}, "properties": {"title": "FIRMS thermal 8.89MW", "summary": "VIIRS S-NPP NRT, sat N, acquired 2026-08-31 1002Z, FRP 8.89 MW", "date": "2026-08-31", "severity": 1, "source": "firms"}}, {"type": "Feature", "geometry": {"type": "Point", "coordinates": [33.89204, 46.81483]}, "properties": {"title": "FIRMS thermal 12.57MW", "summary": "VIIRS S-NPP NRT, sat N, acquired 2026-08-31 1002Z, FRP 12.57 MW", "date": "2026-08-31", "severity": 1, "source": "firms"}}, {"type": "Feature", "geometry": {"type": "Point", "coordinates": [32.9152, 46.55389]}, "properties": {"title": "FIRMS thermal 8.36MW", "summary": "VIIRS S-NPP NRT, sat N, acquired 2026-08-31 1002Z, FRP 8.36 MW", "date": "2026-08-31", "severity": 1, "source": "firms"}}, {"type": "Feature", "geometry": {"type": "Point", "coordinates": [33.89632, 46.82098]}, "properties": {"title": "FIRMS thermal 14.03MW", "summary": "VIIRS S-NPP NRT, sat N, acquired 2026-08-31 1002Z, FRP 14.03 MW", "date": "2026-08-31", "severity": 1, "source": "firms"}}, {"type": "Feature", "geometry": {"type": "Point", "coordinates": [33.38644, 46.70703]}, "properties": {"title": "FIRMS thermal 28.02MW", "summary": "VIIRS S-NPP NRT, sat N, acquired 2026-08-31 1002Z, FRP 28.02 MW", "date": "2026-08-31", "severity": 3, "source": "firms"}}, {"type": "Feature", "geometry": {"type": "Point", "coordinates": [33.37939, 46.70516]}, "properties": {"title": "FIRMS thermal 49.78MW", "summary": "VIIRS S-NPP NRT, sat N, acquired 2026-08-31 1002Z, FRP 49.78 MW", "date": "2026-08-31", "severity": 6, "source": "firms"}}, {"type": "Feature", "geometry": {"type": "Point", "coordinates": [33.38395, 46.71154]}, "properties": {"title": "FIRMS thermal 28.02MW", "summary": "VIIRS S-NPP NRT, sat N, acquired 2026-08-31 1002Z, FRP 28.02 MW", "date": "2026-08-31", "severity": 3, "source": "firms"}}, {"type": "Feature", "geometry": {"type": "Point", "coordinates": [33.38147, 46.71605]}, "properties": {"title": "FIRMS thermal 10.32MW", "summary": "VIIRS S-NPP NRT, sat N, acquired 2026-08-31 1002Z, FRP 10.32 MW", "date": "2026-08-31", "severity": 1, "source": "firms"}}, {"type": "Feature", "geometry": {"type": "Point", "coordinates": [33.38603, 46.72243]}, "properties": {"title": "FIRMS thermal 10.32MW", "summary": "VIIRS S-NPP NRT, sat N, acquired 2026-08-31 1002Z, FRP 10.32 MW", "date": "2026-08-31", "severity": 1, "source": "firms"}}, {"type": "Feature", "geometry": {"type": "Point", "coordinates": [32.86021, 46.66652]}, "properties": {"title": "FIRMS thermal 18.13MW", "summary": "VIIRS S-NPP NRT, sat N, acquired 2026-08-31 1002Z, FRP 18.13 MW", "date": "2026-08-31", "severity": 2, "source": "firms"}}, {"type": "Feature", "geometry": {"type": "Point", "coordinates": [33.16603, 46.73636]}, "properties": {"title": "FIRMS thermal 10.72MW", "summary": "VIIRS S-NPP NRT, sat N, acquired 2026-08-31 1002Z, FRP 10.72 MW", "date": "2026-08-31", "severity": 1, "source": "firms"}}, {"type": "Feature", "geometry": {"type": "Point", "coordinates": [32.86172, 46.66447]}, "properties": {"title": "FIRMS thermal 12.41MW", "summary": "VIIRS S-NPP NRT, sat N, acquired 2026-08-31 1002Z, FRP 12.41 MW", "date": "2026-08-31", "severity": 1, "source": "firms"}}, {"type": "Feature", "geometry": {"type": "Point", "coordinates": [34.06849, 47.01443]}, "properties": {"title": "FIRMS thermal 70.64MW", "summary": "VIIRS S-NPP NRT, sat N, acquired 2026-08-31 1002Z, FRP 70.64 MW", "date": "2026-08-31", "severity": 8, "source": "firms"}}, {"type": "Feature", "geometry": {"type": "Point", "coordinates": [34.07498, 47.01609]}, "properties": {"title": "FIRMS thermal 71.04MW", "summary": "VIIRS S-NPP NRT, sat N, acquired 2026-08-31 1002Z, FRP 71.04 MW", "date": "2026-08-31", "severity": 8, "source": "firms"}}, {"type": "Feature", "geometry": {"type": "Point", "coordinates": [34.43156, 47.21028]}, "properties": {"title": "FIRMS thermal 66.3MW", "summary": "VIIRS S-NPP NRT, sat N, acquired 2026-08-31 1002Z, FRP 66.3 MW", "date": "2026-08-31", "severity": 8, "source": "firms"}}, {"type": "Feature", "geometry": {"type": "Point", "coordinates": [28.83356, 45.70927]}, "properties": {"title": "FIRMS thermal 5.85MW", "summary": "VIIRS S-NPP NRT, sat N, acquired 2026-08-31 1002Z, FRP 5.85 MW", "date": "2026-08-31", "severity": 1, "source": "firms"}}, {"type": "Feature", "geometry": {"type": "Point", "coordinates": [31.87963, 46.6488]}, "properties": {"title": "FIRMS thermal 5.19MW", "summary": "VIIRS S-NPP NRT, sat N, acquired 2026-08-31 1002Z, FRP 5.19 MW", "date": "2026-08-31", "severity": 1, "source": "firms"}}, {"type": "Feature", "geometry": {"type": "Point", "coordinates": [31.87143, 46.64649]}, "properties": {"title": "FIRMS thermal 10.3MW", "summary": "VIIRS S-NPP NRT, sat N, acquired 2026-08-31 1002Z, FRP 10.3 MW", "date": "2026-08-31", "severity": 1, "source": "firms"}}, {"type": "Feature", "geometry": {"type": "Point", "coordinates": [31.87682, 46.65359]}, "properties": {"title": "FIRMS thermal 5.19MW", "summary": "VIIRS S-NPP NRT, sat N, acquired 2026-08-31 1002Z, FRP 5.19 MW", "date": "2026-08-31", "severity": 1, "source": "firms"}}, {"type": "Feature", "geometry": {"type": "Point", "coordinates": [34.08888, 47.28622]}, "properties": {"title": "FIRMS thermal 5.93MW", "summary": "VIIRS S-NPP NRT, sat N, acquired 2026-08-31 1002Z, FRP 5.93 MW", "date": "2026-08-31", "severity": 1, "source": "firms"}}, {"type": "Feature", "geometry": {"type": "Point", "coordinates": [34.5385, 47.43549]}, "properties": {"title": "FIRMS thermal 6.85MW", "summary": "VIIRS S-NPP NRT, sat N, acquired 2026-08-31 1002Z, FRP 6.85 MW", "date": "2026-08-31", "severity": 1, "source": "firms"}}, {"type": "Feature", "geometry": {"type": "Point", "coordinates": [34.99506, 47.62864]}, "properties": {"title": "FIRMS thermal 6.04MW", "summary": "VIIRS S-NPP NRT, sat N, acquired 2026-08-31 1002Z, FRP 6.04 MW", "date": "2026-08-31", "severity": 1, "source": "firms"}}, {"type": "Feature", "geometry": {"type": "Point", "coordinates": [29.9704, 46.26687]}, "properties": {"title": "FIRMS thermal 7.43MW", "summary": "VIIRS S-NPP NRT, sat N, acquired 2026-08-31 1002Z, FRP 7.43 MW", "date": "2026-08-31", "severity": 1, "source": "firms"}}, {"type": "Feature", "geometry": {"type": "Point", "coordinates": [33.13961, 47.32012]}, "properties": {"title": "FIRMS thermal 27.58MW", "summary": "VIIRS S-NPP NRT, sat N, acquired 2026-08-31 1002Z, FRP 27.58 MW", "date": "2026-08-31", "severity": 3, "source": "firms"}}, {"type": "Feature", "geometry": {"type": "Point", "coordinates": [33.13255, 47.31828]}, "properties": {"title": "FIRMS thermal 27.58MW", "summary": "VIIRS S-NPP NRT, sat N, acquired 2026-08-31 1002Z, FRP 27.58 MW", "date": "2026-08-31", "severity": 3, "source": "firms"}}, {"type": "Feature", "geometry": {"type": "Point", "coordinates": [33.13848, 47.32039]}, "properties": {"title": "FIRMS thermal 32.76MW", "summary": "VIIRS S-NPP NRT, sat N, acquired 2026-08-31 1002Z, FRP 32.76 MW", "date": "2026-08-31", "severity": 4, "source": "firms"}}, {"type": "Feature", "geometry": {"type": "Point", "coordinates": [33.13147, 47.31852]}, "properties": {"title": "FIRMS thermal 45.6MW", "summary": "VIIRS S-NPP NRT, sat N, acquired 2026-08-31 1002Z, FRP 45.6 MW", "date": "2026-08-31", "severity": 5, "source": "firms"}}, {"type": "Feature", "geometry": {"type": "Point", "coordinates": [29.75683, 46.59677]}, "properties": {"title": "FIRMS thermal 7.68MW", "summary": "VIIRS S-NPP NRT, sat N, acquired 2026-08-31 1002Z, FRP 7.68 MW", "date": "2026-08-31", "severity": 1, "source": "firms"}}, {"type": "Feature", "geometry": {"type": "Point", "coordinates": [33.74232, 48.04237]}, "properties": {"title": "FIRMS thermal 8.21MW", "summary": "VIIRS S-NPP NRT, sat N, acquired 2026-08-31 1002Z, FRP 8.21 MW", "date": "2026-08-31", "severity": 1, "source": "firms"}}, {"type": "Feature", "geometry": {"type": "Point", "coordinates": [33.85929, 48.40789]}, "properties": {"title": "FIRMS thermal 33.14MW", "summary": "VIIRS S-NPP NRT, sat N, acquired 2026-08-31 1002Z, FRP 33.14 MW", "date": "2026-08-31", "severity": 4, "source": "firms"}}, {"type": "Feature", "geometry": {"type": "Point", "coordinates": [33.85696, 48.41212]}, "properties": {"title": "FIRMS thermal 33.14MW", "summary": "VIIRS S-NPP NRT, sat N, acquired 2026-08-31 1002Z, FRP 33.14 MW", "date": "2026-08-31", "severity": 4, "source": "firms"}}, {"type": "Feature", "geometry": {"type": "Point", "coordinates": [33.85897, 48.40582]}, "properties": {"title": "FIRMS thermal 32.69MW", "summary": "VIIRS S-NPP NRT, sat N, acquired 2026-08-31 1002Z, FRP 32.69 MW", "date": "2026-08-31", "severity": 4, "source": "firms"}}, {"type": "Feature", "geometry": {"type": "Point", "coordinates": [33.85666, 48.41005]}, "properties": {"title": "FIRMS thermal 32.69MW", "summary": "VIIRS S-NPP NRT, sat N, acquired 2026-08-31 1002Z, FRP 32.69 MW", "date": "2026-08-31", "severity": 4, "source": "firms"}}, {"type": "Feature", "geometry": {"type": "Point", "coordinates": [30.54738, 47.57359]}, "properties": {"title": "FIRMS thermal 14.44MW", "summary": "VIIRS S-NPP NRT, sat N, acquired 2026-08-31 1002Z, FRP 14.44 MW", "date": "2026-08-31", "severity": 1, "source": "firms"}}, {"type": "Feature", "geometry": {"type": "Point", "coordinates": [30.54309, 47.57235]}, "properties": {"title": "FIRMS thermal 10.22MW", "summary": "VIIRS S-NPP NRT, sat N, acquired 2026-08-31 1002Z, FRP 10.22 MW", "date": "2026-08-31", "severity": 1, "source": "firms"}}, {"type": "Feature", "geometry": {"type": "Point", "coordinates": [29.87395, 47.43584]}, "properties": {"title": "FIRMS thermal 10.79MW", "summary": "VIIRS S-NPP NRT, sat N, acquired 2026-08-31 1002Z, FRP 10.79 MW", "date": "2026-08-31", "severity": 1, "source": "firms"}}, {"type": "Feature", "geometry": {"type": "Point", "coordinates": [29.87448, 47.43809]}, "properties": {"title": "FIRMS thermal 7.21MW", "summary": "VIIRS S-NPP NRT, sat N, acquired 2026-08-31 1002Z, FRP 7.21 MW", "date": "2026-08-31", "severity": 1, "source": "firms"}}, {"type": "Feature", "geometry": {"type": "Point", "coordinates": [33.51532, 48.56052]}, "properties": {"title": "FIRMS thermal 7.62MW", "summary": "VIIRS S-NPP NRT, sat N, acquired 2026-08-31 1002Z, FRP 7.62 MW", "date": "2026-08-31", "severity": 1, "source": "firms"}}, {"type": "Feature", "geometry": {"type": "Point", "coordinates": [33.51285, 48.56477]}, "properties": {"title": "FIRMS thermal 8.2MW", "summary": "VIIRS S-NPP NRT, sat N, acquired 2026-08-31 1002Z, FRP 8.2 MW", "date": "2026-08-31", "severity": 1, "source": "firms"}}, {"type": "Feature", "geometry": {"type": "Point", "coordinates": [30.59897, 50.54156]}, "properties": {"title": "FIRMS thermal 5.02MW", "summary": "VIIRS S-NPP NRT, sat N, acquired 2026-08-31 1002Z, FRP 5.02 MW", "date": "2026-08-31", "severity": 1, "source": "firms"}}, {"type": "Feature", "geometry": {"type": "Point", "coordinates": [34.72189, 51.85165]}, "properties": {"title": "FIRMS thermal 16.01MW", "summary": "VIIRS S-NPP NRT, sat N, acquired 2026-08-31 1002Z, FRP 16.01 MW", "date": "2026-08-31", "severity": 2, "source": "firms"}}, {"type": "Feature", "geometry": {"type": "Point", "coordinates": [34.28745, 51.76487]}, "properties": {"title": "FIRMS thermal 8.18MW", "summary": "VIIRS S-NPP NRT, sat N, acquired 2026-08-31 1002Z, FRP 8.18 MW", "date": "2026-08-31", "severity": 1, "source": "firms"}}, {"type": "Feature", "geometry": {"type": "Point", "coordinates": [34.2852, 51.76866]}, "properties": {"title": "FIRMS thermal 7.21MW", "summary": "VIIRS S-NPP NRT, sat N, acquired 2026-08-31 1002Z, FRP 7.21 MW", "date": "2026-08-31", "severity": 1, "source": "firms"}}, {"type": "Feature", "geometry": {"type": "Point", "coordinates": [34.23007, 52.19328]}, "properties": {"title": "FIRMS thermal 9.03MW", "summary": "VIIRS S-NPP NRT, sat N, acquired 2026-08-31 1002Z, FRP 9.03 MW", "date": "2026-08-31", "severity": 1, "source": "firms"}}, {"type": "Feature", "geometry": {"type": "Point", "coordinates": [33.66707, 52.65426]}, "properties": {"title": "FIRMS thermal 5.36MW", "summary": "VIIRS S-NPP NRT, sat N, acquired 2026-08-31 1002Z, FRP 5.36 MW", "date": "2026-08-31", "severity": 1, "source": "firms"}}, {"type": "Feature", "geometry": {"type": "Point", "coordinates": [32.43071, 52.6151]}, "properties": {"title": "FIRMS thermal 5.62MW", "summary": "VIIRS S-NPP NRT, sat N, acquired 2026-08-31 1002Z, FRP 5.62 MW", "date": "2026-08-31", "severity": 1, "source": "firms"}}, {"type": "Feature", "geometry": {"type": "Point", "coordinates": [29.33968, 51.89178]}, "properties": {"title": "FIRMS thermal 9.42MW", "summary": "VIIRS S-NPP NRT, sat N, acquired 2026-08-31 1002Z, FRP 9.42 MW", "date": "2026-08-31", "severity": 1, "source": "firms"}}, {"type": "Feature", "geometry": {"type": "Point", "coordinates": [25.20145, 44.21911]}, "properties": {"title": "FIRMS thermal 5.17MW", "summary": "VIIRS S-NPP NRT, sat N, acquired 2026-08-31 1140Z, FRP 5.17 MW", "date": "2026-08-31", "severity": 1, "source": "firms"}}, {"type": "Feature", "geometry": {"type": "Point", "coordinates": [33.7784, 45.06183]}, "properties": {"title": "FIRMS thermal 9.73MW", "summary": "VIIRS S-NPP NRT, sat N, acquired 2026-08-31 1140Z, FRP 9.73 MW", "date": "2026-08-31", "severity": 1, "source": "firms"}}, {"type": "Feature", "geometry": {"type": "Point", "coordinates": [22.77723, 44.39059]}, "properties": {"title": "FIRMS thermal 7.21MW", "summary": "VIIRS S-NPP NRT, sat N, acquired 2026-08-31 1142Z, FRP 7.21 MW", "date": "2026-08-31", "severity": 1, "source": "firms"}}, {"type": "Feature", "geometry": {"type": "Point", "coordinates": [29.0439, 45.40485]}, "properties": {"title": "FIRMS thermal 7.96MW", "summary": "VIIRS S-NPP NRT, sat N, acquired 2026-08-31 1142Z, FRP 7.96 MW", "date": "2026-08-31", "severity": 1, "source": "firms"}}, {"type": "Feature", "geometry": {"type": "Point", "coordinates": [33.71643, 45.90497]}, "properties": {"title": "FIRMS thermal 7.11MW", "summary": "VIIRS S-NPP NRT, sat N, acquired 2026-08-31 1142Z, FRP 7.11 MW", "date": "2026-08-31", "severity": 1, "source": "firms"}}, {"type": "Feature", "geometry": {"type": "Point", "coordinates": [33.71777, 45.90623]}, "properties": {"title": "FIRMS thermal 8.09MW", "summary": "VIIRS S-NPP NRT, sat N, acquired 2026-08-31 1142Z, FRP 8.09 MW", "date": "2026-08-31", "severity": 1, "source": "firms"}}, {"type": "Feature", "geometry": {"type": "Point", "coordinates": [33.71226, 45.90608]}, "properties": {"title": "FIRMS thermal 6.15MW", "summary": "VIIRS S-NPP NRT, sat N, acquired 2026-08-31 1142Z, FRP 6.15 MW", "date": "2026-08-31", "severity": 1, "source": "firms"}}, {"type": "Feature", "geometry": {"type": "Point", "coordinates": [32.70743, 46.13654]}, "properties": {"title": "FIRMS thermal 10.48MW", "summary": "VIIRS S-NPP NRT, sat N, acquired 2026-08-31 1142Z, FRP 10.48 MW", "date": "2026-08-31", "severity": 1, "source": "firms"}}, {"type": "Feature", "geometry": {"type": "Point", "coordinates": [34.4621, 46.25117]}, "properties": {"title": "FIRMS thermal 5.66MW", "summary": "VIIRS S-NPP NRT, sat N, acquired 2026-08-31 1142Z, FRP 5.66 MW", "date": "2026-08-31", "severity": 1, "source": "firms"}}, {"type": "Feature", "geometry": {"type": "Point", "coordinates": [33.8558, 46.37823]}, "properties": {"title": "FIRMS thermal 14.05MW", "summary": "VIIRS S-NPP NRT, sat N, acquired 2026-08-31 1142Z, FRP 14.05 MW", "date": "2026-08-31", "severity": 1, "source": "firms"}}, {"type": "Feature", "geometry": {"type": "Point", "coordinates": [32.27202, 46.42732]}, "properties": {"title": "FIRMS thermal 5.39MW", "summary": "VIIRS S-NPP NRT, sat N, acquired 2026-08-31 1142Z, FRP 5.39 MW", "date": "2026-08-31", "severity": 1, "source": "firms"}}, {"type": "Feature", "geometry": {"type": "Point", "coordinates": [32.26728, 46.42712]}, "properties": {"title": "FIRMS thermal 5.39MW", "summary": "VIIRS S-NPP NRT, sat N, acquired 2026-08-31 1142Z, FRP 5.39 MW", "date": "2026-08-31", "severity": 1, "source": "firms"}}, {"type": "Feature", "geometry": {"type": "Point", "coordinates": [32.02913, 46.45399]}, "properties": {"title": "FIRMS thermal 5.46MW", "summary": "VIIRS S-NPP NRT, sat N, acquired 2026-08-31 1142Z, FRP 5.46 MW", "date": "2026-08-31", "severity": 1, "source": "firms"}}, {"type": "Feature", "geometry": {"type": "Point", "coordinates": [32.0245, 46.45378]}, "properties": {"title": "FIRMS thermal 6.36MW", "summary": "VIIRS S-NPP NRT, sat N, acquired 2026-08-31 1142Z, FRP 6.36 MW", "date": "2026-08-31", "severity": 1, "source": "firms"}}, {"type": "Feature", "geometry": {"type": "Point", "coordinates": [34.75654, 46.55827]}, "properties": {"title": "FIRMS thermal 6.39MW", "summary": "VIIRS S-NPP NRT, sat N, acquired 2026-08-31 1142Z, FRP 6.39 MW", "date": "2026-08-31", "severity": 1, "source": "firms"}}, {"type": "Feature", "geometry": {"type": "Point", "coordinates": [34.75021, 46.55814]}, "properties": {"title": "FIRMS thermal 6.39MW", "summary": "VIIRS S-NPP NRT, sat N, acquired 2026-08-31 1142Z, FRP 6.39 MW", "date": "2026-08-31", "severity": 1, "source": "firms"}}, {"type": "Feature", "geometry": {"type": "Point", "coordinates": [34.75003, 46.56414]}, "properties": {"title": "FIRMS thermal 6.39MW", "summary": "VIIRS S-NPP NRT, sat N, acquired 2026-08-31 1142Z, FRP 6.39 MW", "date": "2026-08-31", "severity": 1, "source": "firms"}}, {"type": "Feature", "geometry": {"type": "Point", "coordinates": [34.75636, 46.56428]}, "properties": {"title": "FIRMS thermal 6.39MW", "summary": "VIIRS S-NPP NRT, sat N, acquired 2026-08-31 1142Z, FRP 6.39 MW", "date": "2026-08-31", "severity": 1, "source": "firms"}}, {"type": "Feature", "geometry": {"type": "Point", "coordinates": [30.49242, 46.39318]}, "properties": {"title": "FIRMS thermal 5.22MW", "summary": "VIIRS S-NPP NRT, sat N, acquired 2026-08-31 1142Z, FRP 5.22 MW", "date": "2026-08-31", "severity": 1, "source": "firms"}}, {"type": "Feature", "geometry": {"type": "Point", "coordinates": [30.49189, 46.39808]}, "properties": {"title": "FIRMS thermal 5.22MW", "summary": "VIIRS S-NPP NRT, sat N, acquired 2026-08-31 1142Z, FRP 5.22 MW", "date": "2026-08-31", "severity": 1, "source": "firms"}}, {"type": "Feature", "geometry": {"type": "Point", "coordinates": [30.49143, 46.39471]}, "properties": {"title": "FIRMS thermal 7.45MW", "summary": "VIIRS S-NPP NRT, sat N, acquired 2026-08-31 1142Z, FRP 7.45 MW", "date": "2026-08-31", "severity": 1, "source": "firms"}}, {"type": "Feature", "geometry": {"type": "Point", "coordinates": [34.75367, 46.55358]}, "properties": {"title": "FIRMS thermal 11.55MW", "summary": "VIIRS S-NPP NRT, sat N, acquired 2026-08-31 1142Z, FRP 11.55 MW", "date": "2026-08-31", "severity": 1, "source": "firms"}}, {"type": "Feature", "geometry": {"type": "Point", "coordinates": [30.49089, 46.3996]}, "properties": {"title": "FIRMS thermal 7.54MW", "summary": "VIIRS S-NPP NRT, sat N, acquired 2026-08-31 1142Z, FRP 7.54 MW", "date": "2026-08-31", "severity": 1, "source": "firms"}}, {"type": "Feature", "geometry": {"type": "Point", "coordinates": [34.74713, 46.55947]}, "properties": {"title": "FIRMS thermal 13.16MW", "summary": "VIIRS S-NPP NRT, sat N, acquired 2026-08-31 1142Z, FRP 13.16 MW", "date": "2026-08-31", "severity": 1, "source": "firms"}}, {"type": "Feature", "geometry": {"type": "Point", "coordinates": [34.75345, 46.55959]}, "properties": {"title": "FIRMS thermal 11.55MW", "summary": "VIIRS S-NPP NRT, sat N, acquired 2026-08-31 1142Z, FRP 11.55 MW", "date": "2026-08-31", "severity": 1, "source": "firms"}}, {"type": "Feature", "geometry": {"type": "Point", "coordinates": [34.75325, 46.56559]}, "properties": {"title": "FIRMS thermal 9.34MW", "summary": "VIIRS S-NPP NRT, sat N, acquired 2026-08-31 1142Z, FRP 9.34 MW", "date": "2026-08-31", "severity": 1, "source": "firms"}}, {"type": "Feature", "geometry": {"type": "Point", "coordinates": [32.7331, 46.58274]}, "properties": {"title": "FIRMS thermal 6.35MW", "summary": "VIIRS S-NPP NRT, sat N, acquired 2026-08-31 1142Z, FRP 6.35 MW", "date": "2026-08-31", "severity": 1, "source": "firms"}}, {"type": "Feature", "geometry": {"type": "Point", "coordinates": [32.95686, 46.60785]}, "properties": {"title": "FIRMS thermal 6.14MW", "summary": "VIIRS S-NPP NRT, sat N, acquired 2026-08-31 1142Z, FRP 6.14 MW", "date": "2026-08-31", "severity": 1, "source": "firms"}}, {"type": "Feature", "geometry": {"type": "Point", "coordinates": [32.95174, 46.60766]}, "properties": {"title": "FIRMS thermal 6.14MW", "summary": "VIIRS S-NPP NRT, sat N, acquired 2026-08-31 1142Z, FRP 6.14 MW", "date": "2026-08-31", "severity": 1, "source": "firms"}}, {"type": "Feature", "geometry": {"type": "Point", "coordinates": [32.8676, 46.66501]}, "properties": {"title": "FIRMS thermal 8.15MW", "summary": "VIIRS S-NPP NRT, sat N, acquired 2026-08-31 1142Z, FRP 8.15 MW", "date": "2026-08-31", "severity": 1, "source": "firms"}}, {"type": "Feature", "geometry": {"type": "Point", "coordinates": [32.86248, 46.66483]}, "properties": {"title": "FIRMS thermal 5.22MW", "summary": "VIIRS S-NPP NRT, sat N, acquired 2026-08-31 1142Z, FRP 5.22 MW", "date": "2026-08-31", "severity": 1, "source": "firms"}}, {"type": "Feature", "geometry": {"type": "Point", "coordinates": [31.81252, 46.62198]}, "properties": {"title": "FIRMS thermal 6.6MW", "summary": "VIIRS S-NPP NRT, sat N, acquired 2026-08-31 1142Z, FRP 6.6 MW", "date": "2026-08-31", "severity": 1, "source": "firms"}}, {"type": "Feature", "geometry": {"type": "Point", "coordinates": [31.80805, 46.62178]}, "properties": {"title": "FIRMS thermal 6.88MW", "summary": "VIIRS S-NPP NRT, sat N, acquired 2026-08-31 1142Z, FRP 6.88 MW", "date": "2026-08-31", "severity": 1, "source": "firms"}}, {"type": "Feature", "geometry": {"type": "Point", "coordinates": [31.86884, 46.65612]}, "properties": {"title": "FIRMS thermal 7.13MW", "summary": "VIIRS S-NPP NRT, sat N, acquired 2026-08-31 1142Z, FRP 7.13 MW", "date": "2026-08-31", "severity": 1, "source": "firms"}}, {"type": "Feature", "geometry": {"type": "Point", "coordinates": [31.86838, 46.66136]}, "properties": {"title": "FIRMS thermal 7.13MW", "summary": "VIIRS S-NPP NRT, sat N, acquired 2026-08-31 1142Z, FRP 7.13 MW", "date": "2026-08-31", "severity": 1, "source": "firms"}}, {"type": "Feature", "geometry": {"type": "Point", "coordinates": [33.16167, 46.73681]}, "properties": {"title": "FIRMS thermal 7.97MW", "summary": "VIIRS S-NPP NRT, sat N, acquired 2026-08-31 1142Z, FRP 7.97 MW", "date": "2026-08-31", "severity": 1, "source": "firms"}}, {"type": "Feature", "geometry": {"type": "Point", "coordinates": [32.10889, 46.69364]}, "properties": {"title": "FIRMS thermal 6.0MW", "summary": "VIIRS S-NPP NRT, sat N, acquired 2026-08-31 1142Z, FRP 6 MW", "date": "2026-08-31", "severity": 1, "source": "firms"}}, {"type": "Feature", "geometry": {"type": "Point", "coordinates": [33.15839, 46.73433]}, "properties": {"title": "FIRMS thermal 7.24MW", "summary": "VIIRS S-NPP NRT, sat N, acquired 2026-08-31 1142Z, FRP 7.24 MW", "date": "2026-08-31", "severity": 1, "source": "firms"}}, {"type": "Feature", "geometry": {"type": "Point", "coordinates": [33.89919, 46.81873]}, "properties": {"title": "FIRMS thermal 10.51MW", "summary": "VIIRS S-NPP NRT, sat N, acquired 2026-08-31 1142Z, FRP 10.51 MW", "date": "2026-08-31", "severity": 1, "source": "firms"}}, {"type": "Feature", "geometry": {"type": "Point", "coordinates": [34.0693, 46.8233]}, "properties": {"title": "FIRMS thermal 6.32MW", "summary": "VIIRS S-NPP NRT, sat N, acquired 2026-08-31 1142Z, FRP 6.32 MW", "date": "2026-08-31", "severity": 1, "source": "firms"}}, {"type": "Feature", "geometry": {"type": "Point", "coordinates": [33.60806, 46.81032]}, "properties": {"title": "FIRMS thermal 6.53MW", "summary": "VIIRS S-NPP NRT, sat N, acquired 2026-08-31 1142Z, FRP 6.53 MW", "date": "2026-08-31", "severity": 1, "source": "firms"}}, {"type": "Feature", "geometry": {"type": "Point", "coordinates": [22.00182, 45.91971]}, "properties": {"title": "FIRMS thermal 9.38MW", "summary": "VIIRS S-NPP NRT, sat N, acquired 2026-08-31 1142Z, FRP 9.38 MW", "date": "2026-08-31", "severity": 1, "source": "firms"}}, {"type": "Feature", "geometry": {"type": "Point", "coordinates": [22.00092, 45.9231]}, "properties": {"title": "FIRMS thermal 18.34MW", "summary": "VIIRS S-NPP NRT, sat N, acquired 2026-08-31 1142Z, FRP 18.34 MW", "date": "2026-08-31", "severity": 2, "source": "firms"}}, {"type": "Feature", "geometry": {"type": "Point", "coordinates": [22.25119, 45.96286]}, "properties": {"title": "FIRMS thermal 9.23MW", "summary": "VIIRS S-NPP NRT, sat N, acquired 2026-08-31 1142Z, FRP 9.23 MW", "date": "2026-08-31", "severity": 1, "source": "firms"}}, {"type": "Feature", "geometry": {"type": "Point", "coordinates": [32.37091, 46.88728]}, "properties": {"title": "FIRMS thermal 5.23MW", "summary": "VIIRS S-NPP NRT, sat N, acquired 2026-08-31 1142Z, FRP 5.23 MW", "date": "2026-08-31", "severity": 1, "source": "firms"}}, {"type": "Feature", "geometry": {"type": "Point", "coordinates": [34.37167, 47.0562]}, "properties": {"title": "FIRMS thermal 5.5MW", "summary": "VIIRS S-NPP NRT, sat N, acquired 2026-08-31 1142Z, FRP 5.5 MW", "date": "2026-08-31", "severity": 1, "source": "firms"}}, {"type": "Feature", "geometry": {"type": "Point", "coordinates": [33.847, 47.066]}, "properties": {"title": "FIRMS thermal 5.76MW", "summary": "VIIRS S-NPP NRT, sat N, acquired 2026-08-31 1142Z, FRP 5.76 MW", "date": "2026-08-31", "severity": 1, "source": "firms"}}, {"type": "Feature", "geometry": {"type": "Point", "coordinates": [34.51628, 47.116]}, "properties": {"title": "FIRMS thermal 6.49MW", "summary": "VIIRS S-NPP NRT, sat N, acquired 2026-08-31 1142Z, FRP 6.49 MW", "date": "2026-08-31", "severity": 1, "source": "firms"}}, {"type": "Feature", "geometry": {"type": "Point", "coordinates": [33.7557, 47.19644]}, "properties": {"title": "FIRMS thermal 14.23MW", "summary": "VIIRS S-NPP NRT, sat N, acquired 2026-08-31 1142Z, FRP 14.23 MW", "date": "2026-08-31", "severity": 1, "source": "firms"}}, {"type": "Feature", "geometry": {"type": "Point", "coordinates": [34.94778, 47.23944]}, "properties": {"title": "FIRMS thermal 6.65MW", "summary": "VIIRS S-NPP NRT, sat N, acquired 2026-08-31 1142Z, FRP 6.65 MW", "date": "2026-08-31", "severity": 1, "source": "firms"}}, {"type": "Feature", "geometry": {"type": "Point", "coordinates": [33.91084, 47.25261]}, "properties": {"title": "FIRMS thermal 9.91MW", "summary": "VIIRS S-NPP NRT, sat N, acquired 2026-08-31 1142Z, FRP 9.91 MW", "date": "2026-08-31", "severity": 1, "source": "firms"}}, {"type": "Feature", "geometry": {"type": "Point", "coordinates": [33.90447, 47.25244]}, "properties": {"title": "FIRMS thermal 9.91MW", "summary": "VIIRS S-NPP NRT, sat N, acquired 2026-08-31 1142Z, FRP 9.91 MW", "date": "2026-08-31", "severity": 1, "source": "firms"}}, {"type": "Feature", "geometry": {"type": "Point", "coordinates": [34.08737, 47.2865]}, "properties": {"title": "FIRMS thermal 7.14MW", "summary": "VIIRS S-NPP NRT, sat N, acquired 2026-08-31 1142Z, FRP 7.14 MW", "date": "2026-08-31", "severity": 1, "source": "firms"}}, {"type": "Feature", "geometry": {"type": "Point", "coordinates": [34.09119, 47.28545]}, "properties": {"title": "FIRMS thermal 5.93MW", "summary": "VIIRS S-NPP NRT, sat N, acquired 2026-08-31 1142Z, FRP 5.93 MW", "date": "2026-08-31", "severity": 1, "source": "firms"}}, {"type": "Feature", "geometry": {"type": "Point", "coordinates": [33.12878, 47.3166]}, "properties": {"title": "FIRMS thermal 6.5MW", "summary": "VIIRS S-NPP NRT, sat N, acquired 2026-08-31 1142Z, FRP 6.5 MW", "date": "2026-08-31", "severity": 1, "source": "firms"}}, {"type": "Feature", "geometry": {"type": "Point", "coordinates": [33.12843, 47.3222]}, "properties": {"title": "FIRMS thermal 14.13MW", "summary": "VIIRS S-NPP NRT, sat N, acquired 2026-08-31 1142Z, FRP 14.13 MW", "date": "2026-08-31", "severity": 1, "source": "firms"}}, {"type": "Feature", "geometry": {"type": "Point", "coordinates": [33.12296, 47.32202]}, "properties": {"title": "FIRMS thermal 14.13MW", "summary": "VIIRS S-NPP NRT, sat N, acquired 2026-08-31 1142Z, FRP 14.13 MW", "date": "2026-08-31", "severity": 1, "source": "firms"}}, {"type": "Feature", "geometry": {"type": "Point", "coordinates": [33.1175, 47.32183]}, "properties": {"title": "FIRMS thermal 9.34MW", "summary": "VIIRS S-NPP NRT, sat N, acquired 2026-08-31 1142Z, FRP 9.34 MW", "date": "2026-08-31", "severity": 1, "source": "firms"}}, {"type": "Feature", "geometry": {"type": "Point", "coordinates": [33.13385, 47.32238]}, "properties": {"title": "FIRMS thermal 5.85MW", "summary": "VIIRS S-NPP NRT, sat N, acquired 2026-08-31 1142Z, FRP 5.85 MW", "date": "2026-08-31", "severity": 1, "source": "firms"}}, {"type": "Feature", "geometry": {"type": "Point", "coordinates": [34.06139, 47.41188]}, "properties": {"title": "FIRMS thermal 6.71MW", "summary": "VIIRS S-NPP NRT, sat N, acquired 2026-08-31 1142Z, FRP 6.71 MW", "date": "2026-08-31", "severity": 1, "source": "firms"}}, {"type": "Feature", "geometry": {"type": "Point", "coordinates": [34.99503, 47.63082]}, "properties": {"title": "FIRMS thermal 5.06MW", "summary": "VIIRS S-NPP NRT, sat N, acquired 2026-08-31 1142Z, FRP 5.06 MW", "date": "2026-08-31", "severity": 1, "source": "firms"}}, {"type": "Feature", "geometry": {"type": "Point", "coordinates": [34.65069, 47.58919]}, "properties": {"title": "FIRMS thermal 6.71MW", "summary": "VIIRS S-NPP NRT, sat N, acquired 2026-08-31 1142Z, FRP 6.71 MW", "date": "2026-08-31", "severity": 1, "source": "firms"}}, {"type": "Feature", "geometry": {"type": "Point", "coordinates": [29.86681, 47.4362]}, "properties": {"title": "FIRMS thermal 7.38MW", "summary": "VIIRS S-NPP NRT, sat N, acquired 2026-08-31 1142Z, FRP 7.38 MW", "date": "2026-08-31", "severity": 1, "source": "firms"}}, {"type": "Feature", "geometry": {"type": "Point", "coordinates": [30.60232, 47.55148]}, "properties": {"title": "FIRMS thermal 6.19MW", "summary": "VIIRS S-NPP NRT, sat N, acquired 2026-08-31 1142Z, FRP 6.19 MW", "date": "2026-08-31", "severity": 1, "source": "firms"}}, {"type": "Feature", "geometry": {"type": "Point", "coordinates": [30.49906, 47.5865]}, "properties": {"title": "FIRMS thermal 8.18MW", "summary": "VIIRS S-NPP NRT, sat N, acquired 2026-08-31 1142Z, FRP 8.18 MW", "date": "2026-08-31", "severity": 1, "source": "firms"}}, {"type": "Feature", "geometry": {"type": "Point", "coordinates": [30.49083, 47.58606]}, "properties": {"title": "FIRMS thermal 8.18MW", "summary": "VIIRS S-NPP NRT, sat N, acquired 2026-08-31 1142Z, FRP 8.18 MW", "date": "2026-08-31", "severity": 1, "source": "firms"}}, {"type": "Feature", "geometry": {"type": "Point", "coordinates": [29.29873, 47.52173]}, "properties": {"title": "FIRMS thermal 20.56MW", "summary": "VIIRS S-NPP NRT, sat N, acquired 2026-08-31 1142Z, FRP 20.56 MW", "date": "2026-08-31", "severity": 2, "source": "firms"}}, {"type": "Feature", "geometry": {"type": "Point", "coordinates": [29.96406, 47.64938]}, "properties": {"title": "FIRMS thermal 6.84MW", "summary": "VIIRS S-NPP NRT, sat N, acquired 2026-08-31 1142Z, FRP 6.84 MW", "date": "2026-08-31", "severity": 1, "source": "firms"}}, {"type": "Feature", "geometry": {"type": "Point", "coordinates": [29.95621, 47.6489]}, "properties": {"title": "FIRMS thermal 6.84MW", "summary": "VIIRS S-NPP NRT, sat N, acquired 2026-08-31 1142Z, FRP 6.84 MW", "date": "2026-08-31", "severity": 1, "source": "firms"}}, {"type": "Feature", "geometry": {"type": "Point", "coordinates": [29.95674, 47.65199]}, "properties": {"title": "FIRMS thermal 24.09MW", "summary": "VIIRS S-NPP NRT, sat N, acquired 2026-08-31 1142Z, FRP 24.09 MW", "date": "2026-08-31", "severity": 3, "source": "firms"}}, {"type": "Feature", "geometry": {"type": "Point", "coordinates": [29.95607, 47.65681]}, "properties": {"title": "FIRMS thermal 24.09MW", "summary": "VIIRS S-NPP NRT, sat N, acquired 2026-08-31 1142Z, FRP 24.09 MW", "date": "2026-08-31", "severity": 3, "source": "firms"}}, {"type": "Feature", "geometry": {"type": "Point", "coordinates": [29.07327, 47.70427]}, "properties": {"title": "FIRMS thermal 8.8MW", "summary": "VIIRS S-NPP NRT, sat N, acquired 2026-08-31 1142Z, FRP 8.8 MW", "date": "2026-08-31", "severity": 1, "source": "firms"}}, {"type": "Feature", "geometry": {"type": "Point", "coordinates": [29.6722, 48.43038]}, "properties": {"title": "FIRMS thermal 9.72MW", "summary": "VIIRS S-NPP NRT, sat N, acquired 2026-08-31 1142Z, FRP 9.72 MW", "date": "2026-08-31", "severity": 1, "source": "firms"}}, {"type": "Feature", "geometry": {"type": "Point", "coordinates": [29.66435, 48.42991]}, "properties": {"title": "FIRMS thermal 6.7MW", "summary": "VIIRS S-NPP NRT, sat N, acquired 2026-08-31 1142Z, FRP 6.7 MW", "date": "2026-08-31", "severity": 1, "source": "firms"}}, {"type": "Feature", "geometry": {"type": "Point", "coordinates": [24.27789, 49.03483]}, "properties": {"title": "FIRMS thermal 6.61MW", "summary": "VIIRS S-NPP NRT, sat N, acquired 2026-08-31 1142Z, FRP 6.61 MW", "date": "2026-08-31", "severity": 1, "source": "firms"}}, {"type": "Feature", "geometry": {"type": "Point", "coordinates": [33.05511, 52.57445]}, "properties": {"title": "FIRMS thermal 6.28MW", "summary": "VIIRS S-NPP NRT, sat N, acquired 2026-08-31 1145Z, FRP 6.28 MW", "date": "2026-08-31", "severity": 1, "source": "firms"}}, {"type": "Feature", "geometry": {"type": "Point", "coordinates": [33.04865, 52.57432]}, "properties": {"title": "FIRMS thermal 6.28MW", "summary": "VIIRS S-NPP NRT, sat N, acquired 2026-08-31 1145Z, FRP 6.28 MW", "date": "2026-08-31", "severity": 1, "source": "firms"}}, {"type": "Feature", "geometry": {"type": "Point", "coordinates": [33.05269, 52.57442]}, "properties": {"title": "FIRMS thermal 11.72MW", "summary": "VIIRS S-NPP NRT, sat N, acquired 2026-08-31 1145Z, FRP 11.72 MW", "date": "2026-08-31", "severity": 1, "source": "firms"}}, {"type": "Feature", "geometry": {"type": "Point", "coordinates": [32.44218, 52.61959]}, "properties": {"title": "FIRMS thermal 5.68MW", "summary": "VIIRS S-NPP NRT, sat N, acquired 2026-08-31 1145Z, FRP 5.68 MW", "date": "2026-08-31", "severity": 1, "source": "firms"}}, {"type": "Feature", "geometry": {"type": "Point", "coordinates": [33.35307, 46.64017]}, "properties": {"title": "FIRMS thermal 5.4MW", "summary": "VIIRS S-NPP NRT, sat N, acquired 2026-08-31 2356Z, FRP 5.4 MW", "date": "2026-08-31", "severity": 1, "source": "firms"}}, {"type": "Feature", "geometry": {"type": "Point", "coordinates": [33.34702, 46.63763]}, "properties": {"title": "FIRMS thermal 25.75MW", "summary": "VIIRS S-NPP NRT, sat N, acquired 2026-08-31 2356Z, FRP 25.75 MW", "date": "2026-08-31", "severity": 3, "source": "firms"}}, {"type": "Feature", "geometry": {"type": "Point", "coordinates": [31.67509, 45.2589]}, "properties": {"title": "FIRMS thermal 8.11MW", "summary": "VIIRS S-NPP NRT, sat N, acquired 2026-08-31 2356Z, FRP 8.11 MW", "date": "2026-08-31", "severity": 1, "source": "firms"}}]}