{
  "type": "FeatureCollection",
  "features": [
    {
      "type": "Feature",
      "geometry": {
        "type": "Point",
        "coordinates": [
          34.051,
          52.184
        ]
      },
      "properties": {
        "title": "FIRMS: thermal anomaly Bryansk oblast corridor (FRP 5.11 MW)",
        "summary": "VIIRS FIRMS thermal anomaly, FRP 5.11 MW, VIIRS NRT 2026-06-08",
        "date": "2026-06-08",
        "severity": 7,
        "source": "firms"
      }
    },
    {
      "type": "Feature",
      "geometry": {
        "type": "Point",
        "coordinates": [
          32.52,
          46.484
        ]
      },
      "properties": {
        "title": "FIRMS: thermal anomaly Kherson region (FRP 14.12 MW)",
        "summary": "VIIRS FIRMS thermal anomaly, FRP 14.12 MW, VIIRS NRT 2026-06-08",
        "date": "2026-06-08",
        "severity": 10,
        "source": "firms"
      }
    },
    {
      "type": "Feature",
      "geometry": {
        "type": "Point",
        "coordinates": [
          32.52,
          46.48
        ]
      },
      "properties": {
        "title": "FIRMS: thermal anomaly Kherson region (FRP 12.54 MW)",
        "summary": "VIIRS FIRMS thermal anomaly, FRP 12.54 MW, VIIRS NRT 2026-06-08",
        "date": "2026-06-08",
        "severity": 10,
        "source": "firms"
      }
    },
    {
      "type": "Feature",
      "geometry": {
        "type": "Point",
        "coordinates": [
          31.673,
          45.259
        ]
      },
      "properties": {
        "title": "FIRMS: thermal anomaly Black Sea coast (FRP 10.5 MW)",
        "summary": "VIIRS FIRMS thermal anomaly, FRP 10.5 MW, VIIRS NRT 2026-06-08",
        "date": "2026-06-08",
        "severity": 10,
        "source": "firms"
      }
    },
    {
      "type": "Feature",
      "geometry": {
        "type": "Point",
        "coordinates": [
          32.69,
          46.592
        ]
      },
      "properties": {
        "title": "FIRMS: thermal anomaly Kherson/Mykolaiv (FRP 4.73 MW)",
        "summary": "VIIRS FIRMS thermal anomaly, FRP 4.73 MW, VIIRS NRT 2026-06-08",
        "date": "2026-06-08",
        "severity": 7,
        "source": "firms"
      }
    },
    {
      "type": "Feature",
      "geometry": {
        "type": "Point",
        "coordinates": [
          34.323,
          51.826
        ]
      },
      "properties": {
        "title": "FIRMS: thermal anomaly Sumy corridor (FRP 1.63 MW)",
        "summary": "VIIRS FIRMS thermal anomaly, FRP 1.63 MW, VIIRS NRT 2026-06-08",
        "date": "2026-06-08",
        "severity": 2,
        "source": "firms"
      }
    },
    {
      "type": "Feature",
      "geometry": {
        "type": "Point",
        "coordinates": [
          34.917,
          51.097
        ]
      },
      "properties": {
        "title": "FIRMS: thermal anomaly Sumy corridor (FRP 1.67 MW)",
        "summary": "VIIRS FIRMS thermal anomaly, FRP 1.67 MW, VIIRS NRT 2026-06-08",
        "date": "2026-06-08",
        "severity": 2,
        "source": "firms"
      }
    },
    {
      "type": "Feature",
      "geometry": {
        "type": "Point",
        "coordinates": [
          26.604,
          48.748
        ]
      },
      "properties": {
        "title": "FIRMS: thermal anomaly western Ukraine (FRP 0.71 MW)",
        "summary": "VIIRS FIRMS thermal anomaly, FRP 0.71 MW, VIIRS NRT 2026-06-08",
        "date": "2026-06-08",
        "severity": 1,
        "source": "firms"
      }
    },
    {
      "type": "Feature",
      "geometry": {
        "type": "Point",
        "coordinates": [
          36.25,
          50.0
        ]
      },
      "properties": {
        "title": "Kharkiv: Russian assault near Kazachya Lopan",
        "summary": "Russian ground forces conducting assault operations near Kazachya Lopan logistics hub",
        "date": "2026-06-09",
        "severity": 7,
        "source": "acled"
      }
    },
    {
      "type": "Feature",
      "geometry": {
        "type": "Point",
        "coordinates": [
          34.8,
          51.07
        ]
      },
      "properties": {
        "title": "Sumy: infrastructure attack on Konotop",
        "summary": "Russian strike on Konotop infrastructure, passenger train damaged",
        "date": "2026-06-09",
        "severity": 6,
        "source": "acled"
      }
    },
    {
      "type": "Feature",
      "geometry": {
        "type": "Point",
        "coordinates": [
          35.25,
          47.85
        ]
      },
      "properties": {
        "title": "Zaporizhzhia: energy infrastructure damaged",
        "summary": "Russian attack damaged energy infrastructure, 3 injured",
        "date": "2026-06-09",
        "severity": 5,
        "source": "acled"
      }
    },
    {
      "type": "Feature",
      "geometry": {
        "type": "Point",
        "coordinates": [
          32.52,
          46.48
        ]
      },
      "properties": {
        "title": "Kherson: high-intensity thermal cluster",
        "summary": "Multiple FIRMS anomalies at Kherson region, highest FRP 14.12 MW",
        "date": "2026-06-09",
        "severity": 8,
        "source": "acled"
      }
    },
    {
      "type": "Feature",
      "geometry": {
        "type": "Point",
        "coordinates": [
          29.2,
          1.8
        ]
      },
      "properties": {
        "title": "Ituri: DRC Ebola epicenter (600 cases)",
        "summary": "WHO PHEIC. 600 confirmed cases in Ituri province, Bundibugyo strain",
        "date": "2026-06-09",
        "severity": 9,
        "source": "acled"
      }
    },
    {
      "type": "Feature",
      "geometry": {
        "type": "Point",
        "coordinates": [
          56.3,
          27.0
        ]
      },
      "properties": {
        "title": "Strait of Hormuz closure zone",
        "summary": "Iran closed Hormuz to shipping since March 4. June 11: Iran signals reopening during ceasefire",
        "date": "2026-06-09",
        "severity": 10,
        "source": "acled"
      }
    },
    {
      "type": "Feature",
      "geometry": {
        "type": "Point",
        "coordinates": [
          50.6,
          26.2
        ]
      },
      "properties": {
        "title": "Bahrain: US base under Iranian missile threat",
        "summary": "US evacuating embassy personnel from Iraq and Gulf bases, June 11",
        "date": "2026-06-09",
        "severity": 8,
        "source": "acled"
      }
    },
    {
      "type": "Feature",
      "geometry": {
        "type": "Point",
        "coordinates": [
          -77.0,
          -12.0
        ]
      },
      "properties": {
        "title": "Lima: presidential runoff count continues",
        "summary": "Sanchez 50.055% vs Fujimori 49.945%, <20K votes gap with 96% counted",
        "date": "2026-06-09",
        "severity": 5,
        "source": "acled"
      }
    },
    {
      "type": "Feature",
      "geometry": {
        "type": "Point",
        "coordinates": [
          127.0,
          37.5
        ]
      },
      "properties": {
        "title": "Seoul: PPP retains mayoral seat in local elections",
        "summary": "Opposition PPP wins Seoul; Lee DP wins 12/16 overall posts",
        "date": "2026-06-09",
        "severity": 4,
        "source": "acled"
      }
    }
  ]
}