{
  "type": "FeatureCollection",
  "metadata": {
    "date": "2026-07-01",
    "generated": "2026-07-01T06:00:00Z",
    "source": "WORLDSCOPE morning brief"
  },
  "features": [
    {
      "type": "Feature",
      "id": "usgs-us6000t9bg",
      "properties": {
        "title": "M5.3 Earthquake - Dunhuang, China",
        "category": "disaster",
        "severity": "yellow",
        "mag": 5.3,
        "depth_km": 10,
        "alert": "yellow",
        "source": "USGS",
        "url": "https://earthquake.usgs.gov/earthquakes/eventpage/us6000t9bg",
        "description": "M5.3 earthquake 265 km SSE of Dunhuang, China. USGS ShakeMap MMI 6.5 (yellow alert). 81 stations reported. Reviewed status.",
        "time": "2026-06-30T21:44:54Z"
      },
      "geometry": {
        "type": "Point",
        "coordinates": [95.3273, 37.8295]
      }
    },
    {
      "type": "Feature",
      "id": "gdacs-typhoon-nine-26",
      "properties": {
        "title": "Typhoon NINE-26 - Guam / CNMI",
        "category": "disaster",
        "severity": "orange",
        "alert": "orange",
        "wind_kmh": 213,
        "affected": 59760,
        "source": "GDACS",
        "description": "Typhoon NINE-26 approaching Guam and the Commonwealth of the Northern Mariana Islands. Maximum sustained winds 213 km/h. Orange alert; 59,760 people in affected zone.",
        "time": "2026-07-01T00:00:00Z"
      },
      "geometry": {
        "type": "Point",
        "coordinates": [144.8, 13.5]
      }
    },
    {
      "type": "Feature",
      "id": "venezuela-earthquake",
      "properties": {
        "title": "M7.5 Earthquake - Venezuela",
        "category": "disaster",
        "severity": "red",
        "mag": 7.5,
        "alert": "red",
        "description": "Magnitude 7.5 earthquake struck Venezuela; at least 1,943 deaths confirmed as of July 1. Major infrastructure damage in Caracas and coastal states.",
        "time": "2026-06-28T00:00:00Z"
      },
      "geometry": {
        "type": "Point",
        "coordinates": [-68.5, 10.5]
      }
    },
    {
      "type": "Feature",
      "id": "sudan-rsf-el-obeid",
      "properties": {
        "title": "RSF Drone Strikes - El Obeid, Sudan",
        "category": "conflict",
        "severity": "red",
        "description": "RSF drone strikes on El Obeid (North Kordofan) and Kassala, targeting SAF logistics routes. Consistent with RSF operational pattern of disabling SAF supply chains ahead of offensive pushes.",
        "time": "2026-07-01T00:00:00Z"
      },
      "geometry": {
        "type": "Point",
        "coordinates": [30.22, 13.18]
      }
    },
    {
      "type": "Feature",
      "id": "mali-jnim-niamey",
      "properties": {
        "title": "JNIM Attack - Niamey Airport, Niger",
        "category": "conflict",
        "severity": "orange",
        "description": "JNIM complex attack on Niamey Diori Hamani International Airport (June 18). First successful JNIM strike on a capital-city airport. Seven Chinese nationals reported kidnapped in northern Mali, signals JNIM shifting to high-value hostage operations.",
        "time": "2026-06-18T00:00:00Z"
      },
      "geometry": {
        "type": "Point",
        "coordinates": [2.11, 13.51]
      }
    },
    {
      "type": "Feature",
      "id": "gaza-al-baqa-strike",
      "properties": {
        "title": "IDF Strike - al-Baqa Cafe, Beit Lahiya, Gaza",
        "category": "conflict",
        "severity": "red",
        "description": "IDF strike on al-Baqa cafe in Beit Lahiya, northern Gaza Strip (June 30). Reported mass casualty event. Al-Qassam Brigades launched rocket barrage in response. Ceasefire negotiations stalled in Doha.",
        "time": "2026-06-30T00:00:00Z"
      },
      "geometry": {
        "type": "Point",
        "coordinates": [34.46, 31.35]
      }
    },
    {
      "type": "Feature",
      "id": "ukraine-penza-strike",
      "properties": {
        "title": "Ukrainian Strike - Penza, Russia",
        "category": "conflict",
        "severity": "orange",
        "description": "Ukrainian long-range drone and missile strike on Penza defense industrial complex (July 1). Secondary explosions reported at munitions storage. Gripen-E air defense intercept documented near Odessa the same morning.",
        "time": "2026-07-01T00:00:00Z"
      },
      "geometry": {
        "type": "Point",
        "coordinates": [45.0, 53.2]
      }
    },
    {
      "type": "Feature",
      "id": "crimea-state-of-emergency",
      "properties": {
        "title": "State of Emergency - Crimea",
        "category": "political",
        "severity": "orange",
        "description": "Russian-administered Crimea declared a state of emergency following Ukrainian drone strikes on Sevastopol naval infrastructure. Civilian evacuation orders issued for port districts.",
        "time": "2026-07-01T00:00:00Z"
      },
      "geometry": {
        "type": "Point",
        "coordinates": [34.0, 45.0]
      }
    },
    {
      "type": "Feature",
      "id": "iran-islamabad-mou",
      "properties": {
        "title": "Iran-US Nuclear MOU - Islamabad",
        "category": "political",
        "severity": "yellow",
        "description": "Iran and US initialed a preliminary memorandum of understanding in Islamabad (June 29) capping Iranian uranium enrichment at 20 percent and allowing IAEA snapback monitoring. 72-hour window for Iran's Supreme National Security Council ratification. Polymarket: 28% probability of withdrawal by July 7.",
        "time": "2026-06-29T00:00:00Z"
      },
      "geometry": {
        "type": "Point",
        "coordinates": [73.04, 33.72]
      }
    },
    {
      "type": "Feature",
      "id": "scotus-birthright",
      "properties": {
        "title": "SCOTUS - Birthright Citizenship Ruling",
        "category": "political",
        "severity": "yellow",
        "description": "US Supreme Court upheld 5-4 the executive order restricting birthright citizenship for children of undocumented immigrants. Justice Barrett joined the majority. Immediate injunctions sought in 14 states. APA challenge pathway remains open per majority opinion.",
        "time": "2026-07-01T00:00:00Z"
      },
      "geometry": {
        "type": "Point",
        "coordinates": [-77.005, 38.89]
      }
    }
  ]
}
