{
  "type": "FeatureCollection",
  "features": [
    {"type":"Feature","geometry":{"type":"Point","coordinates":[-68.4716,10.4351]},"properties":{"title":"M7.5 - 28 km SE of Yumare, Venezuela","summary":"Magnitude 7.5 earthquake at 10km depth; 32+ dead, 700+ injured","date":"2026-06-24","severity":9,"source":"usgs"}},
    {"type":"Feature","geometry":{"type":"Point","coordinates":[-68.5277,10.436]},"properties":{"title":"M7.2 - 23 km SE of Yumare, Venezuela (foreshock)","summary":"Magnitude 7.2 foreshock 39 seconds before M7.5","date":"2026-06-24","severity":8,"source":"usgs"}},
    {"type":"Feature","geometry":{"type":"Point","coordinates":[142.0981,40.2912]},"properties":{"title":"M6.9 - 30 km ENE of Kuji, Japan","summary":"Magnitude 6.9 Sanriku earthquake; 80cm tsunami, 10 injured, 82,000 evacuated","date":"2026-06-24","severity":7,"source":"usgs"}},
    {"type":"Feature","geometry":{"type":"Point","coordinates":[-123.2288,39.3623]},"properties":{"title":"M5.59 - Redwood Valley, California","summary":"Magnitude 5.59 earthquake near Redwood Valley","date":"2026-06-24","severity":4,"source":"usgs"}},
    {"type":"Feature","geometry":{"type":"Point","coordinates":[36.47,45.36]},"properties":{"title":"Kerch oil terminal strike","summary":"Ukraine drone strike on Kerch port oil terminal; tanks on fire","date":"2026-06-21","severity":6,"source":"acled"}},
    {"type":"Feature","geometry":{"type":"Point","coordinates":[36.50,45.37]},"properties":{"title":"Kerch power station fire (Arshintsevo)","summary":"Fire at Arshintsevo power plant near Kerch; electricity cut across occupied Crimea","date":"2026-06-24","severity":6,"source":"acled"}},
    {"type":"Feature","geometry":{"type":"Point","coordinates":[36.63,45.34]},"properties":{"title":"Port Kavkaz logistics strike","summary":"Ukraine strike on Port Kavkaz oil logistics; fuel shortages spreading in Crimea","date":"2026-06-21","severity":6,"source":"acled"}},
    {"type":"Feature","geometry":{"type":"Point","coordinates":[68.98,57.15]},"properties":{"title":"Tyumen oil refinery drone strike","summary":"Ukraine new drone struck Tyumen region oil refinery at 2,070 km range","date":"2026-06-20","severity":7,"source":"acled"}}
  ]
}
