{
  "type": "FeatureCollection",
  "features": [
    {
      "type": "Feature",
      "geometry": {
        "type": "Point",
        "coordinates": [
          -76.58,
          3.52
        ]
      },
      "properties": {
        "title": "Colombia M7.4 Earthquake - Cali",
        "summary": "Magnitude 7.4 earthquake struck Choc\u00f3 region near Cali. 224+ dead, 1,200+ injured, 3,700 missing. National emergency declared. GDACS Red.",
        "date": "2026-08-10",
        "severity": 9,
        "source": "usgs"
      }
    },
    {
      "type": "Feature",
      "geometry": {
        "type": "Point",
        "coordinates": [
          58.5,
          22.8
        ]
      },
      "properties": {
        "title": "US MH-60 disables M/V Vela Nova - Gulf of Oman",
        "summary": "US Navy MH-60 helicopter fired Hellfire missiles into engine room of Panama-flagged cargo ship attempting to break Iran port blockade. Third vessel stopped since July 14. 55 ships redirected total.",
        "date": "2026-08-11",
        "severity": 8,
        "source": "acled"
      }
    },
    {
      "type": "Feature",
      "geometry": {
        "type": "Point",
        "coordinates": [
          56.4,
          26.5
        ]
      },
      "properties": {
        "title": "IRGC attacks UAE tanker - Strait of Hormuz",
        "summary": "IRGC reports UAE oil tanker under attack and burning in US-supported shipping route. 15 ADNOC vessels attacked since war began. Iran demands US concessions for Hormuz reopening.",
        "date": "2026-08-08",
        "severity": 8,
        "source": "acled"
      }
    },
    {
      "type": "Feature",
      "geometry": {
        "type": "Point",
        "coordinates": [
          37.77,
          44.72
        ]
      },
      "properties": {
        "title": "Ukraine strikes Novorossiysk naval base",
        "summary": "Zelenskyy confirmed Palianytsia drone-missiles and Neptune cruise missiles struck Russian Black Sea Fleet base at Novorossiysk. Emergency power outage in Gelendzhik and Novorossiysk.",
        "date": "2026-08-12",
        "severity": 7,
        "source": "acled"
      }
    },
    {
      "type": "Feature",
      "geometry": {
        "type": "Point",
        "coordinates": [
          30.8,
          50.5
        ]
      },
      "properties": {
        "title": "Russian drone attack on Kyiv oblast warehouses",
        "summary": "Russian drones attacked warehouses in Brovary district, Kyiv oblast. One person wounded. Fire at storage facility.",
        "date": "2026-08-12",
        "severity": 6,
        "source": "acled"
      }
    },
    {
      "type": "Feature",
      "geometry": {
        "type": "Point",
        "coordinates": [
          35.87,
          48.54
        ]
      },
      "properties": {
        "title": "Russian strikes in Pavlohrad - 5 wounded",
        "summary": "At least 5 wounded as result of Russian strikes in Pavlohrad, Dnipropetrovsk oblast.",
        "date": "2026-08-12",
        "severity": 6,
        "source": "acled"
      }
    },
    {
      "type": "Feature",
      "geometry": {
        "type": "Point",
        "coordinates": [
          35.18,
          47.83
        ]
      },
      "properties": {
        "title": "Drone strike damage in Zaporizhzhia",
        "summary": "Damage reported in Zaporizhzhia city as result of drone strikes. Ongoing aerial attacks.",
        "date": "2026-08-12",
        "severity": 6,
        "source": "acled"
      }
    },
    {
      "type": "Feature",
      "geometry": {
        "type": "Point",
        "coordinates": [
          34.971,
          47.335
        ]
      },
      "properties": {
        "title": "FIRMS thermal anomaly 140 MW - Zaporizhzhia oblast",
        "summary": "VIIRS S-NPP thermal anomaly FRP 140.68 MW confidence HIGH. Acquired 2026-08-11 0934Z. Nearest feature: frontline combat zone south of Zaporizhzhia city.",
        "date": "2026-08-11",
        "severity": 7,
        "source": "firms"
      }
    },
    {
      "type": "Feature",
      "geometry": {
        "type": "Point",
        "coordinates": [
          34.3,
          10.55
        ]
      },
      "properties": {
        "title": "SAF recaptures Kurmuk - Blue Nile state",
        "summary": "Sudanese Armed Forces report recapture of Kurmuk from RSF/SPLM-N Tasis coalition after months of heavy fighting. Mass graves discovered with 25 civilians including hospital staff. Strategic border town near Ethiopia guards Al-Roseires Dam.",
        "date": "2026-07-08",
        "severity": 7,
        "source": "acled"
      }
    },
    {
      "type": "Feature",
      "geometry": {
        "type": "Point",
        "coordinates": [
          45.3,
          15.4
        ]
      },
      "properties": {
        "title": "Houthi shelling on government forces camps - Yemen",
        "summary": "Yemeni media reports casualties in shelling by Houthis (Ansar Allah) on two government forces camps in Marib and Hadramawt provinces.",
        "date": "2026-08-12",
        "severity": 6,
        "source": "acled"
      }
    },
    {
      "type": "Feature",
      "geometry": {
        "type": "Point",
        "coordinates": [
          35.47,
          33.27
        ]
      },
      "properties": {
        "title": "IDF urgent evacuation warning - Mansouri, Lebanon",
        "summary": "Israeli army issues urgent evacuation warning for residents of southern Lebanon village of Mansouri ahead of planned strikes. Ongoing IDF operations in southern Lebanon.",
        "date": "2026-08-12",
        "severity": 7,
        "source": "acled"
      }
    },
    {
      "type": "Feature",
      "geometry": {
        "type": "Point",
        "coordinates": [
          44.0,
          36.5
        ]
      },
      "properties": {
        "title": "Three-missile attack wounds 2 in Iraqi Kurdistan",
        "summary": "Iranian Kurdish opposition party reports 2 wounded in three-missile attack on positions in northern Iraq.",
        "date": "2026-08-12",
        "severity": 4,
        "source": "acled"
      }
    },
    {
      "type": "Feature",
      "geometry": {
        "type": "Point",
        "coordinates": [
          39.0,
          45.0
        ]
      },
      "properties": {
        "title": "Ukrainian drone attacks on Russian Kuban region",
        "summary": "RT editor Simonyan offered assistance to families of those killed in Ukrainian drone strikes on Kuban. Ongoing cross-border strikes in Krasnodar Krai.",
        "date": "2026-08-12",
        "severity": 5,
        "source": "acled"
      }
    },
    {
      "type": "Feature",
      "geometry": {
        "type": "Point",
        "coordinates": [
          29.7,
          46.3
        ]
      },
      "properties": {
        "title": "Drone falls and explodes in Moldova - Stefan Voda district",
        "summary": "Moldovan police: drone fell and exploded in village of Crocmaz, Stefan Voda district, near Ukrainian border. Incident prompts Russian warning on Transnistria.",
        "date": "2026-08-10",
        "severity": 4,
        "source": "acled"
      }
    }
  ]
}