{
  "type": "FeatureCollection",
  "features": [
    {
      "type": "Feature",
      "geometry": {"type": "Point", "coordinates": [96.5, 26.5]},
      "properties": {"title": "M5.9 Earthquake, China", "summary": "M5.9 270km WSW of Yanglong, China. Depth 6km, PAGER yellow alert.", "date": "2026-08-18", "severity": 5, "source": "usgs"}
    },
    {
      "type": "Feature",
      "geometry": {"type": "Point", "coordinates": [33.37, 47.9]},
      "properties": {"title": "Russian missile strike - ArcelorMittal Kryvyi Rih", "summary": "Russian missile strikes hit ArcelorMittal metallurgical plant. 2 killed, 13 wounded.", "date": "2026-08-18", "severity": 7, "source": "acled"}
    },
    {
      "type": "Feature",
      "geometry": {"type": "Point", "coordinates": [37.3, 49.2]},
      "properties": {"title": "Russian airstrike on Izium", "summary": "Airstrike in Izium, 5 people wounded.", "date": "2026-08-17", "severity": 5, "source": "acled"}
    },
    {
      "type": "Feature",
      "geometry": {"type": "Point", "coordinates": [36.0, 49.9]},
      "properties": {"title": "Clashes - Kharkiv direction", "summary": "Clashes near Lyman, Kozacha Lopan, Izbytske in Kharkiv-South Slobozhansky direction.", "date": "2026-08-18", "severity": 6, "source": "acled"}
    },
    {
      "type": "Feature",
      "geometry": {"type": "Point", "coordinates": [55.96, 54.7]},
      "properties": {"title": "Ukrainian drone strike - Ufa oil refinery (Bashkortostan)", "summary": "Ukrainian drone struck Ufa oil refinery, causing fire. Air defense intercepted 4 of 6 drones. 1 person hospitalized.", "date": "2026-08-19", "severity": 6, "source": "firms"}
    },
    {
      "type": "Feature",
      "geometry": {"type": "Point", "coordinates": [37.6, 55.7]},
      "properties": {"title": "Explosions reported - Moscow region", "summary": "Explosions reported in Moscow region; Ukrainian drone operations suspected.", "date": "2026-08-18", "severity": 5, "source": "acled"}
    },
    {
      "type": "Feature",
      "geometry": {"type": "Point", "coordinates": [24.75, 59.44]},
      "properties": {"title": "Arson - Milrem Robotics facility, Estonia", "summary": "Suspected Russian sabotage. Milrem Robotics (unmanned combat vehicles) facility targeted. Suspects identified, investigation ongoing.", "date": "2026-08-18", "severity": 6, "source": "acled"}
    },
    {
      "type": "Feature",
      "geometry": {"type": "Point", "coordinates": [54.3, 24.5]},
      "properties": {"title": "Iranian ballistic missile - UAE territory", "summary": "UAE air defenses intercepted missiles from Iran; one landed in UAE territorial waters. UAE imposed indefinite trade embargo on Iran.", "date": "2026-08-19", "severity": 8, "source": "acled"}
    },
    {
      "type": "Feature",
      "geometry": {"type": "Point", "coordinates": [35.6, 33.1]},
      "properties": {"title": "Israeli strikes - southern Lebanon (Mansouri)", "summary": "Israeli warplanes targeted Mansouri, Marjeyoun district, south Lebanon.", "date": "2026-08-18", "severity": 6, "source": "acled"}
    },
    {
      "type": "Feature",
      "geometry": {"type": "Point", "coordinates": [56.88, 54.1]},
      "properties": {"title": "Ukrainian drone strikes - Salavat refinery, Bashkortostan", "summary": "Gazprom Neftekhim Salavat refinery targeted Aug 13. 2.7% of Russian refining throughput. Wildberries logistics hub also targeted.", "date": "2026-08-13", "severity": 6, "source": "firms"}
    },
    {
      "type": "Feature",
      "geometry": {"type": "Point", "coordinates": [34.5, 31.5]},
      "properties": {"title": "Israeli strikes in Gaza", "summary": "Israel kills 6 in Gaza, day after Kushner meeting with Netanyahu.", "date": "2026-08-19", "severity": 5, "source": "acled"}
    },
    {
      "type": "Feature",
      "geometry": {"type": "Point", "coordinates": [-3.59, 37.18]},
      "properties": {"title": "M4.9 Earthquake - Granada, Spain", "summary": "M4.9 earthquake 2km WSW of Granada, Spain. Depth 10km.", "date": "2026-08-18", "severity": 3, "source": "usgs"}
    }
  ]
}
