{
  "type": "FeatureCollection",
  "features": [
    {
      "type": "Feature",
      "geometry": {
        "type": "Point",
        "coordinates": [
          -66.5,
          10.5
        ]
      },
      "properties": {
        "title": "Venezuela earthquakes (cumulative 6,125 deaths)",
        "summary": "Ongoing seismic sequence in Venezuela, cumulative death toll 6,125 per Italian reporting",
        "date": "2026-08-03",
        "severity": 9,
        "source": "usgs"
      }
    },
    {
      "type": "Feature",
      "geometry": {
        "type": "Point",
        "coordinates": [
          25.3,
          14.0
        ]
      },
      "properties": {
        "title": "Sudan SAF drone strike on Darfur court session - 35 killed",
        "summary": "Sudanese Armed Forces drone struck a court session in North Darfur, killing 35 per rights groups",
        "date": "2026-08-03",
        "severity": 8,
        "source": "acled"
      }
    },
    {
      "type": "Feature",
      "geometry": {
        "type": "Point",
        "coordinates": [
          33.5,
          44.9
        ]
      },
      "properties": {
        "title": "Ukraine drone attack on Crimea/Black Sea resort - 11 killed",
        "summary": "Ukrainian drone strikes on Black Sea resort area and Crimea; Russia claims 11 killed",
        "date": "2026-08-03",
        "severity": 7,
        "source": "acled"
      }
    },
    {
      "type": "Feature",
      "geometry": {
        "type": "Point",
        "coordinates": [
          37.6,
          55.75
        ]
      },
      "properties": {
        "title": "Moscow restaurant bomb blast",
        "summary": "Bombing at Moscow restaurant, multiple casualties reported",
        "date": "2026-08-02",
        "severity": 6,
        "source": "acled"
      }
    },
    {
      "type": "Feature",
      "geometry": {
        "type": "Point",
        "coordinates": [
          -75.1,
          -14.7
        ]
      },
      "properties": {
        "title": "Tourist plane crash over Nazca Lines - 13 killed",
        "summary": "Small tourist plane crashed during flight over Peru's Nazca Lines, killing 13",
        "date": "2026-08-01",
        "severity": 6,
        "source": "usgs"
      }
    },
    {
      "type": "Feature",
      "geometry": {
        "type": "Point",
        "coordinates": [
          -5.35,
          35.9
        ]
      },
      "properties": {
        "title": "Ceuta mass border crossing crisis",
        "summary": "Thousands of Moroccan migrants crossed into Spanish exclave Ceuta, triggering EU emergency response",
        "date": "2026-08-02",
        "severity": 7,
        "source": "gdacs"
      }
    },
    {
      "type": "Feature",
      "geometry": {
        "type": "Point",
        "coordinates": [
          35.0,
          48.5
        ]
      },
      "properties": {
        "title": "Ukraine frontline FIRMS thermal cluster",
        "summary": "Multiple FIRMS thermal anomalies along eastern Ukraine frontline (FRP 0.8-1.5 MW range)",
        "date": "2026-08-02",
        "severity": 5,
        "source": "firms"
      }
    },
    {
      "type": "Feature",
      "geometry": {
        "type": "Point",
        "coordinates": [
          176.0,
          -38.0
        ]
      },
      "properties": {
        "title": "M5.6 earthquake - New Zealand",
        "summary": "Green alert M5.6 earthquake, depth 52.8km, 30,000 in MMI IV zone",
        "date": "2026-08-02",
        "severity": 3,
        "source": "gdacs"
      }
    },
    {
      "type": "Feature",
      "geometry": {
        "type": "Point",
        "coordinates": [
          140.0,
          30.0
        ]
      },
      "properties": {
        "title": "Typhoon Dolphin approaching Japan",
        "summary": "Japan bracing for Typhoon Dolphin per GDACS",
        "date": "2026-08-03",
        "severity": 5,
        "source": "gdacs"
      }
    },
    {
      "type": "Feature",
      "geometry": {
        "type": "Point",
        "coordinates": [
          73.7,
          34.1
        ]
      },
      "properties": {
        "title": "Pakistan-administered Kashmir deadly protests",
        "summary": "Protests in Pakistan-administered Kashmir with fatalities reported",
        "date": "2026-08-03",
        "severity": 5,
        "source": "acled"
      }
    }
  ]
}