{
  "type": "FeatureCollection",
  "features": [
    {
      "type": "Feature",
      "geometry": {
        "type": "Point",
        "coordinates": [
          -67.0,
          10.5
        ]
      },
      "properties": {
        "title": "Venezuela Twin Earthquakes M7.2 + M7.5",
        "summary": "Back-to-back earthquakes collapse buildings in Caracas; at least 32 killed, 700+ injured. State of emergency declared.",
        "date": "2026-06-25",
        "severity": 9,
        "source": "usgs"
      }
    },
    {
      "type": "Feature",
      "geometry": {
        "type": "Point",
        "coordinates": [
          141.5,
          39.5
        ]
      },
      "properties": {
        "title": "Japan M6.9 Earthquake (NE Japan)",
        "summary": "M6.9 earthquake in northeastern Japan. No tsunami warning issued.",
        "date": "2026-06-25",
        "severity": 6,
        "source": "usgs"
      }
    },
    {
      "type": "Feature",
      "geometry": {
        "type": "Point",
        "coordinates": [
          148.9,
          12.9
        ]
      },
      "properties": {
        "title": "Super Typhoon Bavi",
        "summary": "Active super typhoon in Western Pacific. Tracking toward Philippines/Luzon corridor.",
        "date": "2026-07-05",
        "severity": 8,
        "source": "gdacs"
      }
    },
    {
      "type": "Feature",
      "geometry": {
        "type": "Point",
        "coordinates": [
          55.1,
          51.8
        ]
      },
      "properties": {
        "title": "Ukrainian Strike: Orenburg Gas Processing Plant",
        "summary": "Ukrainian SSO deep-strike units hit Orenburg GPZ and Russia's only helium plant (~1,500 km from frontline). Fires confirmed by satellite.",
        "date": "2026-06-24",
        "severity": 8,
        "source": "acled"
      }
    },
    {
      "type": "Feature",
      "geometry": {
        "type": "Point",
        "coordinates": [
          33.5,
          44.6
        ]
      },
      "properties": {
        "title": "Sevastopol Energy Infrastructure Attack",
        "summary": "Sevastopol electricity cut for ~24h after Ukrainian attack on energy infrastructure. Power restored June 25.",
        "date": "2026-06-24",
        "severity": 7,
        "source": "acled"
      }
    },
    {
      "type": "Feature",
      "geometry": {
        "type": "Point",
        "coordinates": [
          37.6,
          55.75
        ]
      },
      "properties": {
        "title": "Russia: 323 UAVs Intercepted Overnight",
        "summary": "Russian MoD reports 323 Ukrainian UAVs shot down over 20 regions. Zaporizhzhia gas infrastructure also hit by Geran-type drones.",
        "date": "2026-06-24",
        "severity": 7,
        "source": "acled"
      }
    },
    {
      "type": "Feature",
      "geometry": {
        "type": "Point",
        "coordinates": [
          125.0,
          11.2
        ]
      },
      "properties": {
        "title": "Tacloban Attack / Leyte School Threat Thwarted",
        "summary": "Armed attack in Tacloban; potential school mass shooting stopped in Leyte. Interior Secretary seeks tougher gun laws.",
        "date": "2026-06-25",
        "severity": 6,
        "source": "acled"
      }
    },
    {
      "type": "Feature",
      "geometry": {
        "type": "Point",
        "coordinates": [
          50.55,
          26.2
        ]
      },
      "properties": {
        "title": "Rubio in Bahrain: GCC-US Iran Deal Meeting",
        "summary": "US Secretary of State Rubio visiting Bahrain seeking Gulf backing for Iran deal and Hormuz freedom of navigation. Iran rejects Rubio's interpretation of peace MOU.",
        "date": "2026-06-25",
        "severity": 7,
        "source": "gdacs"
      }
    },
    {
      "type": "Feature",
      "geometry": {
        "type": "Point",
        "coordinates": [
          -128.0,
          19.1
        ]
      },
      "properties": {
        "title": "Tropical Storm Douglas (Eastern Pacific)",
        "summary": "Active tropical storm in eastern Pacific. Not threatening land currently.",
        "date": "2026-07-03",
        "severity": 4,
        "source": "gdacs"
      }
    }
  ]
}
