{
  "type": "FeatureCollection",
  "features": [
    {
      "type": "Feature",
      "geometry": {
        "type": "Point",
        "coordinates": [
          33.4,
          47.9
        ]
      },
      "properties": {
        "title": "Russian missile strike - ArcelorMittal Kryvyi Rih, Dnipropetrovsk",
        "summary": "2 killed, 13 wounded in strike on steel plant",
        "date": "2026-08-18",
        "severity": 8,
        "source": "acled"
      }
    },
    {
      "type": "Feature",
      "geometry": {
        "type": "Point",
        "coordinates": [
          29.0,
          45.35
        ]
      },
      "properties": {
        "title": "Russian missile strike - Izmail port, Odesa Oblast",
        "summary": "Port infrastructure struck in Danube corridor",
        "date": "2026-08-18",
        "severity": 7,
        "source": "acled"
      }
    },
    {
      "type": "Feature",
      "geometry": {
        "type": "Point",
        "coordinates": [
          37.62,
          55.75
        ]
      },
      "properties": {
        "title": "600+ drones targeted Moscow region",
        "summary": "Ukraine drone barrage - Russia claims 600+ drones",
        "date": "2026-08-18",
        "severity": 6,
        "source": "acled"
      }
    },
    {
      "type": "Feature",
      "geometry": {
        "type": "Point",
        "coordinates": [
          30.52,
          50.45
        ]
      },
      "properties": {
        "title": "Smoke near Kyiv after missile strikes",
        "summary": "Missile strikes triggered air alerts",
        "date": "2026-08-16",
        "severity": 7,
        "source": "acled"
      }
    },
    {
      "type": "Feature",
      "geometry": {
        "type": "Point",
        "coordinates": [
          56.5,
          26.5
        ]
      },
      "properties": {
        "title": "UKMTO - vessel struck in Strait of Hormuz",
        "summary": "Unknown projectile hit vessel, crew member injured",
        "date": "2026-08-18",
        "severity": 8,
        "source": "acled"
      }
    },
    {
      "type": "Feature",
      "geometry": {
        "type": "Point",
        "coordinates": [
          56.3,
          26.4
        ]
      },
      "properties": {
        "title": "ADNOC vessel attacked - Strait of Hormuz",
        "summary": "No injuries reported in ADNOC incident",
        "date": "2026-08-17",
        "severity": 8,
        "source": "acled"
      }
    },
    {
      "type": "Feature",
      "geometry": {
        "type": "Point",
        "coordinates": [
          35.5,
          33.3
        ]
      },
      "properties": {
        "title": "Israeli airstrike - Mansouri, South Lebanon",
        "summary": "Israeli warplanes targeted location in S. Lebanon",
        "date": "2026-08-18",
        "severity": 6,
        "source": "acled"
      }
    },
    {
      "type": "Feature",
      "geometry": {
        "type": "Point",
        "coordinates": [
          43.2,
          14.5
        ]
      },
      "properties": {
        "title": "Houthi forces movement - Red Sea coast, Yemen",
        "summary": "Houthi ground forces moving from Dhamar/Ibb toward Red Sea",
        "date": "2026-08-16",
        "severity": 6,
        "source": "acled"
      }
    },
    {
      "type": "Feature",
      "geometry": {
        "type": "Point",
        "coordinates": [
          -80.1,
          26.7
        ]
      },
      "properties": {
        "title": "Wildfire - Palm Beach County, Florida",
        "summary": "THE H1 wildfire, Palm Beach, FL",
        "date": "2026-08-18",
        "severity": 4,
        "source": "firms"
      }
    },
    {
      "type": "Feature",
      "geometry": {
        "type": "Point",
        "coordinates": [
          -120.3,
          42.8
        ]
      },
      "properties": {
        "title": "Wildfire - Oregon (Picture Rock)",
        "summary": "Picture Rock wildfire, Lake County, Oregon",
        "date": "2026-08-18",
        "severity": 4,
        "source": "firms"
      }
    },
    {
      "type": "Feature",
      "geometry": {
        "type": "Point",
        "coordinates": [
          -105.0,
          18.0
        ]
      },
      "properties": {
        "title": "Tropical Storm Lala",
        "summary": "Active tropical storm - Eastern Pacific",
        "date": "2026-08-18",
        "severity": 5,
        "source": "gdacs"
      }
    },
    {
      "type": "Feature",
      "geometry": {
        "type": "Point",
        "coordinates": [
          -110.0,
          22.0
        ]
      },
      "properties": {
        "title": "Cyclone Hernan",
        "summary": "Active cyclone - Eastern Pacific",
        "date": "2026-08-18",
        "severity": 6,
        "source": "gdacs"
      }
    }
  ]
}