{
  "type": "FeatureCollection",
  "features": [
    {
      "type": "Feature",
      "geometry": {
        "type": "Point",
        "coordinates": [
          126.5,
          8.5
        ]
      },
      "properties": {
        "title": "Philippines M6.5 Earthquake (GDACS Orange)",
        "summary": "Magnitude 6.5 at depth 42km, June 26 2026 11:34 UTC. Orange GDACS alert.",
        "date": "2026-06-26",
        "severity": 6,
        "source": "gdacs"
      }
    },
    {
      "type": "Feature",
      "geometry": {
        "type": "Point",
        "coordinates": [
          -68.47,
          10.44
        ]
      },
      "properties": {
        "title": "Venezuela Twin Earthquakes M7.2+M7.5 (1,430+ dead)",
        "summary": "Two earthquakes within 39 seconds June 24 2026 near San Felipe Yaracuy. 1,430+ confirmed dead, 3,238 injured, 68,900+ missing. Worst Venezuelan seismic event in 125 years.",
        "date": "2026-06-24",
        "severity": 10,
        "source": "usgs"
      }
    },
    {
      "type": "Feature",
      "geometry": {
        "type": "Point",
        "coordinates": [
          142.8,
          39.5
        ]
      },
      "properties": {
        "title": "Japan M6.9 Earthquake (Iwate)",
        "summary": "Magnitude 6.9 earthquake near Iwate Prefecture June 27 2026. Strong shaking felt across multiple regions.",
        "date": "2026-06-27",
        "severity": 5,
        "source": "gdacs"
      }
    },
    {
      "type": "Feature",
      "geometry": {
        "type": "Point",
        "coordinates": [
          70.3,
          36.2
        ]
      },
      "properties": {
        "title": "Afghanistan M6.1 Earthquake (208km depth)",
        "summary": "Magnitude 6.1 at 208km depth June 27 2026. Deep focus reduces surface damage.",
        "date": "2026-06-27",
        "severity": 3,
        "source": "gdacs"
      }
    },
    {
      "type": "Feature",
      "geometry": {
        "type": "Point",
        "coordinates": [
          55.96,
          54.74
        ]
      },
      "properties": {
        "title": "Ukraine strikes Ufa oil refineries (Russia) - Jun 25",
        "summary": "Ukrainian forces hit Bashneft-Ufaneftekhim and Bashneft-Novoil refineries in Ufa Bashkortostan ~1500km from frontline. Zelenskyy confirmed strikes. Smoke visible on satellite.",
        "date": "2026-06-25",
        "severity": 7,
        "source": "acled"
      }
    },
    {
      "type": "Feature",
      "geometry": {
        "type": "Point",
        "coordinates": [
          38.97,
          45.04
        ]
      },
      "properties": {
        "title": "Ukraine strikes Poltavskaya oil depot (Krasnodar)",
        "summary": "Ukrainian long-range strike on oil depot near Poltavskaya in Krasnodar region ~300km from frontline. Zelenskyy confirmed.",
        "date": "2026-06-25",
        "severity": 6,
        "source": "acled"
      }
    },
    {
      "type": "Feature",
      "geometry": {
        "type": "Point",
        "coordinates": [
          36.23,
          49.99
        ]
      },
      "properties": {
        "title": "Explosions reported in Kharkiv",
        "summary": "Explosions reported in Kharkiv June 25 2026. Russian missile/drone strike on Ukraine's second city.",
        "date": "2026-06-25",
        "severity": 6,
        "source": "acled"
      }
    },
    {
      "type": "Feature",
      "geometry": {
        "type": "Point",
        "coordinates": [
          34.46,
          31.5
        ]
      },
      "properties": {
        "title": "Gaza - IDF operations continue",
        "summary": "IDF airstrikes on Gaza City and Al-Maghazi camp June 26 2026. Ongoing post-ceasefire security operations.",
        "date": "2026-06-26",
        "severity": 7,
        "source": "acled"
      }
    },
    {
      "type": "Feature",
      "geometry": {
        "type": "Point",
        "coordinates": [
          35.48,
          33.27
        ]
      },
      "properties": {
        "title": "IDF airstrikes southern Lebanon - Barashit/Nabatiyeh",
        "summary": "Israeli warplanes strike Barashit outskirts and Nabatiyeh Range Rover June 25-26 2026. Three killed in Nabatiyeh strike. Part of IDF post-ceasefire security operations.",
        "date": "2026-06-25",
        "severity": 6,
        "source": "acled"
      }
    },
    {
      "type": "Feature",
      "geometry": {
        "type": "Point",
        "coordinates": [
          30.05,
          1.83
        ]
      },
      "properties": {
        "title": "DRC/Uganda Bundibugyo Virus Disease - 896 cases, 232 deaths",
        "summary": "Ongoing Bundibugyo Ebola-family outbreak in DRC and Uganda. 896 confirmed cases 232 deaths as of June 17. Rapid expansion across multiple health zones.",
        "date": "2026-06-19",
        "severity": 8,
        "source": "gdacs"
      }
    },
    {
      "type": "Feature",
      "geometry": {
        "type": "Point",
        "coordinates": [
          56.5,
          26.6
        ]
      },
      "properties": {
        "title": "Strait of Hormuz - June 25 cargo vessel attack",
        "summary": "Cargo vessel struck by unknown projectile near Oman coast June 25. IMO halted Hormuz evacuation plan. ~70 vessels transited June 25 but attack reversed momentum. Partial normalization at <5M bpd vs pre-war 15M bpd.",
        "date": "2026-06-25",
        "severity": 7,
        "source": "acled"
      }
    },
    {
      "type": "Feature",
      "geometry": {
        "type": "Point",
        "coordinates": [
          141.4,
          35.5
        ]
      },
      "properties": {
        "title": "Typhoon Mekkhala (40 kts) - Japan",
        "summary": "Typhoon Mekkhala tracking near Japan June 27 2026 at 40 knots. Monitor for landfall impacts.",
        "date": "2026-06-27",
        "severity": 4,
        "source": "gdacs"
      }
    },
    {
      "type": "Feature",
      "geometry": {
        "type": "Point",
        "coordinates": [
          142.9,
          36.4
        ]
      },
      "properties": {
        "title": "Tropical Storm Higos (45 kts) - Japan",
        "summary": "Tropical Storm Higos active near Japan June 27 2026 at 45 knots intensity.",
        "date": "2026-06-27",
        "severity": 3,
        "source": "gdacs"
      }
    }
  ]
}