{"type": "FeatureCollection", "features": [{"type": "Feature", "geometry": {"type": "Point", "coordinates": [127.4598, -6.6264]}, "properties": {"title": "M6.0 Earthquake", "summary": "215 km NNE of Lospalos, Timor Leste", "date": "2026-08-25", "severity": 9, "source": "usgs"}}, {"type": "Feature", "geometry": {"type": "Point", "coordinates": [121.5709, 22.6053]}, "properties": {"title": "M5.5 Earthquake", "summary": "108 km NE of Hengchun, Taiwan", "date": "2026-08-25", "severity": 8, "source": "usgs"}}, {"type": "Feature", "geometry": {"type": "Point", "coordinates": [129.6871, -5.0525]}, "properties": {"title": "M5.5 Earthquake", "summary": "207 km SSE of Amahai, Indonesia", "date": "2026-08-25", "severity": 8, "source": "usgs"}}, {"type": "Feature", "geometry": {"type": "Point", "coordinates": [127.5019, -6.6912]}, "properties": {"title": "M5.0 Earthquake", "summary": "209 km NNE of Lospalos, Timor Leste", "date": "2026-08-25", "severity": 7, "source": "usgs"}}, {"type": "Feature", "geometry": {"type": "Point", "coordinates": [-13.8368, -17.7036]}, "properties": {"title": "M5.0 Earthquake", "summary": "southern Mid-Atlantic Ridge", "date": "2026-08-25", "severity": 7, "source": "usgs"}}, {"type": "Feature", "geometry": {"type": "Point", "coordinates": [37.8, 47.1]}, "properties": {"title": "Drone strike - Krasnodar", "summary": "Drone strike - Krasnodar", "date": "2026-08-25", "severity": 6, "source": "acled"}}, {"type": "Feature", "geometry": {"type": "Point", "coordinates": [33.4, 48.5]}, "properties": {"title": "Artillery - Dnipro area", "summary": "Artillery - Dnipro area", "date": "2026-08-23", "severity": 5, "source": "acled"}}, {"type": "Feature", "geometry": {"type": "Point", "coordinates": [36.3, 49.0]}, "properties": {"title": "Strike - Kharkiv region", "summary": "Strike - Kharkiv region", "date": "2026-08-24", "severity": 5, "source": "acled"}}, {"type": "Feature", "geometry": {"type": "Point", "coordinates": [38.2, 47.9]}, "properties": {"title": "Drone attack - Samara", "summary": "Drone attack - Samara", "date": "2026-08-22", "severity": 4, "source": "acled"}}, {"type": "Feature", "geometry": {"type": "Point", "coordinates": [31.2, 46.9]}, "properties": {"title": "Strike - Mykolaiv area", "summary": "Strike - Mykolaiv area", "date": "2026-08-23", "severity": 5, "source": "acled"}}, {"type": "Feature", "geometry": {"type": "Point", "coordinates": [35.2, 31.7]}, "properties": {"title": "IDF operations - West Bank", "summary": "IDF operations - West Bank", "date": "2026-08-24", "severity": 7, "source": "acled"}}, {"type": "Feature", "geometry": {"type": "Point", "coordinates": [35.5, 33.5]}, "properties": {"title": "Artillery - S Lebanon", "summary": "Artillery - S Lebanon", "date": "2026-08-24", "severity": 6, "source": "acled"}}, {"type": "Feature", "geometry": {"type": "Point", "coordinates": [34.8, 31.5]}, "properties": {"title": "Gaza operations", "summary": "Gaza operations", "date": "2026-08-24", "severity": 8, "source": "acled"}}]}