{
  "type": "FeatureCollection",
  "features": [
    {
      "type": "Feature",
      "geometry": {
        "type": "Point",
        "coordinates": [
          125.5,
          5.4
        ]
      },
      "properties": {
        "title": "M6.2 Earthquake - Philippines",
        "summary": "34km WSW of Sarangani, Philippines. 30k in MMI VI. Green GDACS alert.",
        "date": "2026-07-14",
        "severity": 5,
        "source": "usgs"
      }
    },
    {
      "type": "Feature",
      "geometry": {
        "type": "Point",
        "coordinates": [
          -176.2,
          -17.7
        ]
      },
      "properties": {
        "title": "M5.5 Earthquake - Fiji",
        "summary": "Deep focus (574km). Few people affected.",
        "date": "2026-07-14",
        "severity": 2,
        "source": "gdacs"
      }
    },
    {
      "type": "Feature",
      "geometry": {
        "type": "Point",
        "coordinates": [
          -108.0,
          16.0
        ]
      },
      "properties": {
        "title": "Tropical Storm ELIDA-26 (East Pacific)",
        "summary": "Cat 1 equivalent. Max wind 157 km/h. No significant population impact.",
        "date": "2026-07-15",
        "severity": 3,
        "source": "gdacs"
      }
    },
    {
      "type": "Feature",
      "geometry": {
        "type": "Point",
        "coordinates": [
          166.9,
          -21.3
        ]
      },
      "properties": {
        "title": "M6.3 Earthquake - New Caledonia",
        "summary": "10km depth. Few people affected in MMI V.",
        "date": "2026-07-13",
        "severity": 4,
        "source": "gdacs"
      }
    },
    {
      "type": "Feature",
      "geometry": {
        "type": "Point",
        "coordinates": [
          147.2,
          -6.3
        ]
      },
      "properties": {
        "title": "M6.4 Earthquake - Papua New Guinea",
        "summary": "60k in MMI IV.",
        "date": "2026-07-13",
        "severity": 4,
        "source": "gdacs"
      }
    },
    {
      "type": "Feature",
      "geometry": {
        "type": "Point",
        "coordinates": [
          9.0,
          51.0
        ]
      },
      "properties": {
        "title": "Flood - Germany",
        "summary": "Ongoing flood, 0 deaths, 0 displaced. GDACS green alert.",
        "date": "2026-07-13",
        "severity": 3,
        "source": "gdacs"
      }
    },
    {
      "type": "Feature",
      "geometry": {
        "type": "Point",
        "coordinates": [
          30.5,
          50.4
        ]
      },
      "properties": {
        "title": "Kyiv/Vyshneve - Russian missile/drone attack",
        "summary": "26 killed July 6. 23 ballistic + 39 cruise + 6 Zircon + 351 drones. Air defense shortage exposed.",
        "date": "2026-07-06",
        "severity": 9,
        "source": "acled"
      }
    },
    {
      "type": "Feature",
      "geometry": {
        "type": "Point",
        "coordinates": [
          35.2,
          47.0
        ]
      },
      "properties": {
        "title": "Dnipropetrovsk - Ukraine clears 6 settlements",
        "summary": "Ukrainian forces cleared Ternove, Zaporizhske, Novoheorhiivka, Vorone, Sichneve, Maliivka. 126 sq km retaken.",
        "date": "2026-07-13",
        "severity": 6,
        "source": "acled"
      }
    },
    {
      "type": "Feature",
      "geometry": {
        "type": "Point",
        "coordinates": [
          56.25,
          54.98
        ]
      },
      "properties": {
        "title": "Omsk Refinery - Ukrainian drone strike",
        "summary": "First-ever strike on Omsk. ~10% of Russian refining capacity. 2500km from Ukraine.",
        "date": "2026-07-06",
        "severity": 8,
        "source": "firms"
      }
    },
    {
      "type": "Feature",
      "geometry": {
        "type": "Point",
        "coordinates": [
          36.5,
          45.35
        ]
      },
      "properties": {
        "title": "Kerch Port / Kavkaz terminal - Ukrainian drone attack",
        "summary": "Ferries Yeysk, Mariya, Lavrentiy and Panagiya hit. Oil tanks ignited. Pantsir-S1 on fire.",
        "date": "2026-07-12",
        "severity": 7,
        "source": "firms"
      }
    },
    {
      "type": "Feature",
      "geometry": {
        "type": "Point",
        "coordinates": [
          56.27,
          26.97
        ]
      },
      "properties": {
        "title": "Strait of Hormuz - Iran closes, tanker attacks",
        "summary": "ADNOC tankers Al Bahyah and Mombasa B struck July 14. One killed. Iran declared indefinite closure.",
        "date": "2026-07-14",
        "severity": 10,
        "source": "acled"
      }
    },
    {
      "type": "Feature",
      "geometry": {
        "type": "Point",
        "coordinates": [
          56.27,
          26.55
        ]
      },
      "properties": {
        "title": "Bandar Abbas / Qeshm - CENTCOM strikes",
        "summary": "Part of 300+ targets struck across 3 nights. Bandar Abbas western sector and Qeshm Island hit.",
        "date": "2026-07-08",
        "severity": 9,
        "source": "acled"
      }
    },
    {
      "type": "Feature",
      "geometry": {
        "type": "Point",
        "coordinates": [
          60.65,
          25.3
        ]
      },
      "properties": {
        "title": "Chabahar - 7 explosions, CENTCOM strikes",
        "summary": "Severe explosions reported. IRGC Navy coastal installations hit.",
        "date": "2026-07-08",
        "severity": 8,
        "source": "acled"
      }
    },
    {
      "type": "Feature",
      "geometry": {
        "type": "Point",
        "coordinates": [
          35.2,
          31.7
        ]
      },
      "properties": {
        "title": "Gaza - Ongoing strikes",
        "summary": "Israeli drone strike al-Tuam neighborhood. Heavy gunfire al-Bureij camp.",
        "date": "2026-07-14",
        "severity": 7,
        "source": "acled"
      }
    },
    {
      "type": "Feature",
      "geometry": {
        "type": "Point",
        "coordinates": [
          35.5,
          33.4
        ]
      },
      "properties": {
        "title": "Lebanon / Nabatiyeh - explosions",
        "summary": "Large explosion Hadatha. Israeli bombing Beit Yahoun. Israeli airstrikes on Nabatiyeh.",
        "date": "2026-07-13",
        "severity": 6,
        "source": "acled"
      }
    },
    {
      "type": "Feature",
      "geometry": {
        "type": "Point",
        "coordinates": [
          30.0,
          55.75
        ]
      },
      "properties": {
        "title": "Moscow region - Ukrainian drone raid",
        "summary": "Drones raid in Moscow region. Local authorities report shootdowns.",
        "date": "2026-07-14",
        "severity": 6,
        "source": "acled"
      }
    },
    {
      "type": "Feature",
      "geometry": {
        "type": "Point",
        "coordinates": [
          44.5,
          -2.5
        ]
      },
      "properties": {
        "title": "DRC - M23 conflict",
        "summary": "Ongoing M23 operations in eastern DRC.",
        "date": "2026-07-15",
        "severity": 6,
        "source": "acled"
      }
    },
    {
      "type": "Feature",
      "geometry": {
        "type": "Point",
        "coordinates": [
          -114.0,
          54.0
        ]
      },
      "properties": {
        "title": "Canada - Multiple forest fire notifications",
        "summary": "GDACS green fire notifications. Multiple active fires.",
        "date": "2026-07-14",
        "severity": 3,
        "source": "firms"
      }
    },
    {
      "type": "Feature",
      "geometry": {
        "type": "Point",
        "coordinates": [
          -115.5,
          41.2
        ]
      },
      "properties": {
        "title": "Elko, Nevada - 18 Mile Wildfire",
        "summary": "Active wildfire per NASA EONET.",
        "date": "2026-07-12",
        "severity": 3,
        "source": "firms"
      }
    },
    {
      "type": "Feature",
      "geometry": {
        "type": "Point",
        "coordinates": [
          -108.5,
          46.5
        ]
      },
      "properties": {
        "title": "Montana - Heavy Timber Wildfire",
        "summary": "Active wildfire in Musselshell County.",
        "date": "2026-07-12",
        "severity": 3,
        "source": "firms"
      }
    }
  ]
}