{
  "type": "FeatureCollection",
  "features": [
    {
      "type": "Feature",
      "geometry": {
        "type": "Point",
        "coordinates": [
          123.13,
          10.41
        ]
      },
      "properties": {
        "title": "Kanlaon Volcano Eruption",
        "summary": "Moderately explosive eruption, ash plume 2-3km, Alert Level 2",
        "date": "2026-07-09",
        "severity": 5,
        "source": "gdacs"
      }
    },
    {
      "type": "Feature",
      "geometry": {
        "type": "Point",
        "coordinates": [
          167.2,
          -15.5
        ]
      },
      "properties": {
        "title": "Earthquake M5.8 Vanuatu",
        "summary": "Magnitude 5.8, depth 10km, 10k affected at MMI IV",
        "date": "2026-07-08",
        "severity": 4,
        "source": "usgs"
      }
    },
    {
      "type": "Feature",
      "geometry": {
        "type": "Point",
        "coordinates": [
          -70.5,
          -30.2
        ]
      },
      "properties": {
        "title": "Earthquake M5.8 Chile",
        "summary": "Magnitude 5.8, depth 10km, few affected",
        "date": "2026-07-07",
        "severity": 3,
        "source": "usgs"
      }
    },
    {
      "type": "Feature",
      "geometry": {
        "type": "Point",
        "coordinates": [
          163.0,
          -66.5
        ]
      },
      "properties": {
        "title": "Earthquake M5.5 Balleny Islands",
        "summary": "Magnitude 5.5, depth 10km, remote",
        "date": "2026-07-08",
        "severity": 2,
        "source": "usgs"
      }
    },
    {
      "type": "Feature",
      "geometry": {
        "type": "Point",
        "coordinates": [
          127.5,
          37.5
        ]
      },
      "properties": {
        "title": "Flood Alert South Korea",
        "summary": "GDACS Green flood alert",
        "date": "2026-07-10",
        "severity": 3,
        "source": "gdacs"
      }
    },
    {
      "type": "Feature",
      "geometry": {
        "type": "Point",
        "coordinates": [
          -70.0,
          -33.0
        ]
      },
      "properties": {
        "title": "Flood Alert Chile",
        "summary": "GDACS Green flood alert",
        "date": "2026-07-09",
        "severity": 3,
        "source": "gdacs"
      }
    },
    {
      "type": "Feature",
      "geometry": {
        "type": "Point",
        "coordinates": [
          135.0,
          -25.0
        ]
      },
      "properties": {
        "title": "Forest Fires Australia",
        "summary": "Multiple GDACS Green forest fire notifications",
        "date": "2026-07-10",
        "severity": 3,
        "source": "gdacs"
      }
    },
    {
      "type": "Feature",
      "geometry": {
        "type": "Point",
        "coordinates": [
          30.52,
          50.45
        ]
      },
      "properties": {
        "title": "Russian Strike Kyiv Region - 28 killed",
        "summary": "Massive missile/drone attack eve of NATO summit; 68 missiles, 351 drones; all ballistic missiles penetrated; 28 killed in Vyshneve area",
        "date": "2026-07-06",
        "severity": 9,
        "source": "acled"
      }
    },
    {
      "type": "Feature",
      "geometry": {
        "type": "Point",
        "coordinates": [
          33.5,
          48.0
        ]
      },
      "properties": {
        "title": "Frontline Combat - Oleksandrivka direction",
        "summary": "Clashes near Oleksandrohrad, Sichneve, Ternove, Kalynivske (Dnipropetrovsk Oblast)",
        "date": "2026-07-07",
        "severity": 6,
        "source": "acled"
      }
    },
    {
      "type": "Feature",
      "geometry": {
        "type": "Point",
        "coordinates": [
          37.5,
          48.9
        ]
      },
      "properties": {
        "title": "Frontline Combat - Sloviansk direction",
        "summary": "Clashes near Kryva Luka, Ray-Oleksandrivka, Riznykivka (Donetsk Oblast)",
        "date": "2026-07-02",
        "severity": 6,
        "source": "acled"
      }
    },
    {
      "type": "Feature",
      "geometry": {
        "type": "Point",
        "coordinates": [
          36.47,
          45.36
        ]
      },
      "properties": {
        "title": "Kerch Port Oil Terminal Fire",
        "summary": "Ukrainian drone strike sets oil/gas terminal ablaze at Kerch port, Crimea; Simferopol substation also hit",
        "date": "2026-07-06",
        "severity": 7,
        "source": "firms"
      }
    },
    {
      "type": "Feature",
      "geometry": {
        "type": "Point",
        "coordinates": [
          73.4,
          54.97
        ]
      },
      "properties": {
        "title": "Omsk Oil Refinery Strike",
        "summary": "Ukrainian FP-1 drones hit Russia's largest oil refinery; 4 impact sites confirmed by satellite; main processing unit ELOU-AVT-11 offline; 12% of Russia's refining capacity",
        "date": "2026-07-06",
        "severity": 8,
        "source": "acled"
      }
    },
    {
      "type": "Feature",
      "geometry": {
        "type": "Point",
        "coordinates": [
          37.62,
          55.75
        ]
      },
      "properties": {
        "title": "Missile Alert Moscow Region",
        "summary": "Missile threat alert declared in Moscow region",
        "date": "2026-07-06",
        "severity": 5,
        "source": "acled"
      }
    },
    {
      "type": "Feature",
      "geometry": {
        "type": "Point",
        "coordinates": [
          36.6,
          50.6
        ]
      },
      "properties": {
        "title": "Belgorod Missile Strike",
        "summary": "Missile strike reported in Belgorod, Russia",
        "date": "2026-07-03",
        "severity": 5,
        "source": "acled"
      }
    },
    {
      "type": "Feature",
      "geometry": {
        "type": "Point",
        "coordinates": [
          34.31,
          31.35
        ]
      },
      "properties": {
        "title": "Israeli Drone Strike Khan Younis",
        "summary": "Israeli drone struck motorcycle northwest of Khan Younis, southern Gaza Strip; 2 killed",
        "date": "2026-06-30",
        "severity": 6,
        "source": "acled"
      }
    },
    {
      "type": "Feature",
      "geometry": {
        "type": "Point",
        "coordinates": [
          35.5,
          33.5
        ]
      },
      "properties": {
        "title": "Israeli Airstrike Lebanon",
        "summary": "Israeli airstrike targeted town of Deir Seryan",
        "date": "2026-07-05",
        "severity": 6,
        "source": "acled"
      }
    },
    {
      "type": "Feature",
      "geometry": {
        "type": "Point",
        "coordinates": [
          32.5,
          15.5
        ]
      },
      "properties": {
        "title": "Sudan Ongoing Conflict (SAF-RSF)",
        "summary": "Continued fighting in Sudan between SAF and RSF; ~850 fatalities estimated week of Jul 7",
        "date": "2026-07-07",
        "severity": 8,
        "source": "acled"
      }
    },
    {
      "type": "Feature",
      "geometry": {
        "type": "Point",
        "coordinates": [
          -2.0,
          14.0
        ]
      },
      "properties": {
        "title": "Sahel Jihadist Activity",
        "summary": "JNIM/ISWAP operations across Mali-Burkina Faso-Niger corridor; ~310 fatalities/week",
        "date": "2026-07-07",
        "severity": 7,
        "source": "acled"
      }
    },
    {
      "type": "Feature",
      "geometry": {
        "type": "Point",
        "coordinates": [
          38.95,
          35.95
        ]
      },
      "properties": {
        "title": "ISIS Raqqa Attack Thwarted",
        "summary": "ISIS cell attack on security HQ in Raqqa thwarted; 1 attacker killed, 1 suicide bomber",
        "date": "2026-07-05",
        "severity": 5,
        "source": "acled"
      }
    }
  ]
}