{
  "type": "FeatureCollection",
  "features": [
    {
      "type": "Feature",
      "geometry": {
        "type": "Point",
        "coordinates": [
          30.5,
          50.2
        ]
      },
      "properties": {
        "type": "firms_hotspot",
        "description": "FIRMS VIIRS 375m thermal anomaly",
        "country": "Ukraine",
        "frp_mw": 2.8,
        "date": "2026-07-31",
        "satellite": "VIIRS S-NPP NRT"
      }
    },
    {
      "type": "Feature",
      "geometry": {
        "type": "Point",
        "coordinates": [
          31.2,
          51.5
        ]
      },
      "properties": {
        "type": "firms_hotspot",
        "description": "FIRMS VIIRS 375m thermal anomaly",
        "country": "Ukraine",
        "frp_mw": 1.4,
        "date": "2026-07-31",
        "satellite": "VIIRS S-NPP NRT"
      }
    },
    {
      "type": "Feature",
      "geometry": {
        "type": "Point",
        "coordinates": [
          29.3,
          49.8
        ]
      },
      "properties": {
        "type": "firms_hotspot",
        "description": "FIRMS VIIRS 375m thermal anomaly",
        "country": "Ukraine",
        "frp_mw": 6.38,
        "date": "2026-07-31",
        "satellite": "VIIRS S-NPP NRT"
      }
    },
    {
      "type": "Feature",
      "geometry": {
        "type": "Point",
        "coordinates": [
          39.7,
          54.6
        ]
      },
      "properties": {
        "type": "firms_hotspot",
        "description": "FIRMS VIIRS 375m thermal anomaly - Ryazan Rosneft refinery fire",
        "country": "Russia",
        "frp_mw": 4.2,
        "date": "2026-07-31",
        "satellite": "VIIRS S-NPP NRT"
      }
    },
    {
      "type": "Feature",
      "geometry": {
        "type": "Point",
        "coordinates": [
          44.5,
          48.5
        ]
      },
      "properties": {
        "type": "firms_hotspot",
        "description": "FIRMS VIIRS 375m thermal anomaly - Lukoil Volgograd fire",
        "country": "Russia",
        "frp_mw": 3.1,
        "date": "2026-07-31",
        "satellite": "VIIRS S-NPP NRT"
      }
    },
    {
      "type": "Feature",
      "geometry": {
        "type": "Point",
        "coordinates": [
          37.9,
          55.6
        ]
      },
      "properties": {
        "type": "firms_hotspot",
        "description": "FIRMS VIIRS 375m thermal anomaly - Moscow Koledino warehouse fire",
        "country": "Russia",
        "frp_mw": 2.4,
        "date": "2026-07-31",
        "satellite": "VIIRS S-NPP NRT"
      }
    },
    {
      "type": "Feature",
      "geometry": {
        "type": "Point",
        "coordinates": [
          44.4,
          33.3
        ]
      },
      "properties": {
        "type": "airstrike",
        "description": "US-Saudi airstrike PMF position - Baghdad province",
        "country": "Iraq",
        "date": "2026-07-29",
        "source": "ukraine_theater/liveuamap",
        "fatalities_est": 3,
        "actor": "US-Saudi coalition vs PMF"
      }
    },
    {
      "type": "Feature",
      "geometry": {
        "type": "Point",
        "coordinates": [
          45.8,
          32.5
        ]
      },
      "properties": {
        "type": "airstrike",
        "description": "US-Saudi airstrike PMF position - Wasit province",
        "country": "Iraq",
        "date": "2026-07-29",
        "source": "ukraine_theater/liveuamap",
        "fatalities_est": 3,
        "actor": "US-Saudi coalition vs PMF"
      }
    },
    {
      "type": "Feature",
      "geometry": {
        "type": "Point",
        "coordinates": [
          47.8,
          31.0
        ]
      },
      "properties": {
        "type": "airstrike",
        "description": "US-Saudi airstrike PMF position - Basra province",
        "country": "Iraq",
        "date": "2026-07-29",
        "source": "ukraine_theater/liveuamap",
        "fatalities_est": 3,
        "actor": "US-Saudi coalition vs PMF"
      }
    },
    {
      "type": "Feature",
      "geometry": {
        "type": "Point",
        "coordinates": [
          43.7,
          34.5
        ]
      },
      "properties": {
        "type": "airstrike",
        "description": "US-Saudi airstrike PMF position - Salah al-Din province",
        "country": "Iraq",
        "date": "2026-07-29",
        "source": "ukraine_theater/liveuamap",
        "fatalities_est": 3,
        "actor": "US-Saudi coalition vs PMF"
      }
    },
    {
      "type": "Feature",
      "geometry": {
        "type": "Point",
        "coordinates": [
          42.5,
          33.9
        ]
      },
      "properties": {
        "type": "airstrike",
        "description": "US-Saudi airstrike PMF position - Anbar province",
        "country": "Iraq",
        "date": "2026-07-29",
        "source": "ukraine_theater/liveuamap",
        "fatalities_est": 3,
        "actor": "US-Saudi coalition vs PMF"
      }
    },
    {
      "type": "Feature",
      "geometry": {
        "type": "Point",
        "coordinates": [
          44.0,
          35.6
        ]
      },
      "properties": {
        "type": "airstrike",
        "description": "US-Saudi airstrike PMF position - Kirkuk province",
        "country": "Iraq",
        "date": "2026-07-29",
        "source": "ukraine_theater/liveuamap",
        "fatalities_est": 3,
        "actor": "US-Saudi coalition vs PMF"
      }
    },
    {
      "type": "Feature",
      "geometry": {
        "type": "Point",
        "coordinates": [
          43.1,
          36.3
        ]
      },
      "properties": {
        "type": "airstrike",
        "description": "US-Saudi airstrike PMF position - Mosul/Nineveh province",
        "country": "Iraq",
        "date": "2026-07-29",
        "source": "ukraine_theater/liveuamap",
        "fatalities_est": 3,
        "actor": "US-Saudi coalition vs PMF"
      }
    },
    {
      "type": "Feature",
      "geometry": {
        "type": "Point",
        "coordinates": [
          56.2,
          26.5
        ]
      },
      "properties": {
        "type": "maritime_event",
        "description": "Strait of Hormuz chokepoint - operating at 11% pre-war baseline",
        "country": "Iran-Oman",
        "date": "2026-07-30",
        "source": "ukraine_theater/liveuamap"
      }
    },
    {
      "type": "Feature",
      "geometry": {
        "type": "Point",
        "coordinates": [
          43.3,
          12.5
        ]
      },
      "properties": {
        "type": "maritime_event",
        "description": "Bab el-Mandeb Maritime Coalition patrol zone",
        "country": "Yemen",
        "date": "2026-07-30",
        "source": "ukraine_theater/liveuamap"
      }
    },
    {
      "type": "Feature",
      "geometry": {
        "type": "Point",
        "coordinates": [
          46.7,
          24.7
        ]
      },
      "properties": {
        "type": "maritime_event",
        "description": "Riyadh - 14-country Maritime Defense Coalition signing Jul 30",
        "country": "Saudi Arabia",
        "date": "2026-07-30",
        "source": "ukraine_theater/liveuamap"
      }
    },
    {
      "type": "Feature",
      "geometry": {
        "type": "Point",
        "coordinates": [
          -117.14,
          32.87
        ]
      },
      "properties": {
        "type": "aviation_mishap",
        "description": "F-35B Class A mishap MCAS Miramar - 3rd Marine Aircraft Wing, pilot ejected safely",
        "country": "United States",
        "date": "2026-07-31",
        "source": "california_cross_section"
      }
    },
    {
      "type": "Feature",
      "geometry": {
        "type": "Point",
        "coordinates": [
          58.6,
          23.6
        ]
      },
      "properties": {
        "type": "diplomacy",
        "description": "Oman-Iran Hormuz normalization talks",
        "country": "Oman",
        "date": "2026-07-31",
        "source": "liveuamap"
      }
    }
  ],
  "metadata": {
    "date": "2026-08-01",
    "bundle_date": "2026-07-31",
    "feature_count": 18
  }
}