{"type": "FeatureCollection", "features": [{"type": "Feature", "geometry": {"type": "Point", "coordinates": [-75.3013, -12.0429]}, "properties": {"title": "M5.5 2 km WSW of Sicaya, Peru", "summary": "Magnitude 5.5 earthquake at depth 10km. GDACS: Orange alert.", "date": "2026-07-19", "severity": 8, "source": "usgs"}}, {"type": "Feature", "geometry": {"type": "Point", "coordinates": [53.688, 32.4279]}, "properties": {"title": "CENTCOM Strike on Iran - Night 7", "summary": "US-Iran military exchange escalation, 7th consecutive night of CENTCOM strikes.", "date": "2026-07-18", "severity": 9, "source": "acled"}}, {"type": "Feature", "geometry": {"type": "Point", "coordinates": [36.5, 32.0]}, "properties": {"title": "Iran IRGC Attack - Jordan US Base", "summary": "US-Iran military exchange escalation, 7th consecutive night of CENTCOM strikes.", "date": "2026-07-18", "severity": 8, "source": "acled"}}, {"type": "Feature", "geometry": {"type": "Point", "coordinates": [47.9774, 29.3759]}, "properties": {"title": "Iran Strike - Kuwait Navy Berth", "summary": "US-Iran military exchange escalation, 7th consecutive night of CENTCOM strikes.", "date": "2026-07-18", "severity": 7, "source": "acled"}}, {"type": "Feature", "geometry": {"type": "Point", "coordinates": [50.8385, 28.9684]}, "properties": {"title": "Bushehr Explosions", "summary": "US-Iran military exchange escalation, 7th consecutive night of CENTCOM strikes.", "date": "2026-07-18", "severity": 7, "source": "acled"}}, {"type": "Feature", "geometry": {"type": "Point", "coordinates": [44.191, 15.3694]}, "properties": {"title": "Houthis End Yemen Ceasefire", "summary": "US-Iran military exchange escalation, 7th consecutive night of CENTCOM strikes.", "date": "2026-07-18", "severity": 7, "source": "acled"}}, {"type": "Feature", "geometry": {"type": "Point", "coordinates": [35.5714, 33.4281]}, "properties": {"title": "Lebanese IDF Airstrike - Mefdon", "summary": "US-Iran military exchange escalation, 7th consecutive night of CENTCOM strikes.", "date": "2026-07-18", "severity": 6, "source": "acled"}}, {"type": "Feature", "geometry": {"type": "Point", "coordinates": [35.45, 33.3333]}, "properties": {"title": "Explosion - Zawtar Sharqiyah, Lebanon", "summary": "US-Iran military exchange escalation, 7th consecutive night of CENTCOM strikes.", "date": "2026-07-18", "severity": 6, "source": "acled"}}, {"type": "Feature", "geometry": {"type": "Point", "coordinates": [50.5, 26.0]}, "properties": {"title": "Iran - Ballistic Missiles toward Saudi/Qatar", "summary": "US-Iran military exchange escalation, 7th consecutive night of CENTCOM strikes.", "date": "2026-07-18", "severity": 7, "source": "acled"}}, {"type": "Feature", "geometry": {"type": "Point", "coordinates": [44.4009, 33.3406]}, "properties": {"title": "Iraqi Air Defenses Intercept Drones - US Consulate Area", "summary": "US-Iran military exchange escalation, 7th consecutive night of CENTCOM strikes.", "date": "2026-07-18", "severity": 6, "source": "acled"}}, {"type": "Feature", "geometry": {"type": "Point", "coordinates": [36.5872, 50.5956]}, "properties": {"title": "Ukrainian FPV Drone Downs Mi-28 - Belgorod", "summary": "Ukraine theater activity per Liveuamap/FIRMS data.", "date": "2026-07-18", "severity": 6, "source": "firms"}}, {"type": "Feature", "geometry": {"type": "Point", "coordinates": [36.0, 46.0]}, "properties": {"title": "Ukrainian Naval Drone Strike - Azov Sea", "summary": "Ukraine theater activity per Liveuamap/FIRMS data.", "date": "2026-07-18", "severity": 6, "source": "firms"}}, {"type": "Feature", "geometry": {"type": "Point", "coordinates": [33.0, 44.5]}, "properties": {"title": "Ukrainian Naval Drone Strike - Black Sea", "summary": "Ukraine theater activity per Liveuamap/FIRMS data.", "date": "2026-07-18", "severity": 6, "source": "firms"}}, {"type": "Feature", "geometry": {"type": "Point", "coordinates": [36.47, 45.3531]}, "properties": {"title": "Kerch Fire/Explosion", "summary": "Ukraine theater activity per Liveuamap/FIRMS data.", "date": "2026-07-18", "severity": 5, "source": "firms"}}, {"type": "Feature", "geometry": {"type": "Point", "coordinates": [37.6173, 55.7558]}, "properties": {"title": "Moscow Drone Intercepts", "summary": "Ukraine theater activity per Liveuamap/FIRMS data.", "date": "2026-07-18", "severity": 4, "source": "firms"}}, {"type": "Feature", "geometry": {"type": "Point", "coordinates": [-2.5, 17.0]}, "properties": {"title": "Mali Rebel Ambush - Army Convoy", "summary": "Rebels ambush army convoy, killing or capturing scores of soldiers.", "date": "2026-07-18", "severity": 7, "source": "acled"}}, {"type": "Feature", "geometry": {"type": "Point", "coordinates": [-74.9, -12.0]}, "properties": {"title": "M5.5 Earthquake - Sicaya, Peru (Orange alert)", "summary": "GDACS Orange. 30,000 people in MMI>=VII zone. Depth 10km.", "date": "2026-07-19", "severity": 6, "source": "gdacs"}}]}