{
  "type": "FeatureCollection",
  "features": [
    {
      "type": "Feature",
      "geometry": {
        "type": "Point",
        "coordinates": [
          35.8704,
          48.5357
        ]
      },
      "properties": {
        "title": "Russian strike, Pavlohrad",
        "summary": "3 killed, 10 wounded in Russian missile strike on Pavlohrad, Dnipropetrovsk Oblast",
        "date": "2026-07-25",
        "severity": 7,
        "source": "osint"
      }
    },
    {
      "type": "Feature",
      "geometry": {
        "type": "Point",
        "coordinates": [
          39.3062,
          48.574
        ]
      },
      "properties": {
        "title": "Explosions, Luhansk",
        "summary": "Explosions reported in Luhansk city, occupied Ukraine",
        "date": "2026-07-25",
        "severity": 5,
        "source": "osint"
      }
    },
    {
      "type": "Feature",
      "geometry": {
        "type": "Point",
        "coordinates": [
          34.1024,
          44.952
        ]
      },
      "properties": {
        "title": "Drone strike, Sudak substation, Crimea",
        "summary": "Power blackout in Sudak after drone strike on local substation",
        "date": "2026-07-25",
        "severity": 6,
        "source": "osint"
      }
    },
    {
      "type": "Feature",
      "geometry": {
        "type": "Point",
        "coordinates": [
          37.5453,
          55.4215
        ]
      },
      "properties": {
        "title": "Fuel depot fire, Podolsk, Moscow region",
        "summary": "Fuel depot fire near Podolsk, Moscow region",
        "date": "2026-07-25",
        "severity": 6,
        "source": "osint"
      }
    },
    {
      "type": "Feature",
      "geometry": {
        "type": "Point",
        "coordinates": [
          51.389,
          35.6892
        ]
      },
      "properties": {
        "title": "Shahran oil depot fire, Tehran",
        "summary": "Tehran's Shahran oil depot engulfed in fire after Israeli airstrikes",
        "date": "2026-07-25",
        "severity": 9,
        "source": "osint"
      }
    },
    {
      "type": "Feature",
      "geometry": {
        "type": "Point",
        "coordinates": [
          35.1396,
          47.8388
        ]
      },
      "properties": {
        "title": "Explosion, Zaporizhzhia",
        "summary": "Explosion reported in Zaporizhzhia, Ukraine",
        "date": "2026-07-25",
        "severity": 5,
        "source": "osint"
      }
    },
    {
      "type": "Feature",
      "geometry": {
        "type": "Point",
        "coordinates": [
          34.49,
          31.5085
        ]
      },
      "properties": {
        "title": "Israeli strikes near Al-Aqsa Hospital, Gaza",
        "summary": "Israeli airstrike in front of Al-Aqsa Martyrs Hospital gate, Deir al-Balah",
        "date": "2026-07-25",
        "severity": 8,
        "source": "osint"
      }
    },
    {
      "type": "Feature",
      "geometry": {
        "type": "Point",
        "coordinates": [
          35.259,
          32.2215
        ]
      },
      "properties": {
        "title": "Israeli settler attacks, village near Nablus",
        "summary": "Israeli settlers rampaged through Palestinian village, 4 Palestinians killed in West Bank",
        "date": "2026-07-25",
        "severity": 7,
        "source": "osint"
      }
    },
    {
      "type": "Feature",
      "geometry": {
        "type": "Point",
        "coordinates": [
          38.0,
          35.0
        ]
      },
      "properties": {
        "title": "Bus collision, eastern Syria",
        "summary": "At least 35 killed after two buses collide in eastern Syria",
        "date": "2026-07-25",
        "severity": 7,
        "source": "news"
      }
    },
    {
      "type": "Feature",
      "geometry": {
        "type": "Point",
        "coordinates": [
          13.405,
          52.52
        ]
      },
      "properties": {
        "title": "Car attack, Berlin LGBTQ event",
        "summary": "1 dead, 17 injured as car struck crowd at Berlin LGBTQ pride event",
        "date": "2026-07-25",
        "severity": 7,
        "source": "news"
      }
    },
    {
      "type": "Feature",
      "geometry": {
        "type": "Point",
        "coordinates": [
          117.5,
          19.3
        ]
      },
      "properties": {
        "title": "Typhoon Noul, South China Sea",
        "summary": "Typhoon Noul strengthening, forecast to hit Guangdong. Shenzhen rail/air services cancelled.",
        "date": "2026-07-25",
        "severity": 7,
        "source": "eonet"
      }
    },
    {
      "type": "Feature",
      "geometry": {
        "type": "Point",
        "coordinates": [
          -110.0,
          18.0
        ]
      },
      "properties": {
        "title": "Hurricane Fausto, Eastern Pacific",
        "summary": "Hurricane Fausto active in Eastern Pacific",
        "date": "2026-07-19",
        "severity": 6,
        "source": "eonet"
      }
    },
    {
      "type": "Feature",
      "geometry": {
        "type": "Point",
        "coordinates": [
          -122.5,
          44.5
        ]
      },
      "properties": {
        "title": "Wildfire Ten Mile, Jefferson County, Oregon",
        "summary": "Active wildfire in Jefferson County, Oregon",
        "date": "2026-07-23",
        "severity": 5,
        "source": "eonet"
      }
    },
    {
      "type": "Feature",
      "geometry": {
        "type": "Point",
        "coordinates": [
          42.5511,
          16.8892
        ]
      },
      "properties": {
        "title": "Houthi attack, Jazan, Saudi Arabia",
        "summary": "Houthis claimed attack on Saudi oil sites; smoke plumes in Jazan region",
        "date": "2026-07-25",
        "severity": 8,
        "source": "osint"
      }
    }
  ]
}