{"type": "FeatureCollection", "features": [{"type": "Feature", "geometry": {"type": "Point", "coordinates": [34.224, 51.985]}, "properties": {"title": "FIRMS Thermal Anomaly 51.985,34.224", "summary": "Thermal anomaly near Seredyna-Buda (Sumy region), FRP 3.62 MW", "date": "2026-05-31", "severity": 5, "source": "firms"}}, {"type": "Feature", "geometry": {"type": "Point", "coordinates": [34.221, 51.981]}, "properties": {"title": "FIRMS Thermal Anomaly 51.981,34.221", "summary": "Thermal anomaly near Seredyna-Buda (Sumy region), FRP 3.62 MW", "date": "2026-05-31", "severity": 5, "source": "firms"}}, {"type": "Feature", "geometry": {"type": "Point", "coordinates": [34.788, 51.018]}, "properties": {"title": "FIRMS Thermal Anomaly 51.018,34.788", "summary": "Thermal anomaly Sumy Oblast, FRP 0.81 MW", "date": "2026-05-31", "severity": 2, "source": "firms"}}, {"type": "Feature", "geometry": {"type": "Point", "coordinates": [34.51, 50.306]}, "properties": {"title": "FIRMS Thermal Anomaly 50.306,34.510", "summary": "Thermal anomaly Poltava/Sumy border, FRP 0.39 MW", "date": "2026-05-31", "severity": 1, "source": "firms"}}, {"type": "Feature", "geometry": {"type": "Point", "coordinates": [33.951, 50.421]}, "properties": {"title": "FIRMS Thermal Anomaly 50.421,33.951", "summary": "Thermal anomaly Poltava Oblast, FRP 2.22 MW", "date": "2026-05-31", "severity": 3, "source": "firms"}}, {"type": "Feature", "geometry": {"type": "Point", "coordinates": [33.422, 47.874]}, "properties": {"title": "FIRMS Thermal Anomaly 47.874,33.422", "summary": "Thermal anomaly Dnipropetrovsk Oblast (Kryvyi Rih area), FRP 3.18 MW", "date": "2026-05-31", "severity": 4, "source": "firms"}}, {"type": "Feature", "geometry": {"type": "Point", "coordinates": [33.415, 47.875]}, "properties": {"title": "FIRMS Thermal Anomaly 47.875,33.415", "summary": "Thermal anomaly Dnipropetrovsk Oblast, FRP 2.14 MW", "date": "2026-05-31", "severity": 3, "source": "firms"}}, {"type": "Feature", "geometry": {"type": "Point", "coordinates": [33.383, 47.841]}, "properties": {"title": "FIRMS Thermal Anomaly 47.841,33.383", "summary": "Thermal anomaly Dnipropetrovsk Oblast, FRP 1.9 MW", "date": "2026-05-31", "severity": 3, "source": "firms"}}, {"type": "Feature", "geometry": {"type": "Point", "coordinates": [33.385, 47.845]}, "properties": {"title": "FIRMS Thermal Anomaly 47.845,33.385", "summary": "Thermal anomaly Dnipropetrovsk Oblast, FRP 0.8 MW", "date": "2026-05-31", "severity": 2, "source": "firms"}}, {"type": "Feature", "geometry": {"type": "Point", "coordinates": [34.633, 48.519]}, "properties": {"title": "FIRMS Thermal Anomaly 48.519,34.633", "summary": "Thermal anomaly near Dnipro city, FRP 0.66 MW", "date": "2026-05-31", "severity": 1, "source": "firms"}}, {"type": "Feature", "geometry": {"type": "Point", "coordinates": [33.43, 46.839]}, "properties": {"title": "FIRMS Thermal Anomaly 46.839,33.430", "summary": "Thermal anomaly Kherson/Mykolaiv region, FRP 3.18 MW", "date": "2026-05-31", "severity": 4, "source": "firms"}}, {"type": "Feature", "geometry": {"type": "Point", "coordinates": [33.437, 46.838]}, "properties": {"title": "FIRMS Thermal Anomaly 46.838,33.437", "summary": "Thermal anomaly Kherson/Mykolaiv region, FRP 2.44 MW", "date": "2026-05-31", "severity": 4, "source": "firms"}}, {"type": "Feature", "geometry": {"type": "Point", "coordinates": [31.67, 45.259]}, "properties": {"title": "FIRMS Thermal Anomaly 45.259,31.670", "summary": "Thermal anomaly Kherson Oblast (Antonivka-Oleshky area), FRP 7.16 MW - highest in dataset", "date": "2026-05-31", "severity": 10, "source": "firms"}}, {"type": "Feature", "geometry": {"type": "Point", "coordinates": [31.676, 45.258]}, "properties": {"title": "FIRMS Thermal Anomaly 45.258,31.676", "summary": "Thermal anomaly Kherson Oblast, FRP 4.35 MW", "date": "2026-05-31", "severity": 6, "source": "firms"}}, {"type": "Feature", "geometry": {"type": "Point", "coordinates": [30.929, 45.375]}, "properties": {"title": "FIRMS Thermal Anomaly 45.375,30.929", "summary": "Thermal anomaly Kherson Oblast coastal, FRP 1.58 MW", "date": "2026-05-31", "severity": 2, "source": "firms"}}, {"type": "Feature", "geometry": {"type": "Point", "coordinates": [30.901, 45.354]}, "properties": {"title": "FIRMS Thermal Anomaly 45.354,30.901", "summary": "Thermal anomaly Kherson Oblast coastal, FRP 2.35 MW", "date": "2026-05-31", "severity": 3, "source": "firms"}}, {"type": "Feature", "geometry": {"type": "Point", "coordinates": [34.889, 50.052]}, "properties": {"title": "FIRMS Thermal Anomaly 50.052,34.889", "summary": "Thermal anomaly Sumy Oblast, FRP 2.7 MW", "date": "2026-05-31", "severity": 4, "source": "firms"}}, {"type": "Feature", "geometry": {"type": "Point", "coordinates": [34.366, 52.337]}, "properties": {"title": "FIRMS Thermal Anomaly 52.337,34.366", "summary": "Thermal anomaly Sumy/Russia border zone, FRP 3.0 MW", "date": "2026-05-31", "severity": 4, "source": "firms"}}, {"type": "Feature", "geometry": {"type": "Point", "coordinates": [33.032, 52.284]}, "properties": {"title": "FIRMS Thermal Anomaly 52.284,33.032", "summary": "Thermal anomaly Sumy Oblast border, FRP 1.15 MW", "date": "2026-05-31", "severity": 2, "source": "firms"}}, {"type": "Feature", "geometry": {"type": "Point", "coordinates": [34.04, 52.193]}, "properties": {"title": "FIRMS Thermal Anomaly 52.193,34.040", "summary": "Thermal anomaly Sumy Oblast border, FRP 2.66 MW", "date": "2026-05-31", "severity": 4, "source": "firms"}}, {"type": "Feature", "geometry": {"type": "Point", "coordinates": [34.759, 50.181]}, "properties": {"title": "FIRMS Thermal Anomaly 50.181,34.759", "summary": "Thermal anomaly Sumy Oblast, FRP 1.02 MW", "date": "2026-05-31", "severity": 2, "source": "firms"}}, {"type": "Feature", "geometry": {"type": "Point", "coordinates": [26.604, 48.746]}, "properties": {"title": "FIRMS Thermal Anomaly 48.746,26.604", "summary": "Thermal anomaly Khmelnytsky/Vinnytsia area, FRP 1.13 MW", "date": "2026-05-31", "severity": 2, "source": "firms"}}, {"type": "Feature", "geometry": {"type": "Point", "coordinates": [26.459, 48.516]}, "properties": {"title": "FIRMS Thermal Anomaly 48.516,26.459", "summary": "Thermal anomaly Khmelnytsky area, FRP 0.49 MW", "date": "2026-05-31", "severity": 1, "source": "firms"}}, {"type": "Feature", "geometry": {"type": "Point", "coordinates": [33.857, 44.772]}, "properties": {"title": "FIRMS Thermal Anomaly 44.772,33.857", "summary": "Thermal anomaly Crimea (occupied), FRP 1.24 MW", "date": "2026-05-31", "severity": 2, "source": "firms"}}, {"type": "Feature", "geometry": {"type": "Point", "coordinates": [-74.0721, 4.711]}, "properties": {"title": "Colombia Presidential Election Runoff", "summary": "Espriella (43.7%) vs Cepeda (40.9%) advance to June 21 runoff", "date": "2026-05-31", "severity": 5, "source": "gdelt"}}, {"type": "Feature", "geometry": {"type": "Point", "coordinates": [56.3, 26.6]}, "properties": {"title": "Iran Hormuz Threat - Oil +5.8%", "summary": "Iran suspended US communications, threatened Strait of Hormuz closure after Israel expanded Lebanon operations. WTI surged to $94.15.", "date": "2026-06-01", "severity": 9, "source": "acled"}}, {"type": "Feature", "geometry": {"type": "Point", "coordinates": [-0.1278, 51.5074]}, "properties": {"title": "UK Labour Leadership Crisis", "summary": "95+ Labour MPs demand Starmer resignation. UK 10y gilt at 4.9%. FTSE 100 -0.64%.", "date": "2026-06-01", "severity": 5, "source": "gdelt"}}, {"type": "Feature", "geometry": {"type": "Point", "coordinates": [126.978, 37.5665]}, "properties": {"title": "KOSPI +4.1%, Samsung +10% All-Time High", "summary": "South Korea KOSPI +100% YTD 2026, overtook India as world's 6th largest market. Samsung Electronics hit all-time high.", "date": "2026-06-01", "severity": 4, "source": "gdelt"}}]}