{
  "type": "FeatureCollection",
  "features": [
    {
      "type": "Feature",
      "geometry": {
        "type": "Point",
        "coordinates": [
          55.9578,
          54.7326
        ]
      },
      "properties": {
        "title": "Ukrainian drone strike on Ufa oil refineries (2x)",
        "summary": "Zelensky confirmed strikes on oil depot in Krasnodar and two refineries in Ufa (Bashkortostan), ~1500km from front",
        "date": "2026-06-25",
        "severity": 8,
        "source": "acled"
      }
    },
    {
      "type": "Feature",
      "geometry": {
        "type": "Point",
        "coordinates": [
          39.7139,
          45.0355
        ]
      },
      "properties": {
        "title": "Ukrainian drone strike on Krasnodar oil depot",
        "summary": "Fire at oil depot in Poltavskaya, Krasnodar Krai -- third strike in June",
        "date": "2026-06-25",
        "severity": 7,
        "source": "acled"
      }
    },
    {
      "type": "Feature",
      "geometry": {
        "type": "Point",
        "coordinates": [
          33.5224,
          44.6166
        ]
      },
      "properties": {
        "title": "Power outage in Sevastopol and Crimea",
        "summary": "Temporary power restriction regime declared in Sevastopol following Ukrainian strikes",
        "date": "2026-06-25",
        "severity": 5,
        "source": "acled"
      }
    },
    {
      "type": "Feature",
      "geometry": {
        "type": "Point",
        "coordinates": [
          -66.91,
          10.37
        ]
      },
      "properties": {
        "title": "M7.2 + M7.5 twin earthquakes, Venezuela (38 seconds apart)",
        "summary": "At least 32 killed, 700+ injured. Buildings collapsed in Caracas. Acting president declared emergency.",
        "date": "2026-06-24",
        "severity": 9,
        "source": "usgs"
      }
    },
    {
      "type": "Feature",
      "geometry": {
        "type": "Point",
        "coordinates": [
          127.0,
          25.0
        ]
      },
      "properties": {
        "title": "Typhoon BAVI-26 (GDACS RED) - NW Pacific",
        "summary": "Cat equivalent storm, 250 km/h winds. 50,254 in Cat-1 wind zone. Active NW Pacific.",
        "date": "2026-07-01",
        "severity": 9,
        "source": "gdacs"
      }
    },
    {
      "type": "Feature",
      "geometry": {
        "type": "Point",
        "coordinates": [
          34.3,
          31.38
        ]
      },
      "properties": {
        "title": "Gaza conflict zone - ongoing operations",
        "summary": "IDF operations continuing. EU antisemitism czar warns against circumcision ban.",
        "date": "2026-06-25",
        "severity": 7,
        "source": "acled"
      }
    },
    {
      "type": "Feature",
      "geometry": {
        "type": "Point",
        "coordinates": [
          34.037,
          46.474
        ]
      },
      "properties": {
        "title": "FIRMS high-confidence thermal anomaly 15.27 MW (Kherson oblast)",
        "summary": "VIIRS high-confidence thermal anomaly near frontline, FRP 15.27 MW",
        "date": "2026-06-24",
        "severity": 6,
        "source": "firms"
      }
    },
    {
      "type": "Feature",
      "geometry": {
        "type": "Point",
        "coordinates": [
          141.5,
          39.6
        ]
      },
      "properties": {
        "title": "M6.0 earthquake, Japan (Iwate coast)",
        "summary": "M6.0 at 43km depth, 1.6 million in MMI IV zone. GDACS Green.",
        "date": "2026-07-01",
        "severity": 4,
        "source": "gdacs"
      }
    },
    {
      "type": "Feature",
      "geometry": {
        "type": "Point",
        "coordinates": [
          130.0,
          18.0
        ]
      },
      "properties": {
        "title": "Tropical Depression TEN-26 (GDACS Orange) - 17.2M in Tropical Storm",
        "summary": "Max wind 74 km/h. 17.19 million in tropical storm track. NW Pacific.",
        "date": "2026-07-01",
        "severity": 5,
        "source": "gdacs"
      }
    },
    {
      "type": "Feature",
      "geometry": {
        "type": "Point",
        "coordinates": [
          -0.1276,
          51.5014
        ]
      },
      "properties": {
        "title": "UK PM Starmer resignation / Burnham succession",
        "summary": "Chancellor Reeves backs Andy Burnham for PM. Major political transition.",
        "date": "2026-06-25",
        "severity": 6,
        "source": "acled"
      }
    }
  ]
}