{
  "type": "FeatureCollection",
  "features": [
    {
      "type": "Feature",
      "geometry": {
        "type": "Point",
        "coordinates": [
          -152.314,
          62.269
        ]
      },
      "properties": {
        "title": "M5.6 57 km WNW of Skwentna, Alaska",
        "summary": "Magnitude 5.6 earthquake. Depth 10km.",
        "date": "2026-08-08",
        "severity": 8,
        "source": "usgs"
      }
    },
    {
      "type": "Feature",
      "geometry": {
        "type": "Point",
        "coordinates": [
          124.0,
          9.8
        ]
      },
      "properties": {
        "title": "Philippines M6.3 Earthquake [Orange GDACS]",
        "summary": "GDACS Orange alert. Magnitude 6.3M, depth 10km. Affected population estimate medium-high.",
        "date": "2026-08-05",
        "severity": 6,
        "source": "gdacs"
      }
    },
    {
      "type": "Feature",
      "geometry": {
        "type": "Point",
        "coordinates": [
          30.52,
          50.45
        ]
      },
      "properties": {
        "title": "Russian strike on Kyiv oblast: 3 killed including child",
        "summary": "Russia launched 6 ballistic missiles + 151 drones at Ukraine overnight Aug 7-8. 3 killed in Kyiv region. 6 ballistic missiles not intercepted.",
        "date": "2026-08-08",
        "severity": 8,
        "source": "acled"
      }
    },
    {
      "type": "Feature",
      "geometry": {
        "type": "Point",
        "coordinates": [
          37.62,
          53.6
        ]
      },
      "properties": {
        "title": "Ilsky refinery fire - Krasnodar (Ukraine drone strike)",
        "summary": "Ukraine launched ~400 drones targeting Russian refineries. Ilsky refinery in Krasnodar Krai reported on fire. 5 wounded.",
        "date": "2026-08-08",
        "severity": 7,
        "source": "firms"
      }
    },
    {
      "type": "Feature",
      "geometry": {
        "type": "Point",
        "coordinates": [
          50.15,
          53.2
        ]
      },
      "properties": {
        "title": "Samara Oblast industrial complex struck - Ukraine drones",
        "summary": "Ukrainian drones struck industrial facility in Samara Oblast overnight Aug 7-8.",
        "date": "2026-08-08",
        "severity": 6,
        "source": "firms"
      }
    },
    {
      "type": "Feature",
      "geometry": {
        "type": "Point",
        "coordinates": [
          45.35,
          15.47
        ]
      },
      "properties": {
        "title": "Houthi attacks on Marib: 45+ killed",
        "summary": "Houthis launched missiles and drones at Marib and Hadhramaut. At least 45 government forces killed. UN warns of greatest risk of large-scale conflict since 2022 truce.",
        "date": "2026-08-07",
        "severity": 8,
        "source": "acled"
      }
    },
    {
      "type": "Feature",
      "geometry": {
        "type": "Point",
        "coordinates": [
          23.65,
          0.85
        ]
      },
      "properties": {
        "title": "DRC Ebola outbreak: 4,053 cases, 1,850 deaths",
        "summary": "Second-largest Ebola outbreak on record. Bundibugyo virus. 53 health zones, 5 provinces. WHO urging Ervebo vaccine trial.",
        "date": "2026-08-07",
        "severity": 9,
        "source": "gdacs"
      }
    },
    {
      "type": "Feature",
      "geometry": {
        "type": "Point",
        "coordinates": [
          56.4,
          26.6
        ]
      },
      "properties": {
        "title": "Strait of Hormuz effectively closed since July 30",
        "summary": "Iran-US conflict: 65 maritime incidents since start of Iran War. Iran parliament reviewing ban on US/Israeli ships. Oman mediating.",
        "date": "2026-08-08",
        "severity": 9,
        "source": "gdacs"
      }
    },
    {
      "type": "Feature",
      "geometry": {
        "type": "Point",
        "coordinates": [
          12.24,
          51.42
        ]
      },
      "properties": {
        "title": "Leipzig airport: explosive drone found near Ukrainian aircraft",
        "summary": "Explosive drone found in cargo area at Leipzig/Halle airport near Ukrainian An-124. Failed detonation. German Interior Minister: 'new threat scenario'. US intel links to Russia.",
        "date": "2026-08-06",
        "severity": 7,
        "source": "acled"
      }
    },
    {
      "type": "Feature",
      "geometry": {
        "type": "Point",
        "coordinates": [
          6.65,
          50.6
        ]
      },
      "properties": {
        "title": "Mysterious drones over Bundeswehr Patriot maintenance base (Mechernich)",
        "summary": "6 suspicious drone flights detected over Bundeswehr base near Mechernich, where Patriot systems are maintained/repaired. Investigation ongoing.",
        "date": "2026-08-07",
        "severity": 6,
        "source": "acled"
      }
    },
    {
      "type": "Feature",
      "geometry": {
        "type": "Point",
        "coordinates": [
          -152.31,
          62.27
        ]
      },
      "properties": {
        "title": "M5.6 earthquake - Skwentna, Alaska",
        "summary": "Magnitude 5.6 earthquake 57km WNW of Skwentna, Alaska. Depth 10km.",
        "date": "2026-08-08",
        "severity": 4,
        "source": "usgs"
      }
    }
  ]
}