{
  "type": "FeatureCollection",
  "features": [
    {
      "type": "Feature",
      "geometry": {
        "type": "Point",
        "coordinates": [
          -66.9,
          10.5
        ]
      },
      "properties": {
        "title": "Venezuela M7.5 Earthquake (GDACS Red)",
        "summary": "Red earthquake alert. 6.1M people in MMI>=VII zone. 235+ deaths, 1,520+ injured. La Guaira declared disaster zone.",
        "date": "2026-06-24",
        "severity": 9,
        "source": "gdacs"
      }
    },
    {
      "type": "Feature",
      "geometry": {
        "type": "Point",
        "coordinates": [
          -67.1,
          10.4
        ]
      },
      "properties": {
        "title": "Venezuela M7.2 Earthquake (GDACS Red)",
        "summary": "Red earthquake alert. Foreshock 39 seconds before M7.5. 990K in MMI>=VII zone. Caracas and La Guaira heavily affected.",
        "date": "2026-06-24",
        "severity": 8,
        "source": "gdacs"
      }
    },
    {
      "type": "Feature",
      "geometry": {
        "type": "Point",
        "coordinates": [
          137.0,
          35.0
        ]
      },
      "properties": {
        "title": "Japan M6.9 Earthquake (GDACS Green)",
        "summary": "Depth 50.9km. 10K in MMI>=VII zone. Green alert.",
        "date": "2026-06-24",
        "severity": 5,
        "source": "gdacs"
      }
    },
    {
      "type": "Feature",
      "geometry": {
        "type": "Point",
        "coordinates": [
          135.5,
          34.8
        ]
      },
      "properties": {
        "title": "Japan M5.8 Earthquake (GDACS Green)",
        "summary": "Depth 43km. 130K in MMI V zone. Green alert.",
        "date": "2026-06-26",
        "severity": 3,
        "source": "gdacs"
      }
    },
    {
      "type": "Feature",
      "geometry": {
        "type": "Point",
        "coordinates": [
          149.0,
          -6.5
        ]
      },
      "properties": {
        "title": "Papua New Guinea M5.5 Earthquake (GDACS Green)",
        "summary": "Depth 33km. 240K in MMI>=IV zone. Green alert.",
        "date": "2026-06-25",
        "severity": 3,
        "source": "gdacs"
      }
    },
    {
      "type": "Feature",
      "geometry": {
        "type": "Point",
        "coordinates": [
          35.0,
          39.0
        ]
      },
      "properties": {
        "title": "Turkey Green Flood Alert",
        "summary": "Flood event Jun 28-30, 2026. 0 deaths, 0 displaced reported. Green alert.",
        "date": "2026-06-28",
        "severity": 2,
        "source": "gdacs"
      }
    },
    {
      "type": "Feature",
      "geometry": {
        "type": "Point",
        "coordinates": [
          30.0,
          1.9
        ]
      },
      "properties": {
        "title": "DRC Bundibugyo Virus Disease Outbreak",
        "summary": "1,118 confirmed cases, 291 deaths as of June 24. Ituri province hardest hit. Cross-border spread to Uganda.",
        "date": "2026-06-24",
        "severity": 8,
        "source": "gdacs"
      }
    },
    {
      "type": "Feature",
      "geometry": {
        "type": "Point",
        "coordinates": [
          32.804,
          52.293
        ]
      },
      "properties": {
        "title": "Ukraine FIRMS Thermal Anomaly (FRP 0.87 MW)",
        "summary": "VIIRS S-NPP NRT. FRP 0.87 MW. 375m resolution. Acquired 2026-06-24.",
        "date": "2026-06-24",
        "severity": 4,
        "source": "firms"
      }
    },
    {
      "type": "Feature",
      "geometry": {
        "type": "Point",
        "coordinates": [
          32.802,
          52.293
        ]
      },
      "properties": {
        "title": "Ukraine FIRMS Thermal Anomaly (FRP 0.69 MW)",
        "summary": "VIIRS S-NPP NRT. FRP 0.69 MW. 375m resolution. Acquired 2026-06-24.",
        "date": "2026-06-24",
        "severity": 4,
        "source": "firms"
      }
    },
    {
      "type": "Feature",
      "geometry": {
        "type": "Point",
        "coordinates": [
          32.252,
          52.145
        ]
      },
      "properties": {
        "title": "Ukraine FIRMS Thermal Anomaly (FRP 1.04 MW)",
        "summary": "VIIRS S-NPP NRT. FRP 1.04 MW. 375m resolution. Acquired 2026-06-24.",
        "date": "2026-06-24",
        "severity": 5,
        "source": "firms"
      }
    },
    {
      "type": "Feature",
      "geometry": {
        "type": "Point",
        "coordinates": [
          29.994,
          52.85
        ]
      },
      "properties": {
        "title": "Ukraine FIRMS Thermal Anomaly (FRP 0.89 MW)",
        "summary": "VIIRS S-NPP NRT. FRP 0.89 MW. 375m resolution. Acquired 2026-06-24.",
        "date": "2026-06-24",
        "severity": 4,
        "source": "firms"
      }
    },
    {
      "type": "Feature",
      "geometry": {
        "type": "Point",
        "coordinates": [
          29.989,
          52.845
        ]
      },
      "properties": {
        "title": "Ukraine FIRMS Thermal Anomaly (FRP 1.37 MW)",
        "summary": "VIIRS S-NPP NRT. FRP 1.37 MW. 375m resolution. Acquired 2026-06-24.",
        "date": "2026-06-24",
        "severity": 6,
        "source": "firms"
      }
    },
    {
      "type": "Feature",
      "geometry": {
        "type": "Point",
        "coordinates": [
          29.34,
          51.894
        ]
      },
      "properties": {
        "title": "Ukraine FIRMS Thermal Anomaly (FRP 0.4 MW)",
        "summary": "VIIRS S-NPP NRT. FRP 0.4 MW. 375m resolution. Acquired 2026-06-24.",
        "date": "2026-06-24",
        "severity": 3,
        "source": "firms"
      }
    },
    {
      "type": "Feature",
      "geometry": {
        "type": "Point",
        "coordinates": [
          28.542,
          50.273
        ]
      },
      "properties": {
        "title": "Ukraine FIRMS Thermal Anomaly (FRP 0.59 MW)",
        "summary": "VIIRS S-NPP NRT. FRP 0.59 MW. 375m resolution. Acquired 2026-06-24.",
        "date": "2026-06-24",
        "severity": 3,
        "source": "firms"
      }
    },
    {
      "type": "Feature",
      "geometry": {
        "type": "Point",
        "coordinates": [
          26.26,
          50.546
        ]
      },
      "properties": {
        "title": "Ukraine FIRMS Thermal Anomaly (FRP 1.52 MW)",
        "summary": "VIIRS S-NPP NRT. FRP 1.52 MW. 375m resolution. Acquired 2026-06-24.",
        "date": "2026-06-24",
        "severity": 6,
        "source": "firms"
      }
    }
  ]
}