{
  "type": "FeatureCollection",
  "features": [
    {
      "type": "Feature",
      "geometry": {
        "type": "Point",
        "coordinates": [
          -85.2,
          22.5
        ]
      },
      "properties": {
        "title": "M6.1 - 104km WNW of Mantua, Cuba",
        "summary": "M6.1, depth 26km",
        "date": "2026-06-08",
        "severity": 9,
        "source": "usgs"
      }
    },
    {
      "type": "Feature",
      "geometry": {
        "type": "Point",
        "coordinates": [
          124.9,
          9.6
        ]
      },
      "properties": {
        "title": "M5.5 - 12km WSW of Balangonan, Philippines",
        "summary": "M5.5, depth 81km",
        "date": "2026-06-08",
        "severity": 8,
        "source": "usgs"
      }
    },
    {
      "type": "Feature",
      "geometry": {
        "type": "Point",
        "coordinates": [
          124.8,
          9.3
        ]
      },
      "properties": {
        "title": "M5.4 - 21km SSW of Lumatil, Philippines",
        "summary": "M5.4, depth 35km",
        "date": "2026-06-09",
        "severity": 8,
        "source": "usgs"
      }
    },
    {
      "type": "Feature",
      "geometry": {
        "type": "Point",
        "coordinates": [
          169.9,
          -21.8
        ]
      },
      "properties": {
        "title": "M5.4 - 197km SSE of Isangel, Vanuatu",
        "summary": "M5.4, depth 60km",
        "date": "2026-06-08",
        "severity": 8,
        "source": "usgs"
      }
    },
    {
      "type": "Feature",
      "geometry": {
        "type": "Point",
        "coordinates": [
          124.78,
          9.35
        ]
      },
      "properties": {
        "title": "M5.3 - 19km SSW of Lumatil, Philippines",
        "summary": "M5.3, depth 46km",
        "date": "2026-06-08",
        "severity": 7,
        "source": "usgs"
      }
    },
    {
      "type": "Feature",
      "geometry": {
        "type": "Point",
        "coordinates": [
          125.4,
          5.3
        ]
      },
      "properties": {
        "title": "M5.2 - 21km SW of Sarangani, Philippines",
        "summary": "M5.2, depth 82km",
        "date": "2026-06-09",
        "severity": 7,
        "source": "usgs"
      }
    },
    {
      "type": "Feature",
      "geometry": {
        "type": "Point",
        "coordinates": [
          32.0,
          47.0
        ]
      },
      "properties": {
        "title": "FIRMS: Kherson/Mykolaiv oblast cluster",
        "summary": "Thermal anomaly cluster, FRP 794.8 MW total",
        "date": "2026-06-15",
        "severity": 7,
        "source": "firms"
      }
    },
    {
      "type": "Feature",
      "geometry": {
        "type": "Point",
        "coordinates": [
          33.0,
          47.2
        ]
      },
      "properties": {
        "title": "FIRMS: Zaporizhzhia oblast thermal cluster",
        "summary": "Thermal anomaly cluster, FRP 116.1 MW total",
        "date": "2026-06-15",
        "severity": 1,
        "source": "firms"
      }
    },
    {
      "type": "Feature",
      "geometry": {
        "type": "Point",
        "coordinates": [
          32.2,
          46.3
        ]
      },
      "properties": {
        "title": "FIRMS: Lower Dnipro thermal cluster",
        "summary": "Thermal anomaly cluster, FRP 72.4 MW total",
        "date": "2026-06-15",
        "severity": 1,
        "source": "firms"
      }
    },
    {
      "type": "Feature",
      "geometry": {
        "type": "Point",
        "coordinates": [
          33.2,
          48.3
        ]
      },
      "properties": {
        "title": "FIRMS: Dnipropetrovsk oblast thermal cluster",
        "summary": "Thermal anomaly cluster, FRP 39.7 MW total",
        "date": "2026-06-15",
        "severity": 1,
        "source": "firms"
      }
    },
    {
      "type": "Feature",
      "geometry": {
        "type": "Point",
        "coordinates": [
          34.0,
          52.2
        ]
      },
      "properties": {
        "title": "FIRMS: Sumy/Chernihiv oblast thermal cluster",
        "summary": "Thermal anomaly cluster, FRP 36.8 MW total",
        "date": "2026-06-15",
        "severity": 1,
        "source": "firms"
      }
    },
    {
      "type": "Feature",
      "geometry": {
        "type": "Point",
        "coordinates": [
          35.2,
          49.1
        ]
      },
      "properties": {
        "title": "FIRMS: Kharkiv oblast thermal cluster",
        "summary": "Thermal anomaly cluster, FRP 30.6 MW total",
        "date": "2026-06-15",
        "severity": 1,
        "source": "firms"
      }
    },
    {
      "type": "Feature",
      "geometry": {
        "type": "Point",
        "coordinates": [
          35.2,
          33.27
        ]
      },
      "properties": {
        "title": "Lebanon: Israeli strike Tyre residential area",
        "summary": "Lebanese MoH: 8 dead, 32 wounded, Israeli raid on residential neighborhood in Tyre",
        "date": "2026-06-09",
        "severity": 7,
        "source": "acled"
      }
    },
    {
      "type": "Feature",
      "geometry": {
        "type": "Point",
        "coordinates": [
          35.9,
          33.58
        ]
      },
      "properties": {
        "title": "Iran/Lebanon: Hezbollah downing Israeli drone",
        "summary": "Hezbollah shot down Israeli Heron 1 drone over Bekaa Valley",
        "date": "2026-06-09",
        "severity": 5,
        "source": "acled"
      }
    },
    {
      "type": "Feature",
      "geometry": {
        "type": "Point",
        "coordinates": [
          35.52,
          33.85
        ]
      },
      "properties": {
        "title": "Lebanon: Ghobeiry Beirut suburb raid",
        "summary": "1 dead, 4 wounded in raid on residential apartment, Ghobeiry",
        "date": "2026-06-09",
        "severity": 6,
        "source": "acled"
      }
    },
    {
      "type": "Feature",
      "geometry": {
        "type": "Point",
        "coordinates": [
          56.5,
          26.5
        ]
      },
      "properties": {
        "title": "US Apache helicopter incident, Strait of Hormuz",
        "summary": "US Army AH-64 Apache went down near Strait of Hormuz; Trump confirmed pilots safe; later reported shot down while patrolling",
        "date": "2026-06-09",
        "severity": 8,
        "source": "acled"
      }
    },
    {
      "type": "Feature",
      "geometry": {
        "type": "Point",
        "coordinates": [
          34.32,
          46.01
        ]
      },
      "properties": {
        "title": "Ukraine: Chongar bridge strikes",
        "summary": "Ukrainian drones struck the 4 bridges at Kherson/Crimea junction (Chongar)",
        "date": "2026-06-16",
        "severity": 5,
        "source": "acled"
      }
    },
    {
      "type": "Feature",
      "geometry": {
        "type": "Point",
        "coordinates": [
          124.85,
          9.5
        ]
      },
      "properties": {
        "title": "Philippines earthquake zone (M6.1 aftershock sequence)",
        "summary": "Hundreds of aftershocks; dozens dead, hundreds injured",
        "date": "2026-06-09",
        "severity": 8,
        "source": "acled"
      }
    },
    {
      "type": "Feature",
      "geometry": {
        "type": "Point",
        "coordinates": [
          50.1,
          33.6
        ]
      },
      "properties": {
        "title": "Iran: Khomein missile launches",
        "summary": "Missile launches reported in Khomein, Markazi Province",
        "date": "2026-06-09",
        "severity": 6,
        "source": "acled"
      }
    },
    {
      "type": "Feature",
      "geometry": {
        "type": "Point",
        "coordinates": [
          56.9,
          27.2
        ]
      },
      "properties": {
        "title": "Iran: Kergan port explosions",
        "summary": "Several explosions reported at port of Kergan, Hormozgan Province",
        "date": "2026-06-09",
        "severity": 6,
        "source": "acled"
      }
    }
  ]
}