{
  "type": "FeatureCollection",
  "features": [
    {
      "type": "Feature",
      "geometry": {
        "type": "Point",
        "coordinates": [
          33.23,
          46.87
        ]
      },
      "properties": {
        "title": "Kherson oblast fire cluster (FRP 8.2-9.2 MW)",
        "summary": "FIRMS hotspot cluster near Kherson",
        "date": "2026-06-14",
        "severity": 7,
        "source": "firms"
      }
    },
    {
      "type": "Feature",
      "geometry": {
        "type": "Point",
        "coordinates": [
          34.645,
          48.535
        ]
      },
      "properties": {
        "title": "Dnipropetrovsk oblast fire (FRP 9.92 MW)",
        "summary": "Highest single FIRMS hotspot in Ukraine theater",
        "date": "2026-06-14",
        "severity": 6,
        "source": "firms"
      }
    },
    {
      "type": "Feature",
      "geometry": {
        "type": "Point",
        "coordinates": [
          29.34,
          51.89
        ]
      },
      "properties": {
        "title": "Chernihiv/Zhytomyr border fire cluster (FRP 9.2 MW)",
        "summary": "FIRMS hotspot cluster in northern Ukraine",
        "date": "2026-06-14",
        "severity": 5,
        "source": "firms"
      }
    },
    {
      "type": "Feature",
      "geometry": {
        "type": "Point",
        "coordinates": [
          31.67,
          45.26
        ]
      },
      "properties": {
        "title": "Kherson delta fire cluster (FRP 6.5 MW)",
        "summary": "FIRMS hotspot cluster in Kherson river delta",
        "date": "2026-06-14",
        "severity": 6,
        "source": "firms"
      }
    },
    {
      "type": "Feature",
      "geometry": {
        "type": "Point",
        "coordinates": [
          33.0,
          46.67
        ]
      },
      "properties": {
        "title": "Mykolaiv oblast fire (FRP 9.2 MW)",
        "summary": "FIRMS hotspot near Mykolaiv",
        "date": "2026-06-14",
        "severity": 6,
        "source": "firms"
      }
    },
    {
      "type": "Feature",
      "geometry": {
        "type": "Point",
        "coordinates": [
          31.5,
          34.5
        ]
      },
      "properties": {
        "title": "Gaza - IDF operations ongoing",
        "summary": "Israel presses deeper into Gaza as Cairo talks begin",
        "date": "2026-06-15",
        "severity": 8,
        "source": "acled"
      }
    },
    {
      "type": "Feature",
      "geometry": {
        "type": "Point",
        "coordinates": [
          36.25,
          32.05
        ]
      },
      "properties": {
        "title": "Beirut Ghobeiri residential raid",
        "summary": "1 dead, 4 wounded in IDF strike on residential apartment in Ghobeiri",
        "date": "2026-06-15",
        "severity": 7,
        "source": "acled"
      }
    },
    {
      "type": "Feature",
      "geometry": {
        "type": "Point",
        "coordinates": [
          56.0,
          44.0
        ]
      },
      "properties": {
        "title": "Tehran bombardment (June 13)",
        "summary": "Bombardment reported in Tehran; missile launches in Khomein",
        "date": "2026-06-15",
        "severity": 8,
        "source": "acled"
      }
    },
    {
      "type": "Feature",
      "geometry": {
        "type": "Point",
        "coordinates": [
          47.0,
          47.5
        ]
      },
      "properties": {
        "title": "Starobilsk (Luhansk oblast) shelling",
        "summary": "Smoke rising in Starobilsk after morning shelling",
        "date": "2026-06-15",
        "severity": 6,
        "source": "acled"
      }
    },
    {
      "type": "Feature",
      "geometry": {
        "type": "Point",
        "coordinates": [
          32.6,
          0.3
        ]
      },
      "properties": {
        "title": "Orikhiv direction clashes (Zaporizhzhia)",
        "summary": "Clashes near Stepove, Stepnohirsk, Prymorske per AFU General Staff",
        "date": "2026-06-15",
        "severity": 7,
        "source": "acled"
      }
    },
    {
      "type": "Feature",
      "geometry": {
        "type": "Point",
        "coordinates": [
          125.5,
          5.5
        ]
      },
      "properties": {
        "title": "Sarangani (Philippines) M7.8 earthquake",
        "summary": "M7.8 earthquake offshore Sarangani, Mindanao; tsunami warning issued June 8",
        "date": "2026-06-08",
        "severity": 9,
        "source": "usgs"
      }
    },
    {
      "type": "Feature",
      "geometry": {
        "type": "Point",
        "coordinates": [
          125.5,
          6.0
        ]
      },
      "properties": {
        "title": "Philippines aftershock swarm (M4.6+)",
        "summary": "Ongoing aftershock sequence following June 8 main event",
        "date": "2026-06-08",
        "severity": 5,
        "source": "usgs"
      }
    }
  ]
}