{
  "type": "FeatureCollection",
  "features": [
    {
      "type": "Feature",
      "geometry": {
        "type": "Point",
        "coordinates": [
          179.4727,
          -33.8063
        ]
      },
      "properties": {
        "title": "M6.3 south of the Kermadec Islands",
        "summary": "Magnitude 6.3 earthquake",
        "date": "2026-08-05",
        "severity": 8,
        "source": "usgs"
      }
    },
    {
      "type": "Feature",
      "geometry": {
        "type": "Point",
        "coordinates": [
          125.276,
          5.1812
        ]
      },
      "properties": {
        "title": "M6.3 32 km SW of Sarangani, Philippines",
        "summary": "Magnitude 6.3 earthquake",
        "date": "2026-08-05",
        "severity": 8,
        "source": "usgs"
      }
    },
    {
      "type": "Feature",
      "geometry": {
        "type": "Point",
        "coordinates": [
          46.03,
          51.55
        ]
      },
      "properties": {
        "title": "Ukraine drone strike: Saratov oil refinery + Engels-2 airbase",
        "summary": "Ukraine drone strike: Saratov oil refinery + Engels-2 airbase",
        "date": "2026-08-02",
        "severity": 9,
        "source": "acled"
      }
    },
    {
      "type": "Feature",
      "geometry": {
        "type": "Point",
        "coordinates": [
          31.29,
          51.49
        ]
      },
      "properties": {
        "title": "Ukraine drone strike: Chernihiv industrial facility",
        "summary": "Ukraine drone strike: Chernihiv industrial facility",
        "date": "2026-08-04",
        "severity": 5,
        "source": "acled"
      }
    },
    {
      "type": "Feature",
      "geometry": {
        "type": "Point",
        "coordinates": [
          33.0,
          43.5
        ]
      },
      "properties": {
        "title": "Black Sea: MV Nadezhda drone attack",
        "summary": "Black Sea: MV Nadezhda drone attack",
        "date": "2026-08-03",
        "severity": 6,
        "source": "acled"
      }
    },
    {
      "type": "Feature",
      "geometry": {
        "type": "Point",
        "coordinates": [
          32.61,
          46.63
        ]
      },
      "properties": {
        "title": "Kherson: Russian airstrike, 4 wounded",
        "summary": "Kherson: Russian airstrike, 4 wounded",
        "date": "2026-07-31",
        "severity": 5,
        "source": "acled"
      }
    },
    {
      "type": "Feature",
      "geometry": {
        "type": "Point",
        "coordinates": [
          56.4,
          26.2
        ]
      },
      "properties": {
        "title": "Cargo ship Minoan Pioneer struck near Khasab, Oman",
        "summary": "Cargo ship Minoan Pioneer struck near Khasab, Oman",
        "date": "2026-08-04",
        "severity": 8,
        "source": "gdacs"
      }
    },
    {
      "type": "Feature",
      "geometry": {
        "type": "Point",
        "coordinates": [
          57.0,
          25.8
        ]
      },
      "properties": {
        "title": "Oil tanker attack NE of Oman Lima region",
        "summary": "Oil tanker attack NE of Oman Lima region",
        "date": "2026-08-03",
        "severity": 7,
        "source": "gdacs"
      }
    },
    {
      "type": "Feature",
      "geometry": {
        "type": "Point",
        "coordinates": [
          51.48,
          29.97
        ]
      },
      "properties": {
        "title": "Iranian ground forces HQ Noorabad hit x3",
        "summary": "Iranian ground forces HQ Noorabad hit x3",
        "date": "2026-08-01",
        "severity": 8,
        "source": "gdacs"
      }
    },
    {
      "type": "Feature",
      "geometry": {
        "type": "Point",
        "coordinates": [
          -5.35,
          35.88
        ]
      },
      "properties": {
        "title": "Ceuta border crisis: 60,000+ crossings, 72+ dead",
        "summary": "Largest Spain migration crisis. Most have since returned to Morocco.",
        "date": "2026-08-01",
        "severity": 7,
        "source": "gdacs"
      }
    },
    {
      "type": "Feature",
      "geometry": {
        "type": "Point",
        "coordinates": [
          35.5,
          33.35
        ]
      },
      "properties": {
        "title": "IDF drone strikes: Mefdoun and Nabatieh, southern Lebanon",
        "summary": "Two Israeli drone strikes in south Lebanon",
        "date": "2026-08-01",
        "severity": 6,
        "source": "acled"
      }
    },
    {
      "type": "Feature",
      "geometry": {
        "type": "Point",
        "coordinates": [
          16.37,
          48.21
        ]
      },
      "properties": {
        "title": "Vienna: Austria all-time heat record 40.8\u00b0C",
        "summary": "Stammersdorf station broke national record of 40.5\u00b0C (2013)",
        "date": "2026-08-04",
        "severity": 5,
        "source": "usgs"
      }
    },
    {
      "type": "Feature",
      "geometry": {
        "type": "Point",
        "coordinates": [
          140.0,
          25.0
        ]
      },
      "properties": {
        "title": "Typhoon Dolphin (Cat 4) - tracking toward Okinawa, landfall ~Aug 7",
        "summary": "215 km/h winds, 1287km east of Kadena AFB as of Aug 4",
        "date": "2026-08-04",
        "severity": 8,
        "source": "gdacs"
      }
    }
  ]
}