{
  "type": "FeatureCollection",
  "features": [
    {"type":"Feature","geometry":{"type":"Point","coordinates":[31.17,30.50]},"properties":{"title":"Russian missile strike on Kyiv arms exhibition","summary":"Russian ballistic missile struck arms exhibition near Kyiv July 24, killing 11. Russia confirmed deliberate targeting.","date":"2026-07-24","severity":8,"source":"acled"}},
    {"type":"Feature","geometry":{"type":"Point","coordinates":[50.60,33.34]},"properties":{"title":"US-Saudi strikes on Iran-aligned groups in Iraq","summary":"US and Saudi Arabia struck Iran-backed groups in Iraq July 29. At least 20 killed. Khormur gas field also attacked.","date":"2026-07-29","severity":9,"source":"acled"}},
    {"type":"Feature","geometry":{"type":"Point","coordinates":[36.24,31.80]},"properties":{"title":"Iran ballistic missile attack on US base in Jordan","summary":"IRGC launched multiple ballistic missiles at US airbase in Jordan. US military intercepted the barrage. First escalation after five-day pause.","date":"2026-07-29","severity":9,"source":"acled"}},
    {"type":"Feature","geometry":{"type":"Point","coordinates":[130.80,32.70]},"properties":{"title":"M7.1 Kumamoto earthquake — 13 dead","summary":"Magnitude 7.1 struck Kumamoto, Japan. Aeon Mall partially collapsed. 300,000 evacuated. 1.2M in MMI 7+ zone.","date":"2026-07-28","severity":8,"source":"usgs"}},
    {"type":"Feature","geometry":{"type":"Point","coordinates":[51.50,42.50]},"properties":{"title":"Ukraine Caspian Sea drone strike on Iranian vessel","summary":"Ukrainian drones struck Iranian vessel in Caspian Sea carrying drone/missile components. One sailor killed. Iran threatened retaliation.","date":"2026-07-25","severity":7,"source":"acled"}},
    {"type":"Feature","geometry":{"type":"Point","coordinates":[36.56,50.30]},"properties":{"title":"Belgorod drone attack — 3 killed","summary":"Drone attacks killed 3 people including targeting a bus in Russia Belgorod region July 29.","date":"2026-07-29","severity":5,"source":"acled"}},
    {"type":"Feature","geometry":{"type":"Point","coordinates":[37.20,55.60]},"properties":{"title":"Drone raids in Moscow region","summary":"Drone raids in Koledino and Chekhov districts of Moscow Oblast July 28. Explosions reported.","date":"2026-07-28","severity":5,"source":"acled"}},
    {"type":"Feature","geometry":{"type":"Point","coordinates":[69.00,33.70]},"properties":{"title":"Pakistan-Afghanistan conflict — 499 Afghan civilians killed","summary":"UN UNAMA documented 499 Afghan civilians killed since October 2025 in cross-border fighting. Pakistan declared open war February 2026.","date":"2026-07-28","severity":7,"source":"acled"}},
    {"type":"Feature","geometry":{"type":"Point","coordinates":[43.10,15.40]},"properties":{"title":"Saudi-led airstrikes on Yemen Hodeidah port","summary":"Saudi airstrikes targeted Hodeidah port July 25. Al-Mayadeen reports Saudi forces conducted strikes.","date":"2026-07-25","severity":6,"source":"acled"}},
    {"type":"Feature","geometry":{"type":"Point","coordinates":[45.40,33.30]},"properties":{"title":"Attack on Khormur gas field, Sulaymaniyah","summary":"Reports of attack on Khormur gas field in Sulaymaniyah province, Iraq July 28.","date":"2026-07-28","severity":6,"source":"acled"}},
    {"type":"Feature","geometry":{"type":"Point","coordinates":[34.80,32.10]},"properties":{"title":"Israeli strike in Hadatha, Lebanon","summary":"Explosion carried out by Israeli army in town of Hadatha reported July 29.","date":"2026-07-29","severity":5,"source":"acled"}},
    {"type":"Feature","geometry":{"type":"Point","coordinates":[73.07,33.72]},"properties":{"title":"Kuwaiti border crossing attacked by drones","summary":"Kuwaiti Army: Al-Abdali border crossing with Iraq attacked by drones July 23.","date":"2026-07-23","severity":5,"source":"acled"}}
  ]
}
