{
  "type": "FeatureCollection",
  "features": [
    {
      "type": "Feature",
      "geometry": {
        "type": "Point",
        "coordinates": [
          120.5,
          -8.5
        ]
      },
      "properties": {
        "title": "M5.8 - Ruteng, Indonesia",
        "summary": "Magnitude 5.8 earthquake",
        "date": "2026-08-19",
        "severity": 8,
        "source": "usgs"
      }
    },
    {
      "type": "Feature",
      "geometry": {
        "type": "Point",
        "coordinates": [
          120.6,
          -8.4
        ]
      },
      "properties": {
        "title": "M5.7 - Ruteng, Indonesia",
        "summary": "Magnitude 5.7 earthquake",
        "date": "2026-08-20",
        "severity": 8,
        "source": "usgs"
      }
    },
    {
      "type": "Feature",
      "geometry": {
        "type": "Point",
        "coordinates": [
          120.7,
          -8.3
        ]
      },
      "properties": {
        "title": "M5.5 - Ruteng, Indonesia",
        "summary": "Magnitude 5.5 earthquake",
        "date": "2026-08-19",
        "severity": 8,
        "source": "usgs"
      }
    },
    {
      "type": "Feature",
      "geometry": {
        "type": "Point",
        "coordinates": [
          179.5,
          -17.5
        ]
      },
      "properties": {
        "title": "M5.4 - Levuka, Fiji",
        "summary": "Magnitude 5.4 earthquake",
        "date": "2026-08-19",
        "severity": 8,
        "source": "usgs"
      }
    },
    {
      "type": "Feature",
      "geometry": {
        "type": "Point",
        "coordinates": [
          -70.4,
          -24.0
        ]
      },
      "properties": {
        "title": "M4.7 - Antofagasta, Chile",
        "summary": "Magnitude 4.7 earthquake",
        "date": "2026-08-20",
        "severity": 7,
        "source": "usgs"
      }
    },
    {
      "type": "Feature",
      "geometry": {
        "type": "Point",
        "coordinates": [
          30.52,
          50.45
        ]
      },
      "properties": {
        "title": "Kyiv ballistic missile strike",
        "summary": "12 killed, 34 injured in Russian ballistic missile attack on residential and warehouse areas",
        "date": "2026-08-20",
        "severity": 9,
        "source": "acled"
      }
    },
    {
      "type": "Feature",
      "geometry": {
        "type": "Point",
        "coordinates": [
          28.66,
          50.25
        ]
      },
      "properties": {
        "title": "Zhytomyr police HQ drone strike",
        "summary": "3 killed, 53 wounded in Russian drone attack on Zhytomyr police HQ",
        "date": "2026-08-19",
        "severity": 8,
        "source": "acled"
      }
    },
    {
      "type": "Feature",
      "geometry": {
        "type": "Point",
        "coordinates": [
          32.62,
          46.63
        ]
      },
      "properties": {
        "title": "Kherson market shelling",
        "summary": "5 wounded in Russian shelling of Kherson market",
        "date": "2026-08-20",
        "severity": 5,
        "source": "acled"
      }
    },
    {
      "type": "Feature",
      "geometry": {
        "type": "Point",
        "coordinates": [
          37.72,
          48.53
        ]
      },
      "properties": {
        "title": "Kostiantynivka direction clashes",
        "summary": "Heavy fighting near Kostiantynivka, multiple village contacts",
        "date": "2026-08-18",
        "severity": 7,
        "source": "acled"
      }
    },
    {
      "type": "Feature",
      "geometry": {
        "type": "Point",
        "coordinates": [
          37.17,
          48.28
        ]
      },
      "properties": {
        "title": "Pokrovsk direction - 26 attacks repelled",
        "summary": "234 combat engagements in past 24h; 26 attacks on Pokrovsk direction repelled",
        "date": "2026-08-20",
        "severity": 8,
        "source": "acled"
      }
    },
    {
      "type": "Feature",
      "geometry": {
        "type": "Point",
        "coordinates": [
          52.28,
          55.78
        ]
      },
      "properties": {
        "title": "Tatarstan oil refinery drone attack",
        "summary": "Ukrainian drones hit Tatarstan refinery and Krasnodar oil terminal",
        "date": "2026-08-20",
        "severity": 7,
        "source": "acled"
      }
    },
    {
      "type": "Feature",
      "geometry": {
        "type": "Point",
        "coordinates": [
          35.48,
          33.37
        ]
      },
      "properties": {
        "title": "Israeli airstrike - Nabatiyeh, Lebanon",
        "summary": "Israeli airstrike in Deir al-Zahrani, Nabatiyeh Governorate",
        "date": "2026-08-19",
        "severity": 6,
        "source": "acled"
      }
    },
    {
      "type": "Feature",
      "geometry": {
        "type": "Point",
        "coordinates": [
          34.46,
          31.52
        ]
      },
      "properties": {
        "title": "Israeli strike - Gaza City police HQ",
        "summary": "Strike killed Gaza women's police chief",
        "date": "2026-08-19",
        "severity": 7,
        "source": "acled"
      }
    },
    {
      "type": "Feature",
      "geometry": {
        "type": "Point",
        "coordinates": [
          56.2,
          26.5
        ]
      },
      "properties": {
        "title": "Hormuz Strait - projectile strike on vessel",
        "summary": "UKMTO: projectile strike on vessel transiting Strait of Hormuz, 1 crew casualty",
        "date": "2026-08-18",
        "severity": 7,
        "source": "acled"
      }
    },
    {
      "type": "Feature",
      "geometry": {
        "type": "Point",
        "coordinates": [
          36.82,
          -1.29
        ]
      },
      "properties": {
        "title": "Ecuador intel chief killed - Kenya",
        "summary": "Ecuador's intelligence chief and 5 Americans killed in Kenya helicopter crash",
        "date": "2026-08-19",
        "severity": 6,
        "source": "acled"
      }
    },
    {
      "type": "Feature",
      "geometry": {
        "type": "Point",
        "coordinates": [
          118.0,
          18.0
        ]
      },
      "properties": {
        "title": "Tropical Storm Saudel",
        "summary": "Active tropical storm - Pacific",
        "date": "2026-08-20",
        "severity": 5,
        "source": "gdacs"
      }
    },
    {
      "type": "Feature",
      "geometry": {
        "type": "Point",
        "coordinates": [
          132.0,
          15.0
        ]
      },
      "properties": {
        "title": "Tropical Storm Lala",
        "summary": "Active tropical storm - Pacific",
        "date": "2026-08-20",
        "severity": 4,
        "source": "gdacs"
      }
    }
  ]
}