{
  "type": "FeatureCollection",
  "features": [
    {"type":"Feature","geometry":{"type":"Point","coordinates":[30.52,50.45]},"properties":{"title":"Kyiv ballistic strikes (Ukraine Independence Day)","summary":"Russia struck Kyiv and Boryspil airport twice in 24h with ballistic missiles on/before Ukraine's 35th Independence Day. ~10 world leaders in Kyiv.","date":"2026-08-24","severity":8,"source":"acled"}},
    {"type":"Feature","geometry":{"type":"Point","coordinates":[36.23,49.99]},"properties":{"title":"Kharkiv outskirts attack","summary":"Russian attacks on Kharkiv outskirts killed 3 people late Aug 23, 8 others rescued.","date":"2026-08-23","severity":6,"source":"acled"}},
    {"type":"Feature","geometry":{"type":"Point","coordinates":[37.80,48.70]},"properties":{"title":"Ukraine frontline thermal cluster (FIRMS)","summary":"Multiple FIRMS thermal anomalies near Donetsk frontline, FRP 2-3 MW each.","date":"2026-08-23","severity":5,"source":"firms"}},
    {"type":"Feature","geometry":{"type":"Point","coordinates":[34.14,51.97]},"properties":{"title":"FIRMS thermal anomaly near Sumy border (Bryansk)","summary":"VIIRS anomaly at 51.97N 34.14E, FRP 2.73 MW near Sumy/Bryansk border area.","date":"2026-08-23","severity":4,"source":"firms"}},
    {"type":"Feature","geometry":{"type":"Point","coordinates":[-13.68,9.54]},"properties":{"title":"Conakry landfill landslide, Guinea","summary":"Heavy rains triggered landslide at Dar Es Salam landfill in Conakry. 30 killed, 6 seriously injured. Shacks buried.","date":"2026-08-23","severity":7,"source":"gdacs"}},
    {"type":"Feature","geometry":{"type":"Point","coordinates":[138.5,35.5]},"properties":{"title":"Japan M6.0 earthquake","summary":"GDACS green magnitude 6.0 earthquake in Japan, Aug 23. 1.9 million in MMI>=IV.","date":"2026-08-23","severity":5,"source":"usgs"}},
    {"type":"Feature","geometry":{"type":"Point","coordinates":[-25.5,-55.0]},"properties":{"title":"Scotia Sea M6.2","summary":"GDACS green M6.2 earthquake, Scotia Sea, depth 10km, Aug 22. No population affected reported.","date":"2026-08-22","severity":4,"source":"usgs"}},
    {"type":"Feature","geometry":{"type":"Point","coordinates":[56.5,26.5]},"properties":{"title":"US naval blockade of Iran - Strait of Hormuz","summary":"US maintains naval blockade. 22-night pause on strikes. ~85 vessels intercepted. Ceasefire technically holds. 90% Polymarket probability ceasefire continues through Aug 31.","date":"2026-08-24","severity":7,"source":"acled"}},
    {"type":"Feature","geometry":{"type":"Point","coordinates":[-43.2,-22.9]},"properties":{"title":"Brazil: presidential election Oct 4","summary":"Lula vs Flavio Bolsonaro statistical tie in polls. Renan Santos 3% Polymarket. Runoff Oct 25 if no majority.","date":"2026-08-24","severity":4,"source":"acled"}},
    {"type":"Feature","geometry":{"type":"Point","coordinates":[114.1,22.3]},"properties":{"title":"Shein Hong Kong IPO","summary":"Shein launches HK IPO at $27bn valuation ($1.77bn raise). Largest HK IPO of 2026. Trading begins Sept 1.","date":"2026-08-24","severity":3,"source":"acled"}}
  ]
}
