{
  "type": "FeatureCollection",
  "features": [
    {
      "type": "Feature",
      "geometry": {
        "type": "Point",
        "coordinates": [
          56.27,
          26.85
        ]
      },
      "properties": {
        "title": "US Naval Blockade - Strait of Hormuz",
        "summary": "US Naval Blockade - Strait of Hormuz",
        "date": "2026-06-14",
        "severity": 9,
        "source": "usgs"
      }
    },
    {
      "type": "Feature",
      "geometry": {
        "type": "Point",
        "coordinates": [
          50.09,
          29.26
        ]
      },
      "properties": {
        "title": "Kharg Island - US threatened seizure Jun 11",
        "summary": "Kharg Island - US threatened seizure Jun 11",
        "date": "2026-06-11",
        "severity": 8,
        "source": "acled"
      }
    },
    {
      "type": "Feature",
      "geometry": {
        "type": "Point",
        "coordinates": [
          51.39,
          35.69
        ]
      },
      "properties": {
        "title": "Tehran - IRGC Aerospace Univ strikes Jun 12",
        "summary": "Tehran - IRGC Aerospace Univ strikes Jun 12",
        "date": "2026-06-12",
        "severity": 9,
        "source": "acled"
      }
    },
    {
      "type": "Feature",
      "geometry": {
        "type": "Point",
        "coordinates": [
          51.67,
          32.65
        ]
      },
      "properties": {
        "title": "Isfahan - Reports of airstrikes Jun 12",
        "summary": "Isfahan - Reports of airstrikes Jun 12",
        "date": "2026-06-12",
        "severity": 8,
        "source": "acled"
      }
    },
    {
      "type": "Feature",
      "geometry": {
        "type": "Point",
        "coordinates": [
          35.2,
          33.27
        ]
      },
      "properties": {
        "title": "Tyre/Sour - Israeli airstrike 8 dead Jun 14",
        "summary": "Tyre/Sour - Israeli airstrike 8 dead Jun 14",
        "date": "2026-06-14",
        "severity": 8,
        "source": "acled"
      }
    },
    {
      "type": "Feature",
      "geometry": {
        "type": "Point",
        "coordinates": [
          35.38,
          33.35
        ]
      },
      "properties": {
        "title": "Bint Jbeil - Ongoing battle",
        "summary": "Bint Jbeil - Ongoing battle",
        "date": "2026-06-14",
        "severity": 7,
        "source": "acled"
      }
    },
    {
      "type": "Feature",
      "geometry": {
        "type": "Point",
        "coordinates": [
          35.48,
          33.63
        ]
      },
      "properties": {
        "title": "Kafr Tebnit - Lebanese army withdrawal Jun 13",
        "summary": "Kafr Tebnit - Lebanese army withdrawal Jun 13",
        "date": "2026-06-13",
        "severity": 6,
        "source": "acled"
      }
    },
    {
      "type": "Feature",
      "geometry": {
        "type": "Point",
        "coordinates": [
          35.59,
          33.84
        ]
      },
      "properties": {
        "title": "Nabatieh area - IDF advancing",
        "summary": "Nabatieh area - IDF advancing",
        "date": "2026-06-14",
        "severity": 7,
        "source": "acled"
      }
    },
    {
      "type": "Feature",
      "geometry": {
        "type": "Point",
        "coordinates": [
          32.6,
          46.64
        ]
      },
      "properties": {
        "title": "Kherson - Bridges struck by Ukraine Jun 11",
        "summary": "Kherson - Bridges struck by Ukraine Jun 11",
        "date": "2026-06-11",
        "severity": 6,
        "source": "acled"
      }
    },
    {
      "type": "Feature",
      "geometry": {
        "type": "Point",
        "coordinates": [
          34.1,
          44.97
        ]
      },
      "properties": {
        "title": "Simferopol - Power plant drone attack Jun 12",
        "summary": "Simferopol - Power plant drone attack Jun 12",
        "date": "2026-06-12",
        "severity": 6,
        "source": "firms"
      }
    },
    {
      "type": "Feature",
      "geometry": {
        "type": "Point",
        "coordinates": [
          49.17,
          53.51
        ]
      },
      "properties": {
        "title": "Tolyatti - Rocket fuel rubber plant struck Jun 12",
        "summary": "Tolyatti - Rocket fuel rubber plant struck Jun 12",
        "date": "2026-06-12",
        "severity": 8,
        "source": "firms"
      }
    },
    {
      "type": "Feature",
      "geometry": {
        "type": "Point",
        "coordinates": [
          125.73,
          39.02
        ]
      },
      "properties": {
        "title": "Pyongyang - Kim-Xi summit Jun 7",
        "summary": "Pyongyang - Kim-Xi summit Jun 7",
        "date": "2026-06-07",
        "severity": 4,
        "source": "acled"
      }
    }
  ]
}