{
  "type": "FeatureCollection",
  "features": [
    {
      "type": "Feature",
      "geometry": {
        "type": "Point",
        "coordinates": [
          -68.5,
          10.5
        ]
      },
      "properties": {
        "title": "Venezuela Twin Earthquakes M7.5+M7.2",
        "summary": "Two M7.5 and M7.2 quakes 39s apart near Veroes, Yaracuy. 2,595+ dead, 12,400+ injured, ~50,000 unaccounted for.",
        "date": "2026-06-24",
        "severity": 9,
        "source": "usgs"
      }
    },
    {
      "type": "Feature",
      "geometry": {
        "type": "Point",
        "coordinates": [
          154.2,
          12.9
        ]
      },
      "properties": {
        "title": "Typhoon Bavi-26 (Red Alert)",
        "summary": "Super typhoon forecast 161mph by July 5. Track: Mariana Islands (July 7), then Taiwan/Ryukyus.",
        "date": "2026-07-03",
        "severity": 8,
        "source": "gdacs"
      }
    },
    {
      "type": "Feature",
      "geometry": {
        "type": "Point",
        "coordinates": [
          109.7,
          17.6
        ]
      },
      "properties": {
        "title": "Tropical Cyclone Maysak-26 (Orange Alert)",
        "summary": "Category 1 cyclone in South China Sea approaching Vietnam coast.",
        "date": "2026-07-03",
        "severity": 6,
        "source": "gdacs"
      }
    },
    {
      "type": "Feature",
      "geometry": {
        "type": "Point",
        "coordinates": [
          56.0,
          54.7
        ]
      },
      "properties": {
        "title": "Ukrainian drone strike: Ufa NPC (Bashkortostan)",
        "summary": "Ukrainian drones hit 2 refineries and a fuel depot in Ufa, Bashkortostan - 1,500km from front. Fire confirmed.",
        "date": "2026-06-25",
        "severity": 7,
        "source": "acled"
      }
    },
    {
      "type": "Feature",
      "geometry": {
        "type": "Point",
        "coordinates": [
          38.8,
          45.3
        ]
      },
      "properties": {
        "title": "Ukrainian drone strike: Poltavskaya oil depot (Krasnodar)",
        "summary": "Third strike on Poltavskaya oil depot in June. Fire confirmed.",
        "date": "2026-06-25",
        "severity": 6,
        "source": "acled"
      }
    },
    {
      "type": "Feature",
      "geometry": {
        "type": "Point",
        "coordinates": [
          55.1,
          51.8
        ]
      },
      "properties": {
        "title": "Ukrainian drone strike: Orenburg Gas Processing Complex",
        "summary": "Strike on Orenburg GPC - one of world's largest gas-chemical complexes.",
        "date": "2026-06-24",
        "severity": 7,
        "source": "acled"
      }
    },
    {
      "type": "Feature",
      "geometry": {
        "type": "Point",
        "coordinates": [
          30.5,
          50.4
        ]
      },
      "properties": {
        "title": "Russian missile/drone attack on Kyiv",
        "summary": "70+ missiles, 500+ drones. 18 killed, 90+ injured. Apartments, hotel, research institute hit.",
        "date": "2026-07-02",
        "severity": 8,
        "source": "acled"
      }
    },
    {
      "type": "Feature",
      "geometry": {
        "type": "Point",
        "coordinates": [
          125.79,
          25.95
        ]
      },
      "properties": {
        "title": "Japan Earthquake M6.1",
        "summary": "M6.1 earthquake near Okinawa, 560,000 people in MMI IV zone.",
        "date": "2026-07-03",
        "severity": 5,
        "source": "gdacs"
      }
    },
    {
      "type": "Feature",
      "geometry": {
        "type": "Point",
        "coordinates": [
          127.49,
          1.82
        ]
      },
      "properties": {
        "title": "Indonesia Earthquake M6.2",
        "summary": "M6.2 earthquake, North Maluku. 720,000 in MMI IV zone. Depth 121km.",
        "date": "2026-07-03",
        "severity": 5,
        "source": "gdacs"
      }
    },
    {
      "type": "Feature",
      "geometry": {
        "type": "Point",
        "coordinates": [
          154.26,
          48.3
        ]
      },
      "properties": {
        "title": "Russia Earthquake M5.9 (Sakhalin region)",
        "summary": "M5.9 depth 76km. Green GDACS alert, few people affected.",
        "date": "2026-07-03",
        "severity": 3,
        "source": "gdacs"
      }
    },
    {
      "type": "Feature",
      "geometry": {
        "type": "Point",
        "coordinates": [
          2.35,
          48.86
        ]
      },
      "properties": {
        "title": "France: First Ebola case in Europe",
        "summary": "Humanitarian doctor returning from DRC tested positive. Contact tracing underway. DRC outbreak: 1,048 cases, 267 dead.",
        "date": "2026-06-24",
        "severity": 7,
        "source": "acled"
      }
    },
    {
      "type": "Feature",
      "geometry": {
        "type": "Point",
        "coordinates": [
          32.5,
          15.6
        ]
      },
      "properties": {
        "title": "Sudan: Ongoing RSF-SAF conflict",
        "summary": "Civil war continues. RSF controlling Darfur and Khartoum suburbs. 180+ killed in last 30 days.",
        "date": "2026-07-03",
        "severity": 7,
        "source": "acled"
      }
    },
    {
      "type": "Feature",
      "geometry": {
        "type": "Point",
        "coordinates": [
          34.3,
          31.4
        ]
      },
      "properties": {
        "title": "Gaza: Ongoing conflict",
        "summary": "Israeli operations continue post-Iran ceasefire. ~340 civilian deaths in last 30 days.",
        "date": "2026-07-03",
        "severity": 8,
        "source": "acled"
      }
    },
    {
      "type": "Feature",
      "geometry": {
        "type": "Point",
        "coordinates": [
          33.5,
          44.9
        ]
      },
      "properties": {
        "title": "Crimea: Power cuts after strikes",
        "summary": "Sevastopol declared 'temporary power restriction regime'. Power outages across Crimea following Ukrainian strikes.",
        "date": "2026-06-25",
        "severity": 5,
        "source": "acled"
      }
    },
    {
      "type": "Feature",
      "geometry": {
        "type": "Point",
        "coordinates": [
          -8.28,
          40.63
        ]
      },
      "properties": {
        "title": "Portugal: Active forest fire",
        "summary": "Green GDACS alert for forest fire in central Portugal.",
        "date": "2026-07-03",
        "severity": 3,
        "source": "gdacs"
      }
    }
  ]
}