{"type": "FeatureCollection", "features": [{"type": "Feature", "geometry": {"type": "Point", "coordinates": [32.794, 50.434]}, "properties": {"title": "FIRMS thermal anomaly FRP=36.58MW", "summary": "VIIRS thermal anomaly 36.58 MW fire radiative power", "date": "2026-07-26", "severity": 6, "source": "firms"}}, {"type": "Feature", "geometry": {"type": "Point", "coordinates": [32.789, 50.428]}, "properties": {"title": "FIRMS thermal anomaly FRP=36.58MW", "summary": "VIIRS thermal anomaly 36.58 MW fire radiative power", "date": "2026-07-26", "severity": 6, "source": "firms"}}, {"type": "Feature", "geometry": {"type": "Point", "coordinates": [32.801, 50.433]}, "properties": {"title": "FIRMS thermal anomaly FRP=24.04MW", "summary": "VIIRS thermal anomaly 24.04 MW fire radiative power", "date": "2026-07-26", "severity": 6, "source": "firms"}}, {"type": "Feature", "geometry": {"type": "Point", "coordinates": [32.793, 50.435]}, "properties": {"title": "FIRMS thermal anomaly FRP=22.83MW", "summary": "VIIRS thermal anomaly 22.83 MW fire radiative power", "date": "2026-07-26", "severity": 6, "source": "firms"}}, {"type": "Feature", "geometry": {"type": "Point", "coordinates": [32.788, 50.43]}, "properties": {"title": "FIRMS thermal anomaly FRP=22.83MW", "summary": "VIIRS thermal anomaly 22.83 MW fire radiative power", "date": "2026-07-26", "severity": 6, "source": "firms"}}, {"type": "Feature", "geometry": {"type": "Point", "coordinates": [32.795, 50.427]}, "properties": {"title": "FIRMS thermal anomaly FRP=24.04MW", "summary": "VIIRS thermal anomaly 24.04 MW fire radiative power", "date": "2026-07-26", "severity": 6, "source": "firms"}}, {"type": "Feature", "geometry": {"type": "Point", "coordinates": [22.735, 44.233]}, "properties": {"title": "FIRMS thermal anomaly FRP=36.88MW", "summary": "VIIRS thermal anomaly 36.88 MW fire radiative power", "date": "2026-07-26", "severity": 6, "source": "firms"}}, {"type": "Feature", "geometry": {"type": "Point", "coordinates": [22.739, 44.238]}, "properties": {"title": "FIRMS thermal anomaly FRP=59.22MW", "summary": "VIIRS thermal anomaly 59.22 MW fire radiative power", "date": "2026-07-26", "severity": 7, "source": "firms"}}, {"type": "Feature", "geometry": {"type": "Point", "coordinates": [33.623, 46.716]}, "properties": {"title": "FIRMS thermal anomaly FRP=123.22MW", "summary": "VIIRS thermal anomaly 123.22 MW fire radiative power", "date": "2026-07-26", "severity": 10, "source": "firms"}}, {"type": "Feature", "geometry": {"type": "Point", "coordinates": [33.629, 46.717]}, "properties": {"title": "FIRMS thermal anomaly FRP=92.11MW", "summary": "VIIRS thermal anomaly 92.11 MW fire radiative power", "date": "2026-07-26", "severity": 9, "source": "firms"}}, {"type": "Feature", "geometry": {"type": "Point", "coordinates": [33.622, 46.725]}, "properties": {"title": "FIRMS thermal anomaly FRP=61.69MW", "summary": "VIIRS thermal anomaly 61.69 MW fire radiative power", "date": "2026-07-26", "severity": 8, "source": "firms"}}, {"type": "Feature", "geometry": {"type": "Point", "coordinates": [32.356, 47.17]}, "properties": {"title": "FIRMS thermal anomaly FRP=51.4MW", "summary": "VIIRS thermal anomaly 51.4 MW fire radiative power", "date": "2026-07-26", "severity": 7, "source": "firms"}}, {"type": "Feature", "geometry": {"type": "Point", "coordinates": [33.181, 47.606]}, "properties": {"title": "FIRMS thermal anomaly FRP=64.02MW", "summary": "VIIRS thermal anomaly 64.02 MW fire radiative power", "date": "2026-07-26", "severity": 8, "source": "firms"}}, {"type": "Feature", "geometry": {"type": "Point", "coordinates": [33.179, 47.606]}, "properties": {"title": "FIRMS thermal anomaly FRP=31.13MW", "summary": "VIIRS thermal anomaly 31.13 MW fire radiative power", "date": "2026-07-26", "severity": 6, "source": "firms"}}, {"type": "Feature", "geometry": {"type": "Point", "coordinates": [33.174, 47.605]}, "properties": {"title": "FIRMS thermal anomaly FRP=31.13MW", "summary": "VIIRS thermal anomaly 31.13 MW fire radiative power", "date": "2026-07-26", "severity": 6, "source": "firms"}}, {"type": "Feature", "geometry": {"type": "Point", "coordinates": [26.907, 48.324]}, "properties": {"title": "FIRMS thermal anomaly FRP=31.48MW", "summary": "VIIRS thermal anomaly 31.48 MW fire radiative power", "date": "2026-07-26", "severity": 6, "source": "firms"}}, {"type": "Feature", "geometry": {"type": "Point", "coordinates": [26.906, 48.327]}, "properties": {"title": "FIRMS thermal anomaly FRP=59.71MW", "summary": "VIIRS thermal anomaly 59.71 MW fire radiative power", "date": "2026-07-26", "severity": 7, "source": "firms"}}, {"type": "Feature", "geometry": {"type": "Point", "coordinates": [26.9, 48.327]}, "properties": {"title": "FIRMS thermal anomaly FRP=59.71MW", "summary": "VIIRS thermal anomaly 59.71 MW fire radiative power", "date": "2026-07-26", "severity": 7, "source": "firms"}}, {"type": "Feature", "geometry": {"type": "Point", "coordinates": [34.669, 47.382]}, "properties": {"title": "FIRMS thermal anomaly FRP=23.5MW", "summary": "VIIRS thermal anomaly 23.5 MW fire radiative power", "date": "2026-07-26", "severity": 6, "source": "firms"}}, {"type": "Feature", "geometry": {"type": "Point", "coordinates": [34.666, 47.388]}, "properties": {"title": "FIRMS thermal anomaly FRP=23.5MW", "summary": "VIIRS thermal anomaly 23.5 MW fire radiative power", "date": "2026-07-26", "severity": 6, "source": "firms"}}, {"type": "Feature", "geometry": {"type": "Point", "coordinates": [31.931, 47.449]}, "properties": {"title": "FIRMS thermal anomaly FRP=20.65MW", "summary": "VIIRS thermal anomaly 20.65 MW fire radiative power", "date": "2026-07-26", "severity": 6, "source": "firms"}}, {"type": "Feature", "geometry": {"type": "Point", "coordinates": [31.924, 47.447]}, "properties": {"title": "FIRMS thermal anomaly FRP=21.44MW", "summary": "VIIRS thermal anomaly 21.44 MW fire radiative power", "date": "2026-07-26", "severity": 6, "source": "firms"}}, {"type": "Feature", "geometry": {"type": "Point", "coordinates": [31.93, 47.444]}, "properties": {"title": "FIRMS thermal anomaly FRP=49.97MW", "summary": "VIIRS thermal anomaly 49.97 MW fire radiative power", "date": "2026-07-26", "severity": 7, "source": "firms"}}, {"type": "Feature", "geometry": {"type": "Point", "coordinates": [31.706, 51.281]}, "properties": {"title": "FIRMS thermal anomaly FRP=21.62MW", "summary": "VIIRS thermal anomaly 21.62 MW fire radiative power", "date": "2026-07-27", "severity": 6, "source": "firms"}}, {"type": "Feature", "geometry": {"type": "Point", "coordinates": [23.108, 44.204]}, "properties": {"title": "FIRMS thermal anomaly FRP=26.08MW", "summary": "VIIRS thermal anomaly 26.08 MW fire radiative power", "date": "2026-07-27", "severity": 6, "source": "firms"}}, {"type": "Feature", "geometry": {"type": "Point", "coordinates": [23.103, 44.203]}, "properties": {"title": "FIRMS thermal anomaly FRP=26.08MW", "summary": "VIIRS thermal anomaly 26.08 MW fire radiative power", "date": "2026-07-27", "severity": 6, "source": "firms"}}, {"type": "Feature", "geometry": {"type": "Point", "coordinates": [23.101, 44.207]}, "properties": {"title": "FIRMS thermal anomaly FRP=26.08MW", "summary": "VIIRS thermal anomaly 26.08 MW fire radiative power", "date": "2026-07-27", "severity": 6, "source": "firms"}}, {"type": "Feature", "geometry": {"type": "Point", "coordinates": [33.249, 46.372]}, "properties": {"title": "FIRMS thermal anomaly FRP=23.98MW", "summary": "VIIRS thermal anomaly 23.98 MW fire radiative power", "date": "2026-07-27", "severity": 6, "source": "firms"}}, {"type": "Feature", "geometry": {"type": "Point", "coordinates": [32.429, 46.381]}, "properties": {"title": "FIRMS thermal anomaly FRP=30.49MW", "summary": "VIIRS thermal anomaly 30.49 MW fire radiative power", "date": "2026-07-27", "severity": 6, "source": "firms"}}, {"type": "Feature", "geometry": {"type": "Point", "coordinates": [32.433, 46.389]}, "properties": {"title": "FIRMS thermal anomaly FRP=64.39MW", "summary": "VIIRS thermal anomaly 64.39 MW fire radiative power", "date": "2026-07-27", "severity": 8, "source": "firms"}}, {"type": "Feature", "geometry": {"type": "Point", "coordinates": [33.136, 46.545]}, "properties": {"title": "FIRMS thermal anomaly FRP=76.24MW", "summary": "VIIRS thermal anomaly 76.24 MW fire radiative power", "date": "2026-07-27", "severity": 8, "source": "firms"}}, {"type": "Feature", "geometry": {"type": "Point", "coordinates": [33.622, 47.202]}, "properties": {"title": "FIRMS thermal anomaly FRP=40.78MW", "summary": "VIIRS thermal anomaly 40.78 MW fire radiative power", "date": "2026-07-27", "severity": 7, "source": "firms"}}, {"type": "Feature", "geometry": {"type": "Point", "coordinates": [33.626, 47.207]}, "properties": {"title": "FIRMS thermal anomaly FRP=40.78MW", "summary": "VIIRS thermal anomaly 40.78 MW fire radiative power", "date": "2026-07-27", "severity": 7, "source": "firms"}}, {"type": "Feature", "geometry": {"type": "Point", "coordinates": [33.862, 47.641]}, "properties": {"title": "FIRMS thermal anomaly FRP=30.37MW", "summary": "VIIRS thermal anomaly 30.37 MW fire radiative power", "date": "2026-07-27", "severity": 6, "source": "firms"}}, {"type": "Feature", "geometry": {"type": "Point", "coordinates": [31.151, 48.227]}, "properties": {"title": "FIRMS thermal anomaly FRP=35.91MW", "summary": "VIIRS thermal anomaly 35.91 MW fire radiative power", "date": "2026-07-27", "severity": 6, "source": "firms"}}, {"type": "Feature", "geometry": {"type": "Point", "coordinates": [31.188, 50.01]}, "properties": {"title": "FIRMS thermal anomaly FRP=27.63MW", "summary": "VIIRS thermal anomaly 27.63 MW fire radiative power", "date": "2026-07-27", "severity": 6, "source": "firms"}}, {"type": "Feature", "geometry": {"type": "Point", "coordinates": [31.187, 50.013]}, "properties": {"title": "FIRMS thermal anomaly FRP=27.63MW", "summary": "VIIRS thermal anomaly 27.63 MW fire radiative power", "date": "2026-07-27", "severity": 6, "source": "firms"}}, {"type": "Feature", "geometry": {"type": "Point", "coordinates": [29.217, 50.416]}, "properties": {"title": "FIRMS thermal anomaly FRP=52.66MW", "summary": "VIIRS thermal anomaly 52.66 MW fire radiative power", "date": "2026-07-27", "severity": 7, "source": "firms"}}, {"type": "Feature", "geometry": {"type": "Point", "coordinates": [29.216, 50.42]}, "properties": {"title": "FIRMS thermal anomaly FRP=52.66MW", "summary": "VIIRS thermal anomaly 52.66 MW fire radiative power", "date": "2026-07-27", "severity": 7, "source": "firms"}}, {"type": "Feature", "geometry": {"type": "Point", "coordinates": [31.967, 52.112]}, "properties": {"title": "FIRMS thermal anomaly FRP=20.38MW", "summary": "VIIRS thermal anomaly 20.38 MW fire radiative power", "date": "2026-07-27", "severity": 6, "source": "firms"}}, {"type": "Feature", "geometry": {"type": "Point", "coordinates": [31.964, 52.114]}, "properties": {"title": "FIRMS thermal anomaly FRP=44.49MW", "summary": "VIIRS thermal anomaly 44.49 MW fire radiative power", "date": "2026-07-27", "severity": 7, "source": "firms"}}, {"type": "Feature", "geometry": {"type": "Point", "coordinates": [130.7217, 32.6817]}, "properties": {"title": "M6.8 5 km E of Uto, Japan", "summary": "M6.8 earthquake at depth 10 km", "date": "2026-07-28", "severity": 5, "source": "usgs"}}, {"type": "Feature", "geometry": {"type": "Point", "coordinates": [99.5513, 35.3866]}, "properties": {"title": "M5.8 191 km NW of Oula Xiuma, China", "summary": "M5.8 earthquake at depth 10 km", "date": "2026-07-28", "severity": 3, "source": "usgs"}}, {"type": "Feature", "geometry": {"type": "Point", "coordinates": [99.5198, 35.3685]}, "properties": {"title": "M5.7 192 km NW of Oula Xiuma, China", "summary": "M5.7 earthquake at depth 10 km", "date": "2026-07-28", "severity": 3, "source": "usgs"}}]}