{
  "type": "FeatureCollection",
  "features": [
    {
      "type": "Feature",
      "geometry": {
        "type": "Point",
        "coordinates": [
          85.324,
          28.3949
        ]
      },
      "properties": {
        "title": "Nepal-Tibet Glacier Flood",
        "summary": "Aug 26 glacier collapse: 950+ dead, 5,000 missing. 933 workers trapped in hydropower tunnels.",
        "date": "2026-08-26",
        "severity": 9,
        "source": "gdacs"
      }
    },
    {
      "type": "Feature",
      "geometry": {
        "type": "Point",
        "coordinates": [
          30.2176,
          12.1864
        ]
      },
      "properties": {
        "title": "Sudan Kordofan - Displacement Crisis",
        "summary": "200,000+ newly displaced. El-Obeid infrastructure attacked. Humanitarian funding under 50%.",
        "date": "2026-08-31",
        "severity": 8,
        "source": "acled"
      }
    },
    {
      "type": "Feature",
      "geometry": {
        "type": "Point",
        "coordinates": [
          56.2541,
          26.567
        ]
      },
      "properties": {
        "title": "Strait of Hormuz - US-Iran Active Conflict",
        "summary": "Hormuz effectively closed since July 30. IEA: 14M bpd output cut. Trump vows response to Jordan base strikes.",
        "date": "2026-08-31",
        "severity": 10,
        "source": "acled"
      }
    },
    {
      "type": "Feature",
      "geometry": {
        "type": "Point",
        "coordinates": [
          36.2384,
          31.9632
        ]
      },
      "properties": {
        "title": "Iran Strikes US Bases in Jordan",
        "summary": "IRGC launched 8+ missiles intercepted. Jordan AF intercepted. Trump vows hard response.",
        "date": "2026-08-31",
        "severity": 8,
        "source": "acled"
      }
    },
    {
      "type": "Feature",
      "geometry": {
        "type": "Point",
        "coordinates": [
          37.8,
          48.7
        ]
      },
      "properties": {
        "title": "Ukraine Frontline - Donetsk Oblast",
        "summary": "DeepStateMap 526 polygons. FIRMS thermal anomalies in Sumy and Kursk directions. Belgorod Ozon warehouse struck by UAS.",
        "date": "2026-08-31",
        "severity": 7,
        "source": "acled"
      }
    },
    {
      "type": "Feature",
      "geometry": {
        "type": "Point",
        "coordinates": [
          33.505,
          52.287
        ]
      },
      "properties": {
        "title": "FIRMS Thermal Anomaly - Kursk direction (FRP 2.57 MW)",
        "summary": "VIIRS S-NPP NRT acquired 2026-08-30 0033Z, conf nominal",
        "date": "2026-08-30",
        "severity": 5,
        "source": "firms"
      }
    },
    {
      "type": "Feature",
      "geometry": {
        "type": "Point",
        "coordinates": [
          14.2,
          37.5
        ]
      },
      "properties": {
        "title": "Shadow Fleet Tanker Interdiction (6th) - EUNAVFOR MED IRINI",
        "summary": "MV SUN boarded Aug 30. French authorities detain Indian captain. EU Kallas: cutting off Russia's oil lifeline.",
        "date": "2026-08-31",
        "severity": 6,
        "source": "acled"
      }
    },
    {
      "type": "Feature",
      "geometry": {
        "type": "Point",
        "coordinates": [
          -5.3162,
          35.8893
        ]
      },
      "properties": {
        "title": "Ceuta Migration Crisis",
        "summary": "Mass crossing attempt from Morocco. Sanchez accuses Russia/Israel networks of amplifying disinformation.",
        "date": "2026-08-31",
        "severity": 5,
        "source": "acled"
      }
    },
    {
      "type": "Feature",
      "geometry": {
        "type": "Point",
        "coordinates": [
          -119.69069,
          45.253405
        ]
      },
      "properties": {
        "title": "Wildfire - Ruggs, Morrow, Oregon (650 acres)",
        "summary": "EONET_23656, active as of Aug 31.",
        "date": "2026-08-31",
        "severity": 3,
        "source": "usgs"
      }
    },
    {
      "type": "Feature",
      "geometry": {
        "type": "Point",
        "coordinates": [
          -95.2967,
          34.4778
        ]
      },
      "properties": {
        "title": "Wildfire - Alexander Trail Fire, Oklahoma (1,400 acres)",
        "summary": "EONET_23673, active as of Aug 30.",
        "date": "2026-08-30",
        "severity": 4,
        "source": "usgs"
      }
    },
    {
      "type": "Feature",
      "geometry": {
        "type": "Point",
        "coordinates": [
          -66.9036,
          10.4806
        ]
      },
      "properties": {
        "title": "Venezuela-US Oil Deal Signed",
        "summary": "Trump claims 65bn barrel concession. Rodriguez: 100-year private JV. Contested legitimacy.",
        "date": "2026-08-28",
        "severity": 7,
        "source": "acled"
      }
    }
  ]
}