{
  "type": "FeatureCollection",
  "features": [
    {
      "type": "Feature",
      "geometry": {
        "type": "Point",
        "coordinates": [
          -85.1501,
          22.7854
        ]
      },
      "properties": {
        "title": "M 6.1 - 104 km WNW of Mantua, Cuba",
        "summary": "M6.1 \u00b7 104 km WNW of Mantua, Cuba \u00b7 depth 26 km",
        "date": "2026-06-08",
        "severity": 9,
        "source": "usgs"
      }
    },
    {
      "type": "Feature",
      "geometry": {
        "type": "Point",
        "coordinates": [
          -4.3787,
          -55.7537
        ]
      },
      "properties": {
        "title": "M 5.5 - southern Mid-Atlantic Ridge",
        "summary": "M5.5 \u00b7 southern Mid-Atlantic Ridge \u00b7 depth 10 km",
        "date": "2026-06-08",
        "severity": 8,
        "source": "usgs"
      }
    },
    {
      "type": "Feature",
      "geometry": {
        "type": "Point",
        "coordinates": [
          125.2525,
          5.532
        ]
      },
      "properties": {
        "title": "M 5.5 - 12 km WSW of Balangonan, Philippines",
        "summary": "M5.5 \u00b7 12 km WSW of Balangonan, Philippines \u00b7 depth 81.095 km",
        "date": "2026-06-08",
        "severity": 8,
        "source": "usgs"
      }
    },
    {
      "type": "Feature",
      "geometry": {
        "type": "Point",
        "coordinates": [
          124.825,
          5.6881
        ]
      },
      "properties": {
        "title": "M 5.4 - 21 km SSW of Lumatil, Philippines",
        "summary": "M5.4 \u00b7 21 km SSW of Lumatil, Philippines \u00b7 depth 35 km",
        "date": "2026-06-09",
        "severity": 8,
        "source": "usgs"
      }
    },
    {
      "type": "Feature",
      "geometry": {
        "type": "Point",
        "coordinates": [
          -4.3752,
          -55.7212
        ]
      },
      "properties": {
        "title": "M 5.4 - southern Mid-Atlantic Ridge",
        "summary": "M5.4 \u00b7 southern Mid-Atlantic Ridge \u00b7 depth 10 km",
        "date": "2026-06-08",
        "severity": 8,
        "source": "usgs"
      }
    },
    {
      "type": "Feature",
      "geometry": {
        "type": "Point",
        "coordinates": [
          169.9905,
          -21.1981
        ]
      },
      "properties": {
        "title": "M 5.4 - 197 km SSE of Isangel, Vanuatu",
        "summary": "M5.4 \u00b7 197 km SSE of Isangel, Vanuatu \u00b7 depth 59.614 km",
        "date": "2026-06-08",
        "severity": 8,
        "source": "usgs"
      }
    },
    {
      "type": "Feature",
      "geometry": {
        "type": "Point",
        "coordinates": [
          124.8303,
          5.7068
        ]
      },
      "properties": {
        "title": "M 5.3 - 19 km SSW of Lumatil, Philippines",
        "summary": "M5.3 \u00b7 19 km SSW of Lumatil, Philippines \u00b7 depth 45.995 km",
        "date": "2026-06-08",
        "severity": 7,
        "source": "usgs"
      }
    },
    {
      "type": "Feature",
      "geometry": {
        "type": "Point",
        "coordinates": [
          125.3116,
          5.2857
        ]
      },
      "properties": {
        "title": "M 5.2 - 21 km SW of Sarangani, Philippines",
        "summary": "M5.2 \u00b7 21 km SW of Sarangani, Philippines \u00b7 depth 82.366 km",
        "date": "2026-06-09",
        "severity": 7,
        "source": "usgs"
      }
    },
    {
      "type": "Feature",
      "geometry": {
        "type": "Point",
        "coordinates": [
          125.2439,
          5.0648
        ]
      },
      "properties": {
        "title": "M 5.2 - 44 km SSW of Sarangani, Philippines",
        "summary": "M5.2 \u00b7 44 km SSW of Sarangani, Philippines \u00b7 depth 55.698 km",
        "date": "2026-06-08",
        "severity": 7,
        "source": "usgs"
      }
    },
    {
      "type": "Feature",
      "geometry": {
        "type": "Point",
        "coordinates": [
          125.685,
          8.769
        ]
      },
      "properties": {
        "title": "M 5.1 - 6 km SSW of Sibagat, Philippines",
        "summary": "M5.1 \u00b7 6 km SSW of Sibagat, Philippines \u00b7 depth 10 km",
        "date": "2026-06-09",
        "severity": 7,
        "source": "usgs"
      }
    },
    {
      "type": "Feature",
      "geometry": {
        "type": "Point",
        "coordinates": [
          125.4753,
          5.501
        ]
      },
      "properties": {
        "title": "M 5.1 - 10 km N of Sarangani, Philippines",
        "summary": "M5.1 \u00b7 10 km N of Sarangani, Philippines \u00b7 depth 23.958 km",
        "date": "2026-06-08",
        "severity": 7,
        "source": "usgs"
      }
    },
    {
      "type": "Feature",
      "geometry": {
        "type": "Point",
        "coordinates": [
          125.4615,
          4.9304
        ]
      },
      "properties": {
        "title": "M 5.1 - 52 km S of Sarangani, Philippines",
        "summary": "M5.1 \u00b7 52 km S of Sarangani, Philippines \u00b7 depth 69.499 km",
        "date": "2026-06-08",
        "severity": 7,
        "source": "usgs"
      }
    },
    {
      "type": "Feature",
      "geometry": {
        "type": "Point",
        "coordinates": [
          125.5,
          6.5
        ]
      },
      "properties": {
        "title": "[Orange] Earthquake in Philippines",
        "summary": "Earthquake \u00b7 Orange alert \u00b7 Philippines \u00b7 Magnitude 7.8M, Depth:55.193km",
        "date": "2026-06-07",
        "severity": 8,
        "source": "gdacs"
      }
    },
    {
      "type": "Feature",
      "geometry": {
        "type": "Point",
        "coordinates": [
          125.5,
          6.5
        ]
      },
      "properties": {
        "title": "[Orange] Earthquake in Philippines",
        "summary": "Earthquake \u00b7 Orange alert \u00b7 Philippines \u00b7 Magnitude 7.8M, Depth:55.193km",
        "date": "2026-06-07",
        "severity": 8,
        "source": "gdacs"
      }
    },
    {
      "type": "Feature",
      "geometry": {
        "type": "Point",
        "coordinates": [
          34.807,
          51.069
        ]
      },
      "properties": {
        "title": "[FIRMS] thermal anomaly 51.069, 34.807 (FRP 2.7 MW, conf nominal)",
        "summary": "VIIRS S-NPP NRT, sat N, acquired 2026-06-08 0126Z, FRP 2.7 MW",
        "date": "2026-06-08",
        "severity": 3,
        "source": "firms"
      }
    },
    {
      "type": "Feature",
      "geometry": {
        "type": "Point",
        "coordinates": [
          26.604,
          48.748
        ]
      },
      "properties": {
        "title": "[FIRMS] thermal anomaly 48.748, 26.604 (FRP 0.71 MW, conf nominal)",
        "summary": "VIIRS S-NPP NRT, sat N, acquired 2026-06-08 0128Z, FRP 0.71 MW",
        "date": "2026-06-08",
        "severity": 3,
        "source": "firms"
      }
    },
    {
      "type": "Feature",
      "geometry": {
        "type": "Point",
        "coordinates": [
          24.707,
          48.976
        ]
      },
      "properties": {
        "title": "[FIRMS] thermal anomaly 48.976, 24.707 (FRP 0.61 MW, conf nominal)",
        "summary": "VIIRS S-NPP NRT, sat N, acquired 2026-06-08 0128Z, FRP 0.61 MW",
        "date": "2026-06-08",
        "severity": 3,
        "source": "firms"
      }
    },
    {
      "type": "Feature",
      "geometry": {
        "type": "Point",
        "coordinates": [
          24.711,
          48.974
        ]
      },
      "properties": {
        "title": "[FIRMS] thermal anomaly 48.974, 24.711 (FRP 0.61 MW, conf nominal)",
        "summary": "VIIRS S-NPP NRT, sat N, acquired 2026-06-08 0128Z, FRP 0.61 MW",
        "date": "2026-06-08",
        "severity": 3,
        "source": "firms"
      }
    },
    {
      "type": "Feature",
      "geometry": {
        "type": "Point",
        "coordinates": [
          24.711,
          48.977
        ]
      },
      "properties": {
        "title": "[FIRMS] thermal anomaly 48.977, 24.711 (FRP 0.96 MW, conf nominal)",
        "summary": "VIIRS S-NPP NRT, sat N, acquired 2026-06-08 0128Z, FRP 0.96 MW",
        "date": "2026-06-08",
        "severity": 3,
        "source": "firms"
      }
    },
    {
      "type": "Feature",
      "geometry": {
        "type": "Point",
        "coordinates": [
          22.867,
          45.953
        ]
      },
      "properties": {
        "title": "[FIRMS] thermal anomaly 45.953, 22.867 (FRP 0.9 MW, conf nominal)",
        "summary": "VIIRS S-NPP NRT, sat N, acquired 2026-06-08 0128Z, FRP 0.9 MW",
        "date": "2026-06-08",
        "severity": 3,
        "source": "firms"
      }
    },
    {
      "type": "Feature",
      "geometry": {
        "type": "Point",
        "coordinates": [
          25.415,
          45.123
        ]
      },
      "properties": {
        "title": "[FIRMS] thermal anomaly 45.123, 25.415 (FRP 1.84 MW, conf nominal)",
        "summary": "VIIRS S-NPP NRT, sat N, acquired 2026-06-08 0128Z, FRP 1.84 MW",
        "date": "2026-06-08",
        "severity": 3,
        "source": "firms"
      }
    },
    {
      "type": "Feature",
      "geometry": {
        "type": "Point",
        "coordinates": [
          31.678,
          45.26
        ]
      },
      "properties": {
        "title": "[FIRMS] thermal anomaly 45.260, 31.678 (FRP 4.5 MW, conf nominal)",
        "summary": "VIIRS S-NPP NRT, sat N, acquired 2026-06-08 0934Z, FRP 4.5 MW",
        "date": "2026-06-08",
        "severity": 3,
        "source": "firms"
      }
    },
    {
      "type": "Feature",
      "geometry": {
        "type": "Point",
        "coordinates": [
          32.69,
          46.592
        ]
      },
      "properties": {
        "title": "[FIRMS] thermal anomaly 46.592, 32.690 (FRP 4.73 MW, conf nominal)",
        "summary": "VIIRS S-NPP NRT, sat N, acquired 2026-06-08 0934Z, FRP 4.73 MW",
        "date": "2026-06-08",
        "severity": 3,
        "source": "firms"
      }
    },
    {
      "type": "Feature",
      "geometry": {
        "type": "Point",
        "coordinates": [
          30.479,
          46.079
        ]
      },
      "properties": {
        "title": "[FIRMS] thermal anomaly 46.079, 30.479 (FRP 3.62 MW, conf nominal)",
        "summary": "VIIRS S-NPP NRT, sat N, acquired 2026-06-08 0934Z, FRP 3.62 MW",
        "date": "2026-06-08",
        "severity": 3,
        "source": "firms"
      }
    },
    {
      "type": "Feature",
      "geometry": {
        "type": "Point",
        "coordinates": [
          34.917,
          51.097
        ]
      },
      "properties": {
        "title": "[FIRMS] thermal anomaly 51.097, 34.917 (FRP 1.67 MW, conf nominal)",
        "summary": "VIIRS S-NPP NRT, sat N, acquired 2026-06-08 0934Z, FRP 1.67 MW",
        "date": "2026-06-08",
        "severity": 3,
        "source": "firms"
      }
    },
    {
      "type": "Feature",
      "geometry": {
        "type": "Point",
        "coordinates": [
          34.642,
          51.138
        ]
      },
      "properties": {
        "title": "[FIRMS] thermal anomaly 51.138, 34.642 (FRP 1.45 MW, conf nominal)",
        "summary": "VIIRS S-NPP NRT, sat N, acquired 2026-06-08 0934Z, FRP 1.45 MW",
        "date": "2026-06-08",
        "severity": 3,
        "source": "firms"
      }
    },
    {
      "type": "Feature",
      "geometry": {
        "type": "Point",
        "coordinates": [
          34.481,
          51.225
        ]
      },
      "properties": {
        "title": "[FIRMS] thermal anomaly 51.225, 34.481 (FRP 2.7 MW, conf nominal)",
        "summary": "VIIRS S-NPP NRT, sat N, acquired 2026-06-08 0937Z, FRP 2.7 MW",
        "date": "2026-06-08",
        "severity": 3,
        "source": "firms"
      }
    },
    {
      "type": "Feature",
      "geometry": {
        "type": "Point",
        "coordinates": [
          34.332,
          51.491
        ]
      },
      "properties": {
        "title": "[FIRMS] thermal anomaly 51.491, 34.332 (FRP 2.1 MW, conf nominal)",
        "summary": "VIIRS S-NPP NRT, sat N, acquired 2026-06-08 0937Z, FRP 2.1 MW",
        "date": "2026-06-08",
        "severity": 3,
        "source": "firms"
      }
    },
    {
      "type": "Feature",
      "geometry": {
        "type": "Point",
        "coordinates": [
          34.323,
          51.826
        ]
      },
      "properties": {
        "title": "[FIRMS] thermal anomaly 51.826, 34.323 (FRP 1.63 MW, conf nominal)",
        "summary": "VIIRS S-NPP NRT, sat N, acquired 2026-06-08 0937Z, FRP 1.63 MW",
        "date": "2026-06-08",
        "severity": 3,
        "source": "firms"
      }
    },
    {
      "type": "Feature",
      "geometry": {
        "type": "Point",
        "coordinates": [
          34.03,
          52.084
        ]
      },
      "properties": {
        "title": "[FIRMS] thermal anomaly 52.084, 34.030 (FRP 2.34 MW, conf nominal)",
        "summary": "VIIRS S-NPP NRT, sat N, acquired 2026-06-08 0937Z, FRP 2.34 MW",
        "date": "2026-06-08",
        "severity": 3,
        "source": "firms"
      }
    },
    {
      "type": "Feature",
      "geometry": {
        "type": "Point",
        "coordinates": [
          34.051,
          52.184
        ]
      },
      "properties": {
        "title": "[FIRMS] thermal anomaly 52.184, 34.051 (FRP 5.11 MW, conf nominal)",
        "summary": "VIIRS S-NPP NRT, sat N, acquired 2026-06-08 0937Z, FRP 5.11 MW",
        "date": "2026-06-08",
        "severity": 3,
        "source": "firms"
      }
    },
    {
      "type": "Feature",
      "geometry": {
        "type": "Point",
        "coordinates": [
          33.291,
          52.348
        ]
      },
      "properties": {
        "title": "[FIRMS] thermal anomaly 52.348, 33.291 (FRP 1.56 MW, conf nominal)",
        "summary": "VIIRS S-NPP NRT, sat N, acquired 2026-06-08 0937Z, FRP 1.56 MW",
        "date": "2026-06-08",
        "severity": 3,
        "source": "firms"
      }
    },
    {
      "type": "Feature",
      "geometry": {
        "type": "Point",
        "coordinates": [
          31.673,
          45.259
        ]
      },
      "properties": {
        "title": "[FIRMS] thermal anomaly 45.259, 31.673 (FRP 10.5 MW, conf nominal)",
        "summary": "VIIRS S-NPP NRT, sat N, acquired 2026-06-08 1115Z, FRP 10.5 MW",
        "date": "2026-06-08",
        "severity": 3,
        "source": "firms"
      }
    },
    {
      "type": "Feature",
      "geometry": {
        "type": "Point",
        "coordinates": [
          32.52,
          46.48
        ]
      },
      "properties": {
        "title": "[FIRMS] thermal anomaly 46.480, 32.520 (FRP 12.54 MW, conf nominal)",
        "summary": "VIIRS S-NPP NRT, sat N, acquired 2026-06-08 1115Z, FRP 12.54 MW",
        "date": "2026-06-08",
        "severity": 3,
        "source": "firms"
      }
    },
    {
      "type": "Feature",
      "geometry": {
        "type": "Point",
        "coordinates": [
          32.52,
          46.484
        ]
      },
      "properties": {
        "title": "[FIRMS] thermal anomaly 46.484, 32.520 (FRP 14.12 MW, conf nominal)",
        "summary": "VIIRS S-NPP NRT, sat N, acquired 2026-06-08 1115Z, FRP 14.12 MW",
        "date": "2026-06-08",
        "severity": 3,
        "source": "firms"
      }
    },
    {
      "type": "Feature",
      "geometry": {
        "type": "Point",
        "coordinates": [
          32.512,
          46.483
        ]
      },
      "properties": {
        "title": "[FIRMS] thermal anomaly 46.483, 32.512 (FRP 14.12 MW, conf nominal)",
        "summary": "VIIRS S-NPP NRT, sat N, acquired 2026-06-08 1115Z, FRP 14.12 MW",
        "date": "2026-06-08",
        "severity": 3,
        "source": "firms"
      }
    },
    {
      "type": "Feature",
      "geometry": {
        "type": "Point",
        "coordinates": [
          32.519,
          46.488
        ]
      },
      "properties": {
        "title": "[FIRMS] thermal anomaly 46.488, 32.519 (FRP 14.12 MW, conf nominal)",
        "summary": "VIIRS S-NPP NRT, sat N, acquired 2026-06-08 1115Z, FRP 14.12 MW",
        "date": "2026-06-08",
        "severity": 3,
        "source": "firms"
      }
    },
    {
      "type": "Feature",
      "geometry": {
        "type": "Point",
        "coordinates": [
          32.335,
          46.573
        ]
      },
      "properties": {
        "title": "[FIRMS] thermal anomaly 46.573, 32.335 (FRP 12.52 MW, conf nominal)",
        "summary": "VIIRS S-NPP NRT, sat N, acquired 2026-06-08 1115Z, FRP 12.52 MW",
        "date": "2026-06-08",
        "severity": 3,
        "source": "firms"
      }
    },
    {
      "type": "Feature",
      "geometry": {
        "type": "Point",
        "coordinates": [
          32.328,
          46.572
        ]
      },
      "properties": {
        "title": "[FIRMS] thermal anomaly 46.572, 32.328 (FRP 21.28 MW, conf nominal)",
        "summary": "VIIRS S-NPP NRT, sat N, acquired 2026-06-08 1115Z, FRP 21.28 MW",
        "date": "2026-06-08",
        "severity": 4,
        "source": "firms"
      }
    },
    {
      "type": "Feature",
      "geometry": {
        "type": "Point",
        "coordinates": [
          32.327,
          46.576
        ]
      },
      "properties": {
        "title": "[FIRMS] thermal anomaly 46.576, 32.327 (FRP 21.28 MW, conf nominal)",
        "summary": "VIIRS S-NPP NRT, sat N, acquired 2026-06-08 1115Z, FRP 21.28 MW",
        "date": "2026-06-08",
        "severity": 4,
        "source": "firms"
      }
    },
    {
      "type": "Feature",
      "geometry": {
        "type": "Point",
        "coordinates": [
          27.762,
          46.593
        ]
      },
      "properties": {
        "title": "[FIRMS] thermal anomaly 46.593, 27.762 (FRP 2.79 MW, conf nominal)",
        "summary": "VIIRS S-NPP NRT, sat N, acquired 2026-06-08 1115Z, FRP 2.79 MW",
        "date": "2026-06-08",
        "severity": 3,
        "source": "firms"
      }
    },
    {
      "type": "Feature",
      "geometry": {
        "type": "Point",
        "coordinates": [
          24.587,
          48.818
        ]
      },
      "properties": {
        "title": "[FIRMS] thermal anomaly 48.818, 24.587 (FRP 4.44 MW, conf nominal)",
        "summary": "VIIRS S-NPP NRT, sat N, acquired 2026-06-08 1117Z, FRP 4.44 MW",
        "date": "2026-06-08",
        "severity": 3,
        "source": "firms"
      }
    },
    {
      "type": "Feature",
      "geometry": {
        "type": "Point",
        "coordinates": [
          22.245,
          48.426
        ]
      },
      "properties": {
        "title": "[FIRMS] thermal anomaly 48.426, 22.245 (FRP 4.35 MW, conf nominal)",
        "summary": "VIIRS S-NPP NRT, sat N, acquired 2026-06-08 1117Z, FRP 4.35 MW",
        "date": "2026-06-08",
        "severity": 3,
        "source": "firms"
      }
    },
    {
      "type": "Feature",
      "geometry": {
        "type": "Point",
        "coordinates": [
          24.458,
          49.286
        ]
      },
      "properties": {
        "title": "[FIRMS] thermal anomaly 49.286, 24.458 (FRP 2.22 MW, conf nominal)",
        "summary": "VIIRS S-NPP NRT, sat N, acquired 2026-06-08 1117Z, FRP 2.22 MW",
        "date": "2026-06-08",
        "severity": 3,
        "source": "firms"
      }
    },
    {
      "type": "Feature",
      "geometry": {
        "type": "Point",
        "coordinates": [
          34.567,
          51.159
        ]
      },
      "properties": {
        "title": "[FIRMS] thermal anomaly 51.159, 34.567 (FRP 3.05 MW, conf nominal)",
        "summary": "VIIRS S-NPP NRT, sat N, acquired 2026-06-08 1117Z, FRP 3.05 MW",
        "date": "2026-06-08",
        "severity": 3,
        "source": "firms"
      }
    },
    {
      "type": "Feature",
      "geometry": {
        "type": "Point",
        "coordinates": [
          34.68,
          51.552
        ]
      },
      "properties": {
        "title": "[FIRMS] thermal anomaly 51.552, 34.680 (FRP 2.28 MW, conf nominal)",
        "summary": "VIIRS S-NPP NRT, sat N, acquired 2026-06-08 1117Z, FRP 2.28 MW",
        "date": "2026-06-08",
        "severity": 3,
        "source": "firms"
      }
    },
    {
      "type": "Feature",
      "geometry": {
        "type": "Point",
        "coordinates": [
          33.791,
          52.306
        ]
      },
      "properties": {
        "title": "[FIRMS] thermal anomaly 52.306, 33.791 (FRP 5.13 MW, conf nominal)",
        "summary": "VIIRS S-NPP NRT, sat N, acquired 2026-06-08 1117Z, FRP 5.13 MW",
        "date": "2026-06-08",
        "severity": 3,
        "source": "firms"
      }
    },
    {
      "type": "Feature",
      "geometry": {
        "type": "Point",
        "coordinates": [
          33.784,
          52.306
        ]
      },
      "properties": {
        "title": "[FIRMS] thermal anomaly 52.306, 33.784 (FRP 5.13 MW, conf nominal)",
        "summary": "VIIRS S-NPP NRT, sat N, acquired 2026-06-08 1117Z, FRP 5.13 MW",
        "date": "2026-06-08",
        "severity": 3,
        "source": "firms"
      }
    },
    {
      "type": "Feature",
      "geometry": {
        "type": "Point",
        "coordinates": [
          33.578,
          52.302
        ]
      },
      "properties": {
        "title": "[FIRMS] thermal anomaly 52.302, 33.578 (FRP 10.91 MW, conf nominal)",
        "summary": "VIIRS S-NPP NRT, sat N, acquired 2026-06-08 1117Z, FRP 10.91 MW",
        "date": "2026-06-08",
        "severity": 3,
        "source": "firms"
      }
    },
    {
      "type": "Feature",
      "geometry": {
        "type": "Point",
        "coordinates": [
          29.989,
          52.848
        ]
      },
      "properties": {
        "title": "[FIRMS] thermal anomaly 52.848, 29.989 (FRP 6.67 MW, conf nominal)",
        "summary": "VIIRS S-NPP NRT, sat N, acquired 2026-06-08 1117Z, FRP 6.67 MW",
        "date": "2026-06-08",
        "severity": 3,
        "source": "firms"
      }
    },
    {
      "type": "Feature",
      "geometry": {
        "type": "Point",
        "coordinates": [
          33.862,
          44.772
        ]
      },
      "properties": {
        "title": "[FIRMS] thermal anomaly 44.772, 33.862 (FRP 0.8 MW, conf nominal)",
        "summary": "VIIRS S-NPP NRT, sat N, acquired 2026-06-08 2329Z, FRP 0.8 MW",
        "date": "2026-06-08",
        "severity": 3,
        "source": "firms"
      }
    },
    {
      "type": "Feature",
      "geometry": {
        "type": "Point",
        "coordinates": [
          25.107,
          45.291
        ]
      },
      "properties": {
        "title": "[FIRMS] thermal anomaly 45.291, 25.107 (FRP 1.12 MW, conf nominal)",
        "summary": "VIIRS S-NPP NRT, sat N, acquired 2026-06-08 2329Z, FRP 1.12 MW",
        "date": "2026-06-08",
        "severity": 3,
        "source": "firms"
      }
    },
    {
      "type": "Feature",
      "geometry": {
        "type": "Point",
        "coordinates": [
          25.414,
          45.126
        ]
      },
      "properties": {
        "title": "[FIRMS] thermal anomaly 45.126, 25.414 (FRP 0.46 MW, conf nominal)",
        "summary": "VIIRS S-NPP NRT, sat N, acquired 2026-06-08 2329Z, FRP 0.46 MW",
        "date": "2026-06-08",
        "severity": 3,
        "source": "firms"
      }
    },
    {
      "type": "Feature",
      "geometry": {
        "type": "Point",
        "coordinates": [
          25.415,
          45.122
        ]
      },
      "properties": {
        "title": "[FIRMS] thermal anomaly 45.122, 25.415 (FRP 0.65 MW, conf nominal)",
        "summary": "VIIRS S-NPP NRT, sat N, acquired 2026-06-08 2329Z, FRP 0.65 MW",
        "date": "2026-06-08",
        "severity": 3,
        "source": "firms"
      }
    },
    {
      "type": "Feature",
      "geometry": {
        "type": "Point",
        "coordinates": [
          32.221,
          52.807
        ]
      },
      "properties": {
        "title": "[FIRMS] thermal anomaly 52.807, 32.221 (FRP 1.24 MW, conf nominal)",
        "summary": "VIIRS S-NPP NRT, sat N, acquired 2026-06-08 2329Z, FRP 1.24 MW",
        "date": "2026-06-08",
        "severity": 3,
        "source": "firms"
      }
    },
    {
      "type": "Feature",
      "geometry": {
        "type": "Point",
        "coordinates": [
          29.983,
          52.848
        ]
      },
      "properties": {
        "title": "[FIRMS] thermal anomaly 52.848, 29.983 (FRP 1.35 MW, conf nominal)",
        "summary": "VIIRS S-NPP NRT, sat N, acquired 2026-06-08 2329Z, FRP 1.35 MW",
        "date": "2026-06-08",
        "severity": 3,
        "source": "firms"
      }
    },
    {
      "type": "Feature",
      "geometry": {
        "type": "Point",
        "coordinates": [
          29.993,
          52.848
        ]
      },
      "properties": {
        "title": "[FIRMS] thermal anomaly 52.848, 29.993 (FRP 1.18 MW, conf nominal)",
        "summary": "VIIRS S-NPP NRT, sat N, acquired 2026-06-08 2329Z, FRP 1.18 MW",
        "date": "2026-06-08",
        "severity": 3,
        "source": "firms"
      }
    },
    {
      "type": "Feature",
      "geometry": {
        "type": "Point",
        "coordinates": [
          33.205,
          52.434
        ]
      },
      "properties": {
        "title": "[FIRMS] thermal anomaly 52.434, 33.205 (FRP 1.31 MW, conf nominal)",
        "summary": "VIIRS S-NPP NRT, sat N, acquired 2026-06-08 2329Z, FRP 1.31 MW",
        "date": "2026-06-08",
        "severity": 3,
        "source": "firms"
      }
    },
    {
      "type": "Feature",
      "geometry": {
        "type": "Point",
        "coordinates": [
          34.17,
          52.2
        ]
      },
      "properties": {
        "title": "[FIRMS] thermal anomaly 52.200, 34.170 (FRP 0.54 MW, conf nominal)",
        "summary": "VIIRS S-NPP NRT, sat N, acquired 2026-06-08 2329Z, FRP 0.54 MW",
        "date": "2026-06-08",
        "severity": 3,
        "source": "firms"
      }
    },
    {
      "type": "Feature",
      "geometry": {
        "type": "Point",
        "coordinates": [
          34.029,
          52.19
        ]
      },
      "properties": {
        "title": "[FIRMS] thermal anomaly 52.190, 34.029 (FRP 0.96 MW, conf nominal)",
        "summary": "VIIRS S-NPP NRT, sat N, acquired 2026-06-08 2329Z, FRP 0.96 MW",
        "date": "2026-06-08",
        "severity": 3,
        "source": "firms"
      }
    },
    {
      "type": "Feature",
      "geometry": {
        "type": "Point",
        "coordinates": [
          34.029,
          52.186
        ]
      },
      "properties": {
        "title": "[FIRMS] thermal anomaly 52.186, 34.029 (FRP 0.96 MW, conf nominal)",
        "summary": "VIIRS S-NPP NRT, sat N, acquired 2026-06-08 2329Z, FRP 0.96 MW",
        "date": "2026-06-08",
        "severity": 3,
        "source": "firms"
      }
    },
    {
      "type": "Feature",
      "geometry": {
        "type": "Point",
        "coordinates": [
          34.035,
          52.185
        ]
      },
      "properties": {
        "title": "[FIRMS] thermal anomaly 52.185, 34.035 (FRP 1.61 MW, conf nominal)",
        "summary": "VIIRS S-NPP NRT, sat N, acquired 2026-06-08 2329Z, FRP 1.61 MW",
        "date": "2026-06-08",
        "severity": 3,
        "source": "firms"
      }
    },
    {
      "type": "Feature",
      "geometry": {
        "type": "Point",
        "coordinates": [
          33.991,
          52.129
        ]
      },
      "properties": {
        "title": "[FIRMS] thermal anomaly 52.129, 33.991 (FRP 0.85 MW, conf nominal)",
        "summary": "VIIRS S-NPP NRT, sat N, acquired 2026-06-08 2329Z, FRP 0.85 MW",
        "date": "2026-06-08",
        "severity": 3,
        "source": "firms"
      }
    },
    {
      "type": "Feature",
      "geometry": {
        "type": "Point",
        "coordinates": [
          33.991,
          52.129
        ]
      },
      "properties": {
        "title": "[FIRMS] thermal anomaly 52.129, 33.991 (FRP 0.84 MW, conf nominal)",
        "summary": "VIIRS S-NPP NRT, sat N, acquired 2026-06-08 2329Z, FRP 0.84 MW",
        "date": "2026-06-08",
        "severity": 3,
        "source": "firms"
      }
    },
    {
      "type": "Feature",
      "geometry": {
        "type": "Point",
        "coordinates": [
          34.39,
          51.893
        ]
      },
      "properties": {
        "title": "[FIRMS] thermal anomaly 51.893, 34.390 (FRP 0.22 MW, conf nominal)",
        "summary": "VIIRS S-NPP NRT, sat N, acquired 2026-06-08 2329Z, FRP 0.22 MW",
        "date": "2026-06-08",
        "severity": 3,
        "source": "firms"
      }
    },
    {
      "type": "Feature",
      "geometry": {
        "type": "Point",
        "coordinates": [
          34.389,
          51.891
        ]
      },
      "properties": {
        "title": "[FIRMS] thermal anomaly 51.891, 34.389 (FRP 0.65 MW, conf nominal)",
        "summary": "VIIRS S-NPP NRT, sat N, acquired 2026-06-08 2329Z, FRP 0.65 MW",
        "date": "2026-06-08",
        "severity": 3,
        "source": "firms"
      }
    },
    {
      "type": "Feature",
      "geometry": {
        "type": "Point",
        "coordinates": [
          34.277,
          51.85
        ]
      },
      "properties": {
        "title": "[FIRMS] thermal anomaly 51.850, 34.277 (FRP 0.88 MW, conf nominal)",
        "summary": "VIIRS S-NPP NRT, sat N, acquired 2026-06-08 2329Z, FRP 0.88 MW",
        "date": "2026-06-08",
        "severity": 3,
        "source": "firms"
      }
    },
    {
      "type": "Feature",
      "geometry": {
        "type": "Point",
        "coordinates": [
          34.283,
          51.85
        ]
      },
      "properties": {
        "title": "[FIRMS] thermal anomaly 51.850, 34.283 (FRP 0.88 MW, conf nominal)",
        "summary": "VIIRS S-NPP NRT, sat N, acquired 2026-06-08 2329Z, FRP 0.88 MW",
        "date": "2026-06-08",
        "severity": 3,
        "source": "firms"
      }
    },
    {
      "type": "Feature",
      "geometry": {
        "type": "Point",
        "coordinates": [
          34.246,
          51.849
        ]
      },
      "properties": {
        "title": "[FIRMS] thermal anomaly 51.849, 34.246 (FRP 1.24 MW, conf nominal)",
        "summary": "VIIRS S-NPP NRT, sat N, acquired 2026-06-08 2329Z, FRP 1.24 MW",
        "date": "2026-06-08",
        "severity": 3,
        "source": "firms"
      }
    },
    {
      "type": "Feature",
      "geometry": {
        "type": "Point",
        "coordinates": [
          34.276,
          51.846
        ]
      },
      "properties": {
        "title": "[FIRMS] thermal anomaly 51.846, 34.276 (FRP 0.88 MW, conf nominal)",
        "summary": "VIIRS S-NPP NRT, sat N, acquired 2026-06-08 2329Z, FRP 0.88 MW",
        "date": "2026-06-08",
        "severity": 3,
        "source": "firms"
      }
    },
    {
      "type": "Feature",
      "geometry": {
        "type": "Point",
        "coordinates": [
          34.543,
          51.774
        ]
      },
      "properties": {
        "title": "[FIRMS] thermal anomaly 51.774, 34.543 (FRP 0.59 MW, conf nominal)",
        "summary": "VIIRS S-NPP NRT, sat N, acquired 2026-06-08 2329Z, FRP 0.59 MW",
        "date": "2026-06-08",
        "severity": 3,
        "source": "firms"
      }
    },
    {
      "type": "Feature",
      "geometry": {
        "type": "Point",
        "coordinates": [
          34.542,
          51.772
        ]
      },
      "properties": {
        "title": "[FIRMS] thermal anomaly 51.772, 34.542 (FRP 1.4 MW, conf nominal)",
        "summary": "VIIRS S-NPP NRT, sat N, acquired 2026-06-08 2329Z, FRP 1.4 MW",
        "date": "2026-06-08",
        "severity": 3,
        "source": "firms"
      }
    },
    {
      "type": "Feature",
      "geometry": {
        "type": "Point",
        "coordinates": [
          34.218,
          51.672
        ]
      },
      "properties": {
        "title": "[FIRMS] thermal anomaly 51.672, 34.218 (FRP 0.63 MW, conf nominal)",
        "summary": "VIIRS S-NPP NRT, sat N, acquired 2026-06-08 2329Z, FRP 0.63 MW",
        "date": "2026-06-08",
        "severity": 3,
        "source": "firms"
      }
    },
    {
      "type": "Feature",
      "geometry": {
        "type": "Point",
        "coordinates": [
          33.941,
          51.67
        ]
      },
      "properties": {
        "title": "[FIRMS] thermal anomaly 51.670, 33.941 (FRP 2.5 MW, conf nominal)",
        "summary": "VIIRS S-NPP NRT, sat N, acquired 2026-06-08 2329Z, FRP 2.5 MW",
        "date": "2026-06-08",
        "severity": 3,
        "source": "firms"
      }
    },
    {
      "type": "Feature",
      "geometry": {
        "type": "Point",
        "coordinates": [
          34.911,
          51.07
        ]
      },
      "properties": {
        "title": "[FIRMS] thermal anomaly 51.070, 34.911 (FRP 1.16 MW, conf nominal)",
        "summary": "VIIRS S-NPP NRT, sat N, acquired 2026-06-08 2329Z, FRP 1.16 MW",
        "date": "2026-06-08",
        "severity": 3,
        "source": "firms"
      }
    },
    {
      "type": "Feature",
      "geometry": {
        "type": "Point",
        "coordinates": [
          34.65,
          48.533
        ]
      },
      "properties": {
        "title": "[FIRMS] thermal anomaly 48.533, 34.650 (FRP 10.19 MW, conf nominal)",
        "summary": "VIIRS S-NPP NRT, sat N, acquired 2026-06-08 2329Z, FRP 10.19 MW",
        "date": "2026-06-08",
        "severity": 3,
        "source": "firms"
      }
    },
    {
      "type": "Feature",
      "geometry": {
        "type": "Point",
        "coordinates": [
          34.612,
          48.532
        ]
      },
      "properties": {
        "title": "[FIRMS] thermal anomaly 48.532, 34.612 (FRP 1.26 MW, conf nominal)",
        "summary": "VIIRS S-NPP NRT, sat N, acquired 2026-06-08 2329Z, FRP 1.26 MW",
        "date": "2026-06-08",
        "severity": 3,
        "source": "firms"
      }
    },
    {
      "type": "Feature",
      "geometry": {
        "type": "Point",
        "coordinates": [
          34.625,
          48.523
        ]
      },
      "properties": {
        "title": "[FIRMS] thermal anomaly 48.523, 34.625 (FRP 1.17 MW, conf nominal)",
        "summary": "VIIRS S-NPP NRT, sat N, acquired 2026-06-08 2329Z, FRP 1.17 MW",
        "date": "2026-06-08",
        "severity": 3,
        "source": "firms"
      }
    },
    {
      "type": "Feature",
      "geometry": {
        "type": "Point",
        "coordinates": [
          34.633,
          48.522
        ]
      },
      "properties": {
        "title": "[FIRMS] thermal anomaly 48.522, 34.633 (FRP 1.17 MW, conf nominal)",
        "summary": "VIIRS S-NPP NRT, sat N, acquired 2026-06-08 2329Z, FRP 1.17 MW",
        "date": "2026-06-08",
        "severity": 3,
        "source": "firms"
      }
    },
    {
      "type": "Feature",
      "geometry": {
        "type": "Point",
        "coordinates": [
          34.63,
          48.475
        ]
      },
      "properties": {
        "title": "[FIRMS] thermal anomaly 48.475, 34.630 (FRP 1.86 MW, conf nominal)",
        "summary": "VIIRS S-NPP NRT, sat N, acquired 2026-06-08 2329Z, FRP 1.86 MW",
        "date": "2026-06-08",
        "severity": 3,
        "source": "firms"
      }
    },
    {
      "type": "Feature",
      "geometry": {
        "type": "Point",
        "coordinates": [
          24.709,
          48.978
        ]
      },
      "properties": {
        "title": "[FIRMS] thermal anomaly 48.978, 24.709 (FRP 0.73 MW, conf nominal)",
        "summary": "VIIRS S-NPP NRT, sat N, acquired 2026-06-08 2329Z, FRP 0.73 MW",
        "date": "2026-06-08",
        "severity": 3,
        "source": "firms"
      }
    },
    {
      "type": "Feature",
      "geometry": {
        "type": "Point",
        "coordinates": [
          26.601,
          48.75
        ]
      },
      "properties": {
        "title": "[FIRMS] thermal anomaly 48.750, 26.601 (FRP 1.1 MW, conf nominal)",
        "summary": "VIIRS S-NPP NRT, sat N, acquired 2026-06-08 2329Z, FRP 1.1 MW",
        "date": "2026-06-08",
        "severity": 3,
        "source": "firms"
      }
    },
    {
      "type": "Feature",
      "geometry": {
        "type": "Point",
        "coordinates": [
          33.398,
          47.884
        ]
      },
      "properties": {
        "title": "[FIRMS] thermal anomaly 47.884, 33.398 (FRP 0.49 MW, conf nominal)",
        "summary": "VIIRS S-NPP NRT, sat N, acquired 2026-06-08 2329Z, FRP 0.49 MW",
        "date": "2026-06-08",
        "severity": 3,
        "source": "firms"
      }
    },
    {
      "type": "Feature",
      "geometry": {
        "type": "Point",
        "coordinates": [
          33.397,
          47.88
        ]
      },
      "properties": {
        "title": "[FIRMS] thermal anomaly 47.880, 33.397 (FRP 0.49 MW, conf nominal)",
        "summary": "VIIRS S-NPP NRT, sat N, acquired 2026-06-08 2329Z, FRP 0.49 MW",
        "date": "2026-06-08",
        "severity": 3,
        "source": "firms"
      }
    },
    {
      "type": "Feature",
      "geometry": {
        "type": "Point",
        "coordinates": [
          33.413,
          47.874
        ]
      },
      "properties": {
        "title": "[FIRMS] thermal anomaly 47.874, 33.413 (FRP 1.07 MW, conf nominal)",
        "summary": "VIIRS S-NPP NRT, sat N, acquired 2026-06-08 2329Z, FRP 1.07 MW",
        "date": "2026-06-08",
        "severity": 3,
        "source": "firms"
      }
    },
    {
      "type": "Feature",
      "geometry": {
        "type": "Point",
        "coordinates": [
          33.418,
          47.874
        ]
      },
      "properties": {
        "title": "[FIRMS] thermal anomaly 47.874, 33.418 (FRP 1.14 MW, conf nominal)",
        "summary": "VIIRS S-NPP NRT, sat N, acquired 2026-06-08 2329Z, FRP 1.14 MW",
        "date": "2026-06-08",
        "severity": 3,
        "source": "firms"
      }
    },
    {
      "type": "Feature",
      "geometry": {
        "type": "Point",
        "coordinates": [
          33.434,
          47.872
        ]
      },
      "properties": {
        "title": "[FIRMS] thermal anomaly 47.872, 33.434 (FRP 1.52 MW, conf nominal)",
        "summary": "VIIRS S-NPP NRT, sat N, acquired 2026-06-08 2329Z, FRP 1.52 MW",
        "date": "2026-06-08",
        "severity": 3,
        "source": "firms"
      }
    },
    {
      "type": "Feature",
      "geometry": {
        "type": "Point",
        "coordinates": [
          33.434,
          47.868
        ]
      },
      "properties": {
        "title": "[FIRMS] thermal anomaly 47.868, 33.434 (FRP 1.52 MW, conf nominal)",
        "summary": "VIIRS S-NPP NRT, sat N, acquired 2026-06-08 2329Z, FRP 1.52 MW",
        "date": "2026-06-08",
        "severity": 3,
        "source": "firms"
      }
    },
    {
      "type": "Feature",
      "geometry": {
        "type": "Point",
        "coordinates": [
          33.385,
          47.843
        ]
      },
      "properties": {
        "title": "[FIRMS] thermal anomaly 47.843, 33.385 (FRP 1.19 MW, conf nominal)",
        "summary": "VIIRS S-NPP NRT, sat N, acquired 2026-06-08 2329Z, FRP 1.19 MW",
        "date": "2026-06-08",
        "severity": 3,
        "source": "firms"
      }
    },
    {
      "type": "Feature",
      "geometry": {
        "type": "Point",
        "coordinates": [
          33.664,
          47.737
        ]
      },
      "properties": {
        "title": "[FIRMS] thermal anomaly 47.737, 33.664 (FRP 0.7 MW, conf nominal)",
        "summary": "VIIRS S-NPP NRT, sat N, acquired 2026-06-08 2329Z, FRP 0.7 MW",
        "date": "2026-06-08",
        "severity": 3,
        "source": "firms"
      }
    },
    {
      "type": "Feature",
      "geometry": {
        "type": "Point",
        "coordinates": [
          33.669,
          47.736
        ]
      },
      "properties": {
        "title": "[FIRMS] thermal anomaly 47.736, 33.669 (FRP 0.7 MW, conf nominal)",
        "summary": "VIIRS S-NPP NRT, sat N, acquired 2026-06-08 2329Z, FRP 0.7 MW",
        "date": "2026-06-08",
        "severity": 3,
        "source": "firms"
      }
    },
    {
      "type": "Feature",
      "geometry": {
        "type": "Point",
        "coordinates": [
          31.756,
          47.172
        ]
      },
      "properties": {
        "title": "[FIRMS] thermal anomaly 47.172, 31.756 (FRP 1.09 MW, conf nominal)",
        "summary": "VIIRS S-NPP NRT, sat N, acquired 2026-06-08 2331Z, FRP 1.09 MW",
        "date": "2026-06-08",
        "severity": 3,
        "source": "firms"
      }
    },
    {
      "type": "Feature",
      "geometry": {
        "type": "Point",
        "coordinates": [
          32.701,
          46.682
        ]
      },
      "properties": {
        "title": "[FIRMS] thermal anomaly 46.682, 32.701 (FRP 2.05 MW, conf nominal)",
        "summary": "VIIRS S-NPP NRT, sat N, acquired 2026-06-08 2331Z, FRP 2.05 MW",
        "date": "2026-06-08",
        "severity": 3,
        "source": "firms"
      }
    },
    {
      "type": "Feature",
      "geometry": {
        "type": "Point",
        "coordinates": [
          32.744,
          46.678
        ]
      },
      "properties": {
        "title": "[FIRMS] thermal anomaly 46.678, 32.744 (FRP 0.82 MW, conf nominal)",
        "summary": "VIIRS S-NPP NRT, sat N, acquired 2026-06-08 2331Z, FRP 0.82 MW",
        "date": "2026-06-08",
        "severity": 3,
        "source": "firms"
      }
    },
    {
      "type": "Feature",
      "geometry": {
        "type": "Point",
        "coordinates": [
          32.719,
          46.604
        ]
      },
      "properties": {
        "title": "[FIRMS] thermal anomaly 46.604, 32.719 (FRP 0.37 MW, conf nominal)",
        "summary": "VIIRS S-NPP NRT, sat N, acquired 2026-06-08 2331Z, FRP 0.37 MW",
        "date": "2026-06-08",
        "severity": 3,
        "source": "firms"
      }
    },
    {
      "type": "Feature",
      "geometry": {
        "type": "Point",
        "coordinates": [
          32.719,
          46.604
        ]
      },
      "properties": {
        "title": "[FIRMS] thermal anomaly 46.604, 32.719 (FRP 0.37 MW, conf nominal)",
        "summary": "VIIRS S-NPP NRT, sat N, acquired 2026-06-08 2331Z, FRP 0.37 MW",
        "date": "2026-06-08",
        "severity": 3,
        "source": "firms"
      }
    },
    {
      "type": "Feature",
      "geometry": {
        "type": "Point",
        "coordinates": [
          32.643,
          46.556
        ]
      },
      "properties": {
        "title": "[FIRMS] thermal anomaly 46.556, 32.643 (FRP 0.43 MW, conf nominal)",
        "summary": "VIIRS S-NPP NRT, sat N, acquired 2026-06-08 2331Z, FRP 0.43 MW",
        "date": "2026-06-08",
        "severity": 3,
        "source": "firms"
      }
    },
    {
      "type": "Feature",
      "geometry": {
        "type": "Point",
        "coordinates": [
          32.648,
          46.555
        ]
      },
      "properties": {
        "title": "[FIRMS] thermal anomaly 46.555, 32.648 (FRP 0.43 MW, conf nominal)",
        "summary": "VIIRS S-NPP NRT, sat N, acquired 2026-06-08 2331Z, FRP 0.43 MW",
        "date": "2026-06-08",
        "severity": 3,
        "source": "firms"
      }
    },
    {
      "type": "Feature",
      "geometry": {
        "type": "Point",
        "coordinates": [
          26.029,
          46.9
        ]
      },
      "properties": {
        "title": "[FIRMS] thermal anomaly 46.900, 26.029 (FRP 0.5 MW, conf nominal)",
        "summary": "VIIRS S-NPP NRT, sat N, acquired 2026-06-08 2331Z, FRP 0.5 MW",
        "date": "2026-06-08",
        "severity": 3,
        "source": "firms"
      }
    },
    {
      "type": "Feature",
      "geometry": {
        "type": "Point",
        "coordinates": [
          25.28,
          45.951
        ]
      },
      "properties": {
        "title": "[FIRMS] thermal anomaly 45.951, 25.280 (FRP 1.13 MW, conf nominal)",
        "summary": "VIIRS S-NPP NRT, sat N, acquired 2026-06-08 2331Z, FRP 1.13 MW",
        "date": "2026-06-08",
        "severity": 3,
        "source": "firms"
      }
    },
    {
      "type": "Feature",
      "geometry": {
        "type": "Point",
        "coordinates": [
          22.867,
          45.956
        ]
      },
      "properties": {
        "title": "[FIRMS] thermal anomaly 45.956, 22.867 (FRP 0.59 MW, conf nominal)",
        "summary": "VIIRS S-NPP NRT, sat N, acquired 2026-06-08 2331Z, FRP 0.59 MW",
        "date": "2026-06-08",
        "severity": 3,
        "source": "firms"
      }
    },
    {
      "type": "Feature",
      "geometry": {
        "type": "Point",
        "coordinates": [
          30.924,
          45.376
        ]
      },
      "properties": {
        "title": "[FIRMS] thermal anomaly 45.376, 30.924 (FRP 0.99 MW, conf nominal)",
        "summary": "VIIRS S-NPP NRT, sat N, acquired 2026-06-08 2331Z, FRP 0.99 MW",
        "date": "2026-06-08",
        "severity": 3,
        "source": "firms"
      }
    },
    {
      "type": "Feature",
      "geometry": {
        "type": "Point",
        "coordinates": [
          30.931,
          45.375
        ]
      },
      "properties": {
        "title": "[FIRMS] thermal anomaly 45.375, 30.931 (FRP 0.99 MW, conf nominal)",
        "summary": "VIIRS S-NPP NRT, sat N, acquired 2026-06-08 2331Z, FRP 0.99 MW",
        "date": "2026-06-08",
        "severity": 3,
        "source": "firms"
      }
    },
    {
      "type": "Feature",
      "geometry": {
        "type": "Point",
        "coordinates": [
          30.902,
          45.355
        ]
      },
      "properties": {
        "title": "[FIRMS] thermal anomaly 45.355, 30.902 (FRP 3.66 MW, conf nominal)",
        "summary": "VIIRS S-NPP NRT, sat N, acquired 2026-06-08 2331Z, FRP 3.66 MW",
        "date": "2026-06-08",
        "severity": 3,
        "source": "firms"
      }
    },
    {
      "type": "Feature",
      "geometry": {
        "type": "Point",
        "coordinates": [
          31.673,
          45.262
        ]
      },
      "properties": {
        "title": "[FIRMS] thermal anomaly 45.262, 31.673 (FRP 3.45 MW, conf nominal)",
        "summary": "VIIRS S-NPP NRT, sat N, acquired 2026-06-08 2331Z, FRP 3.45 MW",
        "date": "2026-06-08",
        "severity": 3,
        "source": "firms"
      }
    },
    {
      "type": "Feature",
      "geometry": {
        "type": "Point",
        "coordinates": [
          31.673,
          45.257
        ]
      },
      "properties": {
        "title": "[FIRMS] thermal anomaly 45.257, 31.673 (FRP 3.45 MW, conf nominal)",
        "summary": "VIIRS S-NPP NRT, sat N, acquired 2026-06-08 2331Z, FRP 3.45 MW",
        "date": "2026-06-08",
        "severity": 3,
        "source": "firms"
      }
    },
    {
      "type": "Feature",
      "geometry": {
        "type": "Point",
        "coordinates": [
          34.041,
          52.187
        ]
      },
      "properties": {
        "title": "[FIRMS] thermal anomaly 52.187, 34.041 (FRP 1.54 MW, conf nominal)",
        "summary": "VIIRS S-NPP NRT, sat N, acquired 2026-06-09 0107Z, FRP 1.54 MW",
        "date": "2026-06-09",
        "severity": 3,
        "source": "firms"
      }
    },
    {
      "type": "Feature",
      "geometry": {
        "type": "Point",
        "coordinates": [
          33.992,
          52.128
        ]
      },
      "properties": {
        "title": "[FIRMS] thermal anomaly 52.128, 33.992 (FRP 0.5 MW, conf nominal)",
        "summary": "VIIRS S-NPP NRT, sat N, acquired 2026-06-09 0107Z, FRP 0.5 MW",
        "date": "2026-06-09",
        "severity": 3,
        "source": "firms"
      }
    },
    {
      "type": "Feature",
      "geometry": {
        "type": "Point",
        "coordinates": [
          33.992,
          52.128
        ]
      },
      "properties": {
        "title": "[FIRMS] thermal anomaly 52.128, 33.992 (FRP 0.44 MW, conf nominal)",
        "summary": "VIIRS S-NPP NRT, sat N, acquired 2026-06-09 0107Z, FRP 0.44 MW",
        "date": "2026-06-09",
        "severity": 3,
        "source": "firms"
      }
    },
    {
      "type": "Feature",
      "geometry": {
        "type": "Point",
        "coordinates": [
          34.249,
          51.668
        ]
      },
      "properties": {
        "title": "[FIRMS] thermal anomaly 51.668, 34.249 (FRP 0.42 MW, conf nominal)",
        "summary": "VIIRS S-NPP NRT, sat N, acquired 2026-06-09 0107Z, FRP 0.42 MW",
        "date": "2026-06-09",
        "severity": 3,
        "source": "firms"
      }
    },
    {
      "type": "Feature",
      "geometry": {
        "type": "Point",
        "coordinates": [
          29.99,
          52.848
        ]
      },
      "properties": {
        "title": "[FIRMS] thermal anomaly 52.848, 29.990 (FRP 0.66 MW, conf nominal)",
        "summary": "VIIRS S-NPP NRT, sat N, acquired 2026-06-09 0107Z, FRP 0.66 MW",
        "date": "2026-06-09",
        "severity": 3,
        "source": "firms"
      }
    },
    {
      "type": "Feature",
      "geometry": {
        "type": "Point",
        "coordinates": [
          34.92,
          51.076
        ]
      },
      "properties": {
        "title": "[FIRMS] thermal anomaly 51.076, 34.920 (FRP 0.58 MW, conf nominal)",
        "summary": "VIIRS S-NPP NRT, sat N, acquired 2026-06-09 0107Z, FRP 0.58 MW",
        "date": "2026-06-09",
        "severity": 3,
        "source": "firms"
      }
    },
    {
      "type": "Feature",
      "geometry": {
        "type": "Point",
        "coordinates": [
          34.627,
          48.473
        ]
      },
      "properties": {
        "title": "[FIRMS] thermal anomaly 48.473, 34.627 (FRP 0.69 MW, conf nominal)",
        "summary": "VIIRS S-NPP NRT, sat N, acquired 2026-06-09 0107Z, FRP 0.69 MW",
        "date": "2026-06-09",
        "severity": 3,
        "source": "firms"
      }
    },
    {
      "type": "Feature",
      "geometry": {
        "type": "Point",
        "coordinates": [
          24.708,
          48.977
        ]
      },
      "properties": {
        "title": "[FIRMS] thermal anomaly 48.977, 24.708 (FRP 1.22 MW, conf nominal)",
        "summary": "VIIRS S-NPP NRT, sat N, acquired 2026-06-09 0109Z, FRP 1.22 MW",
        "date": "2026-06-09",
        "severity": 3,
        "source": "firms"
      }
    },
    {
      "type": "Feature",
      "geometry": {
        "type": "Point",
        "coordinates": [
          32.69,
          46.685
        ]
      },
      "properties": {
        "title": "[FIRMS] thermal anomaly 46.685, 32.690 (FRP 0.76 MW, conf nominal)",
        "summary": "VIIRS S-NPP NRT, sat N, acquired 2026-06-09 0109Z, FRP 0.76 MW",
        "date": "2026-06-09",
        "severity": 3,
        "source": "firms"
      }
    },
    {
      "type": "Feature",
      "geometry": {
        "type": "Point",
        "coordinates": [
          29.018,
          47.787
        ]
      },
      "properties": {
        "title": "[FIRMS] thermal anomaly 47.787, 29.018 (FRP 0.64 MW, conf nominal)",
        "summary": "VIIRS S-NPP NRT, sat N, acquired 2026-06-09 0109Z, FRP 0.64 MW",
        "date": "2026-06-09",
        "severity": 3,
        "source": "firms"
      }
    },
    {
      "type": "Feature",
      "geometry": {
        "type": "Point",
        "coordinates": [
          31.675,
          45.261
        ]
      },
      "properties": {
        "title": "[FIRMS] thermal anomaly 45.261, 31.675 (FRP 2.93 MW, conf nominal)",
        "summary": "VIIRS S-NPP NRT, sat N, acquired 2026-06-09 0109Z, FRP 2.93 MW",
        "date": "2026-06-09",
        "severity": 3,
        "source": "firms"
      }
    },
    {
      "type": "Feature",
      "geometry": {
        "type": "Point",
        "coordinates": [
          31.669,
          45.263
        ]
      },
      "properties": {
        "title": "[FIRMS] thermal anomaly 45.263, 31.669 (FRP 5.71 MW, conf nominal)",
        "summary": "VIIRS S-NPP NRT, sat N, acquired 2026-06-09 0109Z, FRP 5.71 MW",
        "date": "2026-06-09",
        "severity": 3,
        "source": "firms"
      }
    },
    {
      "type": "Feature",
      "geometry": {
        "type": "Point",
        "coordinates": [
          31.672,
          45.256
        ]
      },
      "properties": {
        "title": "[FIRMS] thermal anomaly 45.256, 31.672 (FRP 2.93 MW, conf nominal)",
        "summary": "VIIRS S-NPP NRT, sat N, acquired 2026-06-09 0109Z, FRP 2.93 MW",
        "date": "2026-06-09",
        "severity": 3,
        "source": "firms"
      }
    },
    {
      "type": "Feature",
      "geometry": {
        "type": "Point",
        "coordinates": [
          31.673,
          45.256
        ]
      },
      "properties": {
        "title": "[FIRMS] thermal anomaly 45.256, 31.673 (FRP 2.64 MW, conf nominal)",
        "summary": "VIIRS S-NPP NRT, sat N, acquired 2026-06-09 0109Z, FRP 2.64 MW",
        "date": "2026-06-09",
        "severity": 3,
        "source": "firms"
      }
    },
    {
      "type": "Feature",
      "geometry": {
        "type": "Point",
        "coordinates": [
          31.667,
          45.258
        ]
      },
      "properties": {
        "title": "[FIRMS] thermal anomaly 45.258, 31.667 (FRP 2.64 MW, conf nominal)",
        "summary": "VIIRS S-NPP NRT, sat N, acquired 2026-06-09 0109Z, FRP 2.64 MW",
        "date": "2026-06-09",
        "severity": 3,
        "source": "firms"
      }
    },
    {
      "type": "Feature",
      "geometry": {
        "type": "Point",
        "coordinates": [
          30.903,
          45.36
        ]
      },
      "properties": {
        "title": "[FIRMS] thermal anomaly 45.360, 30.903 (FRP 1.03 MW, conf nominal)",
        "summary": "VIIRS S-NPP NRT, sat N, acquired 2026-06-09 0109Z, FRP 1.03 MW",
        "date": "2026-06-09",
        "severity": 3,
        "source": "firms"
      }
    },
    {
      "type": "Feature",
      "geometry": {
        "type": "Point",
        "coordinates": [
          30.899,
          45.354
        ]
      },
      "properties": {
        "title": "[FIRMS] thermal anomaly 45.354, 30.899 (FRP 1.03 MW, conf nominal)",
        "summary": "VIIRS S-NPP NRT, sat N, acquired 2026-06-09 0109Z, FRP 1.03 MW",
        "date": "2026-06-09",
        "severity": 3,
        "source": "firms"
      }
    },
    {
      "type": "Feature",
      "geometry": {
        "type": "Point",
        "coordinates": [
          25.283,
          45.952
        ]
      },
      "properties": {
        "title": "[FIRMS] thermal anomaly 45.952, 25.283 (FRP 1.33 MW, conf nominal)",
        "summary": "VIIRS S-NPP NRT, sat N, acquired 2026-06-09 0109Z, FRP 1.33 MW",
        "date": "2026-06-09",
        "severity": 3,
        "source": "firms"
      }
    },
    {
      "type": "Feature",
      "geometry": {
        "type": "Point",
        "coordinates": [
          25.284,
          45.953
        ]
      },
      "properties": {
        "title": "[FIRMS] thermal anomaly 45.953, 25.284 (FRP 1.59 MW, conf nominal)",
        "summary": "VIIRS S-NPP NRT, sat N, acquired 2026-06-09 0109Z, FRP 1.59 MW",
        "date": "2026-06-09",
        "severity": 3,
        "source": "firms"
      }
    },
    {
      "type": "Feature",
      "geometry": {
        "type": "Point",
        "coordinates": [
          22.866,
          45.957
        ]
      },
      "properties": {
        "title": "[FIRMS] thermal anomaly 45.957, 22.866 (FRP 0.86 MW, conf nominal)",
        "summary": "VIIRS S-NPP NRT, sat N, acquired 2026-06-09 0109Z, FRP 0.86 MW",
        "date": "2026-06-09",
        "severity": 3,
        "source": "firms"
      }
    },
    {
      "type": "Feature",
      "geometry": {
        "type": "Point",
        "coordinates": [
          25.413,
          45.124
        ]
      },
      "properties": {
        "title": "[FIRMS] thermal anomaly 45.124, 25.413 (FRP 1.05 MW, conf nominal)",
        "summary": "VIIRS S-NPP NRT, sat N, acquired 2026-06-09 0109Z, FRP 1.05 MW",
        "date": "2026-06-09",
        "severity": 3,
        "source": "firms"
      }
    },
    {
      "type": "Feature",
      "geometry": {
        "type": "Point",
        "coordinates": [
          25.42,
          45.122
        ]
      },
      "properties": {
        "title": "[FIRMS] thermal anomaly 45.122, 25.420 (FRP 1.05 MW, conf nominal)",
        "summary": "VIIRS S-NPP NRT, sat N, acquired 2026-06-09 0109Z, FRP 1.05 MW",
        "date": "2026-06-09",
        "severity": 3,
        "source": "firms"
      }
    },
    {
      "type": "Feature",
      "geometry": {
        "type": "Point",
        "coordinates": [
          25.414,
          45.123
        ]
      },
      "properties": {
        "title": "[FIRMS] thermal anomaly 45.123, 25.414 (FRP 1.44 MW, conf nominal)",
        "summary": "VIIRS S-NPP NRT, sat N, acquired 2026-06-09 0109Z, FRP 1.44 MW",
        "date": "2026-06-09",
        "severity": 3,
        "source": "firms"
      }
    },
    {
      "type": "Feature",
      "geometry": {
        "type": "Point",
        "coordinates": [
          22.585,
          44.192
        ]
      },
      "properties": {
        "title": "[FIRMS] thermal anomaly 44.192, 22.585 (FRP 0.53 MW, conf nominal)",
        "summary": "VIIRS S-NPP NRT, sat N, acquired 2026-06-09 0109Z, FRP 0.53 MW",
        "date": "2026-06-09",
        "severity": 3,
        "source": "firms"
      }
    },
    {
      "type": "Feature",
      "geometry": {
        "type": "Point",
        "coordinates": [
          22.102,
          44.081
        ]
      },
      "properties": {
        "title": "[FIRMS] thermal anomaly 44.081, 22.102 (FRP 0.92 MW, conf nominal)",
        "summary": "VIIRS S-NPP NRT, sat N, acquired 2026-06-09 0109Z, FRP 0.92 MW",
        "date": "2026-06-09",
        "severity": 3,
        "source": "firms"
      }
    },
    {
      "type": "Feature",
      "geometry": {
        "type": "Point",
        "coordinates": [
          58.0,
          22.5
        ]
      },
      "properties": {
        "title": "US strike on tanker off Oman - Gulf of Oman",
        "summary": "US military struck a tanker off Oman. All 24 Indian crew rescued.",
        "date": "2026-06-09",
        "severity": 7,
        "source": "acled"
      }
    },
    {
      "type": "Feature",
      "geometry": {
        "type": "Point",
        "coordinates": [
          35.2,
          33.3
        ]
      },
      "properties": {
        "title": "Israeli strikes on south Lebanon - 14 killed",
        "summary": "Israeli strikes on Tyre area killed 14 as attacks persist despite Iranian threat.",
        "date": "2026-06-09",
        "severity": 8,
        "source": "acled"
      }
    },
    {
      "type": "Feature",
      "geometry": {
        "type": "Point",
        "coordinates": [
          35.2,
          31.8
        ]
      },
      "properties": {
        "title": "Israel-Iran flare-up: mutual strikes resumed",
        "summary": "First exchange since ceasefire 2 months ago. Iran emboldened by outcome.",
        "date": "2026-06-08",
        "severity": 9,
        "source": "acled"
      }
    },
    {
      "type": "Feature",
      "geometry": {
        "type": "Point",
        "coordinates": [
          -85.15,
          22.79
        ]
      },
      "properties": {
        "title": "M6.1 earthquake - 104 km WNW of Mantua, Cuba",
        "summary": "M6.1 at depth 26km.",
        "date": "2026-06-08",
        "severity": 5,
        "source": "usgs"
      }
    }
  ]
}