{
  "type": "FeatureCollection",
  "features": [
    {
      "type": "Feature",
      "geometry": {
        "type": "Point",
        "coordinates": [
          34.224,
          51.985
        ]
      },
      "properties": {
        "title": "FIRMS thermal anomaly (51.98N, 34.22E)",
        "summary": "FRP 3.62 MW - Ukraine theater VIIRS",
        "date": "2026-05-31",
        "severity": 5,
        "source": "firms"
      }
    },
    {
      "type": "Feature",
      "geometry": {
        "type": "Point",
        "coordinates": [
          34.221,
          51.981
        ]
      },
      "properties": {
        "title": "FIRMS thermal anomaly (51.98N, 34.22E)",
        "summary": "FRP 3.62 MW - Ukraine theater VIIRS",
        "date": "2026-05-31",
        "severity": 5,
        "source": "firms"
      }
    },
    {
      "type": "Feature",
      "geometry": {
        "type": "Point",
        "coordinates": [
          34.788,
          51.018
        ]
      },
      "properties": {
        "title": "FIRMS thermal anomaly (51.02N, 34.79E)",
        "summary": "FRP 0.81 MW - Ukraine theater VIIRS",
        "date": "2026-05-31",
        "severity": 1,
        "source": "firms"
      }
    },
    {
      "type": "Feature",
      "geometry": {
        "type": "Point",
        "coordinates": [
          34.51,
          50.306
        ]
      },
      "properties": {
        "title": "FIRMS thermal anomaly (50.31N, 34.51E)",
        "summary": "FRP 0.39 MW - Ukraine theater VIIRS",
        "date": "2026-05-31",
        "severity": 1,
        "source": "firms"
      }
    },
    {
      "type": "Feature",
      "geometry": {
        "type": "Point",
        "coordinates": [
          33.951,
          50.421
        ]
      },
      "properties": {
        "title": "FIRMS thermal anomaly (50.42N, 33.95E)",
        "summary": "FRP 2.22 MW - Ukraine theater VIIRS",
        "date": "2026-05-31",
        "severity": 3,
        "source": "firms"
      }
    },
    {
      "type": "Feature",
      "geometry": {
        "type": "Point",
        "coordinates": [
          25.143,
          51.683
        ]
      },
      "properties": {
        "title": "FIRMS thermal anomaly (51.68N, 25.14E)",
        "summary": "FRP 2.23 MW - Ukraine theater VIIRS",
        "date": "2026-05-31",
        "severity": 3,
        "source": "firms"
      }
    },
    {
      "type": "Feature",
      "geometry": {
        "type": "Point",
        "coordinates": [
          34.633,
          48.519
        ]
      },
      "properties": {
        "title": "FIRMS thermal anomaly (48.52N, 34.63E)",
        "summary": "FRP 0.66 MW - Ukraine theater VIIRS",
        "date": "2026-05-31",
        "severity": 1,
        "source": "firms"
      }
    },
    {
      "type": "Feature",
      "geometry": {
        "type": "Point",
        "coordinates": [
          33.422,
          47.874
        ]
      },
      "properties": {
        "title": "FIRMS thermal anomaly (47.87N, 33.42E)",
        "summary": "FRP 3.18 MW - Ukraine theater VIIRS",
        "date": "2026-05-31",
        "severity": 4,
        "source": "firms"
      }
    },
    {
      "type": "Feature",
      "geometry": {
        "type": "Point",
        "coordinates": [
          33.415,
          47.875
        ]
      },
      "properties": {
        "title": "FIRMS thermal anomaly (47.88N, 33.41E)",
        "summary": "FRP 2.14 MW - Ukraine theater VIIRS",
        "date": "2026-05-31",
        "severity": 3,
        "source": "firms"
      }
    },
    {
      "type": "Feature",
      "geometry": {
        "type": "Point",
        "coordinates": [
          33.385,
          47.845
        ]
      },
      "properties": {
        "title": "FIRMS thermal anomaly (47.84N, 33.38E)",
        "summary": "FRP 0.8 MW - Ukraine theater VIIRS",
        "date": "2026-05-31",
        "severity": 1,
        "source": "firms"
      }
    },
    {
      "type": "Feature",
      "geometry": {
        "type": "Point",
        "coordinates": [
          33.383,
          47.841
        ]
      },
      "properties": {
        "title": "FIRMS thermal anomaly (47.84N, 33.38E)",
        "summary": "FRP 1.9 MW - Ukraine theater VIIRS",
        "date": "2026-05-31",
        "severity": 2,
        "source": "firms"
      }
    },
    {
      "type": "Feature",
      "geometry": {
        "type": "Point",
        "coordinates": [
          26.604,
          48.746
        ]
      },
      "properties": {
        "title": "FIRMS thermal anomaly (48.75N, 26.60E)",
        "summary": "FRP 1.13 MW - Ukraine theater VIIRS",
        "date": "2026-05-31",
        "severity": 1,
        "source": "firms"
      }
    },
    {
      "type": "Feature",
      "geometry": {
        "type": "Point",
        "coordinates": [
          26.459,
          48.516
        ]
      },
      "properties": {
        "title": "FIRMS thermal anomaly (48.52N, 26.46E)",
        "summary": "FRP 0.49 MW - Ukraine theater VIIRS",
        "date": "2026-05-31",
        "severity": 1,
        "source": "firms"
      }
    },
    {
      "type": "Feature",
      "geometry": {
        "type": "Point",
        "coordinates": [
          33.43,
          46.839
        ]
      },
      "properties": {
        "title": "FIRMS thermal anomaly (46.84N, 33.43E)",
        "summary": "FRP 3.18 MW - Ukraine theater VIIRS",
        "date": "2026-05-31",
        "severity": 4,
        "source": "firms"
      }
    },
    {
      "type": "Feature",
      "geometry": {
        "type": "Point",
        "coordinates": [
          33.437,
          46.838
        ]
      },
      "properties": {
        "title": "FIRMS thermal anomaly (46.84N, 33.44E)",
        "summary": "FRP 2.44 MW - Ukraine theater VIIRS",
        "date": "2026-05-31",
        "severity": 3,
        "source": "firms"
      }
    },
    {
      "type": "Feature",
      "geometry": {
        "type": "Point",
        "coordinates": [
          33.857,
          44.772
        ]
      },
      "properties": {
        "title": "FIRMS thermal anomaly (44.77N, 33.86E)",
        "summary": "FRP 1.24 MW - Ukraine theater VIIRS",
        "date": "2026-05-31",
        "severity": 1,
        "source": "firms"
      }
    },
    {
      "type": "Feature",
      "geometry": {
        "type": "Point",
        "coordinates": [
          31.67,
          45.259
        ]
      },
      "properties": {
        "title": "FIRMS thermal anomaly (45.26N, 31.67E)",
        "summary": "FRP 7.16 MW - Ukraine theater VIIRS",
        "date": "2026-05-31",
        "severity": 10,
        "source": "firms"
      }
    },
    {
      "type": "Feature",
      "geometry": {
        "type": "Point",
        "coordinates": [
          31.676,
          45.258
        ]
      },
      "properties": {
        "title": "FIRMS thermal anomaly (45.26N, 31.68E)",
        "summary": "FRP 4.35 MW - Ukraine theater VIIRS",
        "date": "2026-05-31",
        "severity": 6,
        "source": "firms"
      }
    },
    {
      "type": "Feature",
      "geometry": {
        "type": "Point",
        "coordinates": [
          30.929,
          45.375
        ]
      },
      "properties": {
        "title": "FIRMS thermal anomaly (45.38N, 30.93E)",
        "summary": "FRP 1.58 MW - Ukraine theater VIIRS",
        "date": "2026-05-31",
        "severity": 2,
        "source": "firms"
      }
    },
    {
      "type": "Feature",
      "geometry": {
        "type": "Point",
        "coordinates": [
          30.901,
          45.354
        ]
      },
      "properties": {
        "title": "FIRMS thermal anomaly (45.35N, 30.90E)",
        "summary": "FRP 2.35 MW - Ukraine theater VIIRS",
        "date": "2026-05-31",
        "severity": 3,
        "source": "firms"
      }
    },
    {
      "type": "Feature",
      "geometry": {
        "type": "Point",
        "coordinates": [
          34.889,
          50.052
        ]
      },
      "properties": {
        "title": "FIRMS thermal anomaly (50.05N, 34.89E)",
        "summary": "FRP 2.7 MW - Ukraine theater VIIRS",
        "date": "2026-05-31",
        "severity": 4,
        "source": "firms"
      }
    },
    {
      "type": "Feature",
      "geometry": {
        "type": "Point",
        "coordinates": [
          34.366,
          52.337
        ]
      },
      "properties": {
        "title": "FIRMS thermal anomaly (52.34N, 34.37E)",
        "summary": "FRP 3.0 MW - Ukraine theater VIIRS",
        "date": "2026-05-31",
        "severity": 4,
        "source": "firms"
      }
    },
    {
      "type": "Feature",
      "geometry": {
        "type": "Point",
        "coordinates": [
          33.032,
          52.284
        ]
      },
      "properties": {
        "title": "FIRMS thermal anomaly (52.28N, 33.03E)",
        "summary": "FRP 1.15 MW - Ukraine theater VIIRS",
        "date": "2026-05-31",
        "severity": 1,
        "source": "firms"
      }
    },
    {
      "type": "Feature",
      "geometry": {
        "type": "Point",
        "coordinates": [
          34.04,
          52.193
        ]
      },
      "properties": {
        "title": "FIRMS thermal anomaly (52.19N, 34.04E)",
        "summary": "FRP 2.66 MW - Ukraine theater VIIRS",
        "date": "2026-05-31",
        "severity": 3,
        "source": "firms"
      }
    },
    {
      "type": "Feature",
      "geometry": {
        "type": "Point",
        "coordinates": [
          34.759,
          50.181
        ]
      },
      "properties": {
        "title": "FIRMS thermal anomaly (50.18N, 34.76E)",
        "summary": "FRP 1.02 MW - Ukraine theater VIIRS",
        "date": "2026-05-31",
        "severity": 1,
        "source": "firms"
      }
    },
    {
      "type": "Feature",
      "geometry": {
        "type": "Point",
        "coordinates": [
          56.5,
          26.5
        ]
      },
      "properties": {
        "title": "Strait of Hormuz: 5% normal traffic",
        "summary": "Iran controlling Hormuz passage, charging $1M+ tolls. Ceasefire MOU under negotiation.",
        "date": "2026-06-01",
        "severity": 9,
        "source": "gdacs"
      }
    },
    {
      "type": "Feature",
      "geometry": {
        "type": "Point",
        "coordinates": [
          -74.1,
          4.7
        ]
      },
      "properties": {
        "title": "Colombia presidential first round",
        "summary": "De la Espriella 43.7% vs Cepeda 40.93%. Runoff June 21.",
        "date": "2026-05-31",
        "severity": 5,
        "source": "acled"
      }
    },
    {
      "type": "Feature",
      "geometry": {
        "type": "Point",
        "coordinates": [
          121.0,
          25.5
        ]
      },
      "properties": {
        "title": "China joint combat readiness patrol near Taiwan",
        "summary": "Second PLA combat readiness patrol in one week near Taiwan ADIZ.",
        "date": "2026-05-31",
        "severity": 7,
        "source": "acled"
      }
    },
    {
      "type": "Feature",
      "geometry": {
        "type": "Point",
        "coordinates": [
          37.8,
          48.0
        ]
      },
      "properties": {
        "title": "Ukraine strikes Russian training center (Snizhne)",
        "summary": "Ukraine struck drone pilot training center, 65 Russian servicemen killed.",
        "date": "2026-05-31",
        "severity": 6,
        "source": "acled"
      }
    }
  ]
}