{
  "type": "FeatureCollection",
  "features": [
    {
      "type": "Feature",
      "geometry": {
        "type": "Point",
        "coordinates": [
          29.993,
          52.848
        ]
      },
      "properties": {
        "title": "FIRMS Thermal: FRP 5.0 MW",
        "summary": "Satellite thermal anomaly in Ukraine war zone, FRP 5.0 MW",
        "date": "2026-08-13",
        "severity": 10,
        "source": "firms"
      }
    },
    {
      "type": "Feature",
      "geometry": {
        "type": "Point",
        "coordinates": [
          30.617,
          51.475
        ]
      },
      "properties": {
        "title": "FIRMS Thermal: FRP 2.5 MW",
        "summary": "Satellite thermal anomaly in Ukraine war zone, FRP 2.5 MW",
        "date": "2026-08-13",
        "severity": 5,
        "source": "firms"
      }
    },
    {
      "type": "Feature",
      "geometry": {
        "type": "Point",
        "coordinates": [
          32.726,
          47.936
        ]
      },
      "properties": {
        "title": "FIRMS Thermal: FRP 2.5 MW",
        "summary": "Satellite thermal anomaly in Ukraine war zone, FRP 2.5 MW",
        "date": "2026-08-13",
        "severity": 5,
        "source": "firms"
      }
    },
    {
      "type": "Feature",
      "geometry": {
        "type": "Point",
        "coordinates": [
          33.5,
          46.5
        ]
      },
      "properties": {
        "title": "Ukraine: Russian strike on passenger train",
        "summary": "Ukraine: Russian strike on passenger train",
        "date": "2026-08-14",
        "severity": 7,
        "source": "acled"
      }
    },
    {
      "type": "Feature",
      "geometry": {
        "type": "Point",
        "coordinates": [
          25.0,
          57.0
        ]
      },
      "properties": {
        "title": "Latvia: NATO jets down drone",
        "summary": "Latvia: NATO jets down drone",
        "date": "2026-08-14",
        "severity": 6,
        "source": "acled"
      }
    },
    {
      "type": "Feature",
      "geometry": {
        "type": "Point",
        "coordinates": [
          28.5,
          59.6
        ]
      },
      "properties": {
        "title": "Ukraine: Ust-Luga port fire after drone strike (Russia)",
        "summary": "Ukraine: Ust-Luga port fire after drone strike (Russia)",
        "date": "2026-08-14",
        "severity": 8,
        "source": "firms"
      }
    },
    {
      "type": "Feature",
      "geometry": {
        "type": "Point",
        "coordinates": [
          -77.0,
          2.0
        ]
      },
      "properties": {
        "title": "Colombia: Earthquake rescue operations",
        "summary": "Colombia: Earthquake rescue operations",
        "date": "2026-08-14",
        "severity": 7,
        "source": "usgs"
      }
    },
    {
      "type": "Feature",
      "geometry": {
        "type": "Point",
        "coordinates": [
          -1.0,
          44.0
        ]
      },
      "properties": {
        "title": "France: Wildfire evacuation, Landes region",
        "summary": "France: Wildfire evacuation, Landes region",
        "date": "2026-08-14",
        "severity": 5,
        "source": "gdacs"
      }
    },
    {
      "type": "Feature",
      "geometry": {
        "type": "Point",
        "coordinates": [
          34.3,
          11.4
        ]
      },
      "properties": {
        "title": "Sudan: SAF recaptures Kurmuk from RSF",
        "summary": "Sudan: SAF recaptures Kurmuk from RSF",
        "date": "2026-08-14",
        "severity": 6,
        "source": "acled"
      }
    },
    {
      "type": "Feature",
      "geometry": {
        "type": "Point",
        "coordinates": [
          35.4,
          32.2
        ]
      },
      "properties": {
        "title": "West Bank: Israeli settler escalation near Qusra",
        "summary": "West Bank: Israeli settler escalation near Qusra",
        "date": "2026-08-14",
        "severity": 6,
        "source": "acled"
      }
    },
    {
      "type": "Feature",
      "geometry": {
        "type": "Point",
        "coordinates": [
          35.5,
          33.3
        ]
      },
      "properties": {
        "title": "Lebanon: IDF operations in South Governorate",
        "summary": "Lebanon: IDF operations in South Governorate",
        "date": "2026-08-14",
        "severity": 7,
        "source": "acled"
      }
    },
    {
      "type": "Feature",
      "geometry": {
        "type": "Point",
        "coordinates": [
          135.0,
          34.0
        ]
      },
      "properties": {
        "title": "Japan: Unprecedented rainfall kills 6",
        "summary": "Japan: Unprecedented rainfall kills 6",
        "date": "2026-08-14",
        "severity": 5,
        "source": "gdacs"
      }
    }
  ]
}