{
  "type": "FeatureCollection",
  "features": [
    {
      "type": "Feature",
      "geometry": {
        "type": "Point",
        "coordinates": [
          135.0,
          33.0
        ]
      },
      "properties": {
        "title": "Tropical Cyclone CHAN-HOM-26",
        "summary": "TS winds 93 km/h, Japan/Russia affected",
        "date": "2026-08-07",
        "severity": 3,
        "source": "gdacs"
      }
    },
    {
      "type": "Feature",
      "geometry": {
        "type": "Point",
        "coordinates": [
          67.0,
          48.0
        ]
      },
      "properties": {
        "title": "Forest fire Kazakhstan",
        "summary": "Forest fire active",
        "date": "2026-08-06",
        "severity": 2,
        "source": "gdacs"
      }
    },
    {
      "type": "Feature",
      "geometry": {
        "type": "Point",
        "coordinates": [
          -178.0,
          -30.0
        ]
      },
      "properties": {
        "title": "Earthquake M6.3 Kermadec Islands",
        "summary": "M6.3, depth 226km, green alert",
        "date": "2026-08-05",
        "severity": 3,
        "source": "gdacs"
      }
    },
    {
      "type": "Feature",
      "geometry": {
        "type": "Point",
        "coordinates": [
          122.0,
          11.5
        ]
      },
      "properties": {
        "title": "Earthquake M6.3 Philippines",
        "summary": "M6.3, depth 10km, Orange alert, 10k in MMI>=VII",
        "date": "2026-08-05",
        "severity": 6,
        "source": "gdacs"
      }
    },
    {
      "type": "Feature",
      "geometry": {
        "type": "Point",
        "coordinates": [
          -90.88,
          14.47
        ]
      },
      "properties": {
        "title": "Fuego Volcano Guatemala",
        "summary": "Ongoing volcanic eruption, ash clouds",
        "date": "2026-08-07",
        "severity": 4,
        "source": "gdacs"
      }
    },
    {
      "type": "Feature",
      "geometry": {
        "type": "Point",
        "coordinates": [
          149.0,
          -35.0
        ]
      },
      "properties": {
        "title": "Forest fires Australia",
        "summary": "Multiple fire locations active",
        "date": "2026-08-05",
        "severity": 2,
        "source": "gdacs"
      }
    },
    {
      "type": "Feature",
      "geometry": {
        "type": "Point",
        "coordinates": [
          111.0,
          30.0
        ]
      },
      "properties": {
        "title": "Floods China - Red Alert",
        "summary": "Red alert flood event",
        "date": "2026-07-25",
        "severity": 8,
        "source": "gdacs"
      }
    },
    {
      "type": "Feature",
      "geometry": {
        "type": "Point",
        "coordinates": [
          56.5,
          26.5
        ]
      },
      "properties": {
        "title": "Hormuz incident - tanker struck",
        "summary": "Crew abandoned ship, 1 sailor missing after strike in Strait of Hormuz",
        "date": "2026-08-06",
        "severity": 7,
        "source": "acled"
      }
    },
    {
      "type": "Feature",
      "geometry": {
        "type": "Point",
        "coordinates": [
          60.6,
          56.8
        ]
      },
      "properties": {
        "title": "Ukrainian drone strikes Ekaterinburg Wildberries warehouse",
        "summary": "Fire after drone strike 2000km from Ukraine border",
        "date": "2026-08-07",
        "severity": 5,
        "source": "acled"
      }
    },
    {
      "type": "Feature",
      "geometry": {
        "type": "Point",
        "coordinates": [
          34.1,
          44.9
        ]
      },
      "properties": {
        "title": "Ukraine GUR destroys Pantsir-S1 in Crimea",
        "summary": "Group 13 operation, $15M air defense system destroyed",
        "date": "2026-08-07",
        "severity": 5,
        "source": "acled"
      }
    },
    {
      "type": "Feature",
      "geometry": {
        "type": "Point",
        "coordinates": [
          34.8,
          51.0
        ]
      },
      "properties": {
        "title": "Russian drone attack on Sumy market",
        "summary": "10 wounded including 2 critical, market strike",
        "date": "2026-08-07",
        "severity": 6,
        "source": "acled"
      }
    },
    {
      "type": "Feature",
      "geometry": {
        "type": "Point",
        "coordinates": [
          35.4,
          33.2
        ]
      },
      "properties": {
        "title": "Israel airstrikes Mansouri Lebanon",
        "summary": "Israeli strikes South Lebanon Governorate",
        "date": "2026-08-04",
        "severity": 5,
        "source": "acled"
      }
    },
    {
      "type": "Feature",
      "geometry": {
        "type": "Point",
        "coordinates": [
          -74.0,
          4.7
        ]
      },
      "properties": {
        "title": "Colombia ELN return to war",
        "summary": "ELN guerrilla group prepares to resume full armed conflict",
        "date": "2026-08-07",
        "severity": 6,
        "source": "acled"
      }
    },
    {
      "type": "Feature",
      "geometry": {
        "type": "Point",
        "coordinates": [
          8.0,
          10.0
        ]
      },
      "properties": {
        "title": "Nigeria hostage rescue - 300+ freed",
        "summary": "Largest single-day hostage recovery by Nigerian security forces",
        "date": "2026-08-06",
        "severity": 5,
        "source": "acled"
      }
    },
    {
      "type": "Feature",
      "geometry": {
        "type": "Point",
        "coordinates": [
          100.5,
          13.85
        ]
      },
      "properties": {
        "title": "Thailand school shooting Nonthaburi",
        "summary": "7 killed including suspect, 15 injured at Debsirin school",
        "date": "2026-08-07",
        "severity": 6,
        "source": "acled"
      }
    },
    {
      "type": "Feature",
      "geometry": {
        "type": "Point",
        "coordinates": [
          25.0,
          -4.0
        ]
      },
      "properties": {
        "title": "DRC Ebola mutation concern",
        "summary": "Ebola virus may be mutating during massive DRC outbreak",
        "date": "2026-08-06",
        "severity": 7,
        "source": "acled"
      }
    },
    {
      "type": "Feature",
      "geometry": {
        "type": "Point",
        "coordinates": [
          -118.7,
          35.4
        ]
      },
      "properties": {
        "title": "Wildfire BUZZARD Kern California",
        "summary": "Active wildfire, Kern County CA",
        "date": "2026-08-07",
        "severity": 4,
        "source": "firms"
      }
    },
    {
      "type": "Feature",
      "geometry": {
        "type": "Point",
        "coordinates": [
          -121.7,
          42.4
        ]
      },
      "properties": {
        "title": "Wildfire Wrights Spring Klamath Oregon",
        "summary": "Active wildfire Klamath County OR",
        "date": "2026-08-07",
        "severity": 3,
        "source": "firms"
      }
    },
    {
      "type": "Feature",
      "geometry": {
        "type": "Point",
        "coordinates": [
          -109.8,
          42.8
        ]
      },
      "properties": {
        "title": "Wildfire Bare Sublette Wyoming",
        "summary": "Active wildfire Sublette County WY",
        "date": "2026-08-07",
        "severity": 3,
        "source": "firms"
      }
    }
  ]
}