{
  "type": "FeatureCollection",
  "features": [
    {
      "type": "Feature",
      "geometry": {
        "type": "Point",
        "coordinates": [
          -66.2,
          10.5
        ]
      },
      "properties": {
        "title": "M7.5 Venezuela Earthquake",
        "summary": "Twin M7.5+M7.2 earthquakes June 24. 920+ killed, 50,000 missing. La Guaira hardest hit. GDACS Red.",
        "date": "2026-06-24",
        "severity": 9,
        "source": "usgs"
      }
    },
    {
      "type": "Feature",
      "geometry": {
        "type": "Point",
        "coordinates": [
          -66.5,
          10.3
        ]
      },
      "properties": {
        "title": "M7.2 Venezuela Earthquake",
        "summary": "Second major quake in twin sequence. Caracas, Carabobo, Miranda affected. Airport closed.",
        "date": "2026-06-24",
        "severity": 8,
        "source": "gdacs"
      }
    },
    {
      "type": "Feature",
      "geometry": {
        "type": "Point",
        "coordinates": [
          125.5,
          5.4
        ]
      },
      "properties": {
        "title": "M6.5 Philippines (Sarangani)",
        "summary": "M6.5 at 42km depth near Sarangani, Philippines. GDACS Orange. 40,000 in MMI>=VII.",
        "date": "2026-06-26",
        "severity": 6,
        "source": "gdacs"
      }
    },
    {
      "type": "Feature",
      "geometry": {
        "type": "Point",
        "coordinates": [
          137.5,
          35.2
        ]
      },
      "properties": {
        "title": "M6.9 Japan",
        "summary": "M6.9 at 50km depth June 24. 80,000 in MMI>=VII.",
        "date": "2026-06-24",
        "severity": 6,
        "source": "gdacs"
      }
    },
    {
      "type": "Feature",
      "geometry": {
        "type": "Point",
        "coordinates": [
          34.1,
          45.0
        ]
      },
      "properties": {
        "title": "Crimea Emergency Declared",
        "summary": "Ukraine drone strikes on power infrastructure force Russian-installed authorities to declare emergency. Kerch Bridge closed multiple times.",
        "date": "2026-06-26",
        "severity": 7,
        "source": "acled"
      }
    },
    {
      "type": "Feature",
      "geometry": {
        "type": "Point",
        "coordinates": [
          36.5,
          49.4
        ]
      },
      "properties": {
        "title": "S. Slobozhansky/Kharkiv Clashes",
        "summary": "Active fighting near Veterynarne, Starytsya, Synelnykove. General Staff report June 25.",
        "date": "2026-06-25",
        "severity": 6,
        "source": "acled"
      }
    },
    {
      "type": "Feature",
      "geometry": {
        "type": "Point",
        "coordinates": [
          37.6,
          49.7
        ]
      },
      "properties": {
        "title": "Kupyansk Direction Clashes",
        "summary": "Fighting near Hlushkivka, Kurylivka, Shyykivka, Mala Shapkivka.",
        "date": "2026-06-22",
        "severity": 5,
        "source": "acled"
      }
    },
    {
      "type": "Feature",
      "geometry": {
        "type": "Point",
        "coordinates": [
          34.8,
          50.9
        ]
      },
      "properties": {
        "title": "Sumy Drone Strike",
        "summary": "2 wounded in drone attack on fuel station near Sumy.",
        "date": "2026-06-24",
        "severity": 4,
        "source": "acled"
      }
    },
    {
      "type": "Feature",
      "geometry": {
        "type": "Point",
        "coordinates": [
          31.5,
          51.8
        ]
      },
      "properties": {
        "title": "Chernihiv Border Evacuation Order",
        "summary": "Mandatory evacuation of 12 border villages from July 1. ~1,000 residents including 120 children.",
        "date": "2026-06-24",
        "severity": 5,
        "source": "acled"
      }
    },
    {
      "type": "Feature",
      "geometry": {
        "type": "Point",
        "coordinates": [
          35.4,
          33.2
        ]
      },
      "properties": {
        "title": "IDF Strikes Beit Yahoun, Lebanon",
        "summary": "Israeli aviation struck Beit Yahoun in Bint Jbeil district. 6 strikes past week targeting southern Lebanon militants.",
        "date": "2026-06-26",
        "severity": 6,
        "source": "acled"
      }
    },
    {
      "type": "Feature",
      "geometry": {
        "type": "Point",
        "coordinates": [
          34.5,
          31.5
        ]
      },
      "properties": {
        "title": "IDF Gaza Strikes",
        "summary": "Multiple strikes including Al-Maghazi camp and Al-Nasr neighborhood (Italian complex area).",
        "date": "2026-06-26",
        "severity": 7,
        "source": "acled"
      }
    },
    {
      "type": "Feature",
      "geometry": {
        "type": "Point",
        "coordinates": [
          133.2,
          31.6
        ]
      },
      "properties": {
        "title": "Typhoon Mekkhala",
        "summary": "Active typhoon at 133.2E 31.6N (East China Sea). Category tracked by NASA EONET.",
        "date": "2026-06-27",
        "severity": 7,
        "source": "gdacs"
      }
    },
    {
      "type": "Feature",
      "geometry": {
        "type": "Point",
        "coordinates": [
          142.9,
          36.4
        ]
      },
      "properties": {
        "title": "Tropical Storm Higos",
        "summary": "Tropical Storm Higos at 142.9E 36.4N off Japan's Pacific coast.",
        "date": "2026-06-27",
        "severity": 5,
        "source": "gdacs"
      }
    },
    {
      "type": "Feature",
      "geometry": {
        "type": "Point",
        "coordinates": [
          34.2,
          15.6
        ]
      },
      "properties": {
        "title": "Sudan: SAF Airstrikes on RSF (Blue Nile)",
        "summary": "Sudan Armed Forces airstrikes on Rapid Support Forces sites in Blue Nile region, southeast Sudan.",
        "date": "2026-06-26",
        "severity": 7,
        "source": "acled"
      }
    },
    {
      "type": "Feature",
      "geometry": {
        "type": "Point",
        "coordinates": [
          44.4,
          33.3
        ]
      },
      "properties": {
        "title": "Iraq Threatens OPEC Exit",
        "summary": "Iraq warns it may leave OPEC if production quota not raised. Oil exports fell from 4.2M bpd to 1.48M bpd due to Strait of Hormuz closure during Iran war.",
        "date": "2026-06-25",
        "severity": 5,
        "source": "acled"
      }
    }
  ]
}