{
  "type": "FeatureCollection",
  "features": [
    {
      "type": "Feature",
      "geometry": {
        "type": "Point",
        "coordinates": [
          -28.9899,
          -60.2445
        ]
      },
      "properties": {
        "title": "M 6.0 - South Sandwich Islands region",
        "summary": "M6.0 \u00b7 South Sandwich Islands region \u00b7 depth 10 km",
        "date": "2026-08-12",
        "severity": 7,
        "source": "usgs"
      }
    },
    {
      "type": "Feature",
      "geometry": {
        "type": "Point",
        "coordinates": [
          -88.2864,
          12.6084
        ]
      },
      "properties": {
        "title": "M 5.5 - 69 km SSW of Chirilagua, El Salvador",
        "summary": "M5.5 \u00b7 69 km SSW of Chirilagua, El Salvador \u00b7 depth 56.794 km",
        "date": "2026-08-13",
        "severity": 7,
        "source": "usgs"
      }
    },
    {
      "type": "Feature",
      "geometry": {
        "type": "Point",
        "coordinates": [
          74.3579,
          36.7849
        ]
      },
      "properties": {
        "title": "M 5.1 - 59 km NNW of Barishal, Pakistan",
        "summary": "M5.1 \u00b7 59 km NNW of Barishal, Pakistan \u00b7 depth 58.893 km",
        "date": "2026-08-13",
        "severity": 6,
        "source": "usgs"
      }
    },
    {
      "type": "Feature",
      "geometry": {
        "type": "Point",
        "coordinates": [
          -178.554,
          -17.8749
        ]
      },
      "properties": {
        "title": "M 5.1 - 226 km E of Levuka, Fiji",
        "summary": "M5.1 \u00b7 226 km E of Levuka, Fiji \u00b7 depth 570.792 km",
        "date": "2026-08-12",
        "severity": 6,
        "source": "usgs"
      }
    },
    {
      "type": "Feature",
      "geometry": {
        "type": "Point",
        "coordinates": [
          55.93,
          53.36
        ]
      },
      "properties": {
        "title": "Ukrainian drone strike: Salavat refinery (Bashkortostan)",
        "summary": "Fire at Gazprom Neftohim Salavat; 16 drones shot down, fire reported at refinery",
        "date": "2026-08-13",
        "severity": 7,
        "source": "firms"
      }
    },
    {
      "type": "Feature",
      "geometry": {
        "type": "Point",
        "coordinates": [
          33.5,
          47.9
        ]
      },
      "properties": {
        "title": "Ukraine: 26 settlements liberated, Oleksandrivka direction",
        "summary": "Ukrainian Air Assault Forces liberated 26 villages in Dnipropetrovsk, Donetsk, Zaporizhzhia regions; 745km\u00b2 retaken",
        "date": "2026-08-13",
        "severity": 8,
        "source": "acled"
      }
    },
    {
      "type": "Feature",
      "geometry": {
        "type": "Point",
        "coordinates": [
          30.7,
          46.5
        ]
      },
      "properties": {
        "title": "Russian Shahed strike: passenger train, Odessa region",
        "summary": "Shahid drone hit passenger train in Odessa oblast; locomotive crew killed, passengers evacuated",
        "date": "2026-08-13",
        "severity": 7,
        "source": "acled"
      }
    },
    {
      "type": "Feature",
      "geometry": {
        "type": "Point",
        "coordinates": [
          36.2,
          50.0
        ]
      },
      "properties": {
        "title": "Russian drone attack: Verbivka, Kharkiv region",
        "summary": "Russian drones attacked Verbivka in Kharkiv oblast; 5 wounded",
        "date": "2026-08-13",
        "severity": 5,
        "source": "acled"
      }
    },
    {
      "type": "Feature",
      "geometry": {
        "type": "Point",
        "coordinates": [
          -76.5,
          5.2
        ]
      },
      "properties": {
        "title": "M7.4 Colombia earthquake (Choco dept.)",
        "summary": "265 dead, 3,494+ injured; President De La Espriella invokes economic emergency",
        "date": "2026-08-13",
        "severity": 9,
        "source": "gdacs"
      }
    },
    {
      "type": "Feature",
      "geometry": {
        "type": "Point",
        "coordinates": [
          34.15,
          10.55
        ]
      },
      "properties": {
        "title": "Sudan: Mass graves found after SAF retakes Kurmuk",
        "summary": "25 civilians including women, children, hospital staff executed by RSF found in mass graves",
        "date": "2026-08-13",
        "severity": 8,
        "source": "acled"
      }
    },
    {
      "type": "Feature",
      "geometry": {
        "type": "Point",
        "coordinates": [
          28.5,
          -17.8
        ]
      },
      "properties": {
        "title": "Lake Kariba ferry capsizes: 44+ dead",
        "summary": "Overcrowded ferry capsized on Lake Kariba, Zimbabwe; at least 44 dead",
        "date": "2026-08-13",
        "severity": 7,
        "source": "gdacs"
      }
    },
    {
      "type": "Feature",
      "geometry": {
        "type": "Point",
        "coordinates": [
          44.0,
          36.2
        ]
      },
      "properties": {
        "title": "Iranian strikes on Kurdish groups in Erbil, Iraq",
        "summary": "Fires broke out from Iranian strikes on Kurdish opposition positions in Erbil province, northern Iraq",
        "date": "2026-08-13",
        "severity": 6,
        "source": "acled"
      }
    },
    {
      "type": "Feature",
      "geometry": {
        "type": "Point",
        "coordinates": [
          56.5,
          26.5
        ]
      },
      "properties": {
        "title": "Strait of Hormuz: US-Iran standoff, traffic at 7 vessels",
        "summary": "Only 7 commodity vessels transiting; Polymarket 3% chance normal traffic by Aug 31; oil spill reported in Oman",
        "date": "2026-08-13",
        "severity": 9,
        "source": "gdacs"
      }
    },
    {
      "type": "Feature",
      "geometry": {
        "type": "Point",
        "coordinates": [
          28.06,
          44.33
        ]
      },
      "properties": {
        "title": "Romania: Cernavoda NPP Unit 2 shutdown",
        "summary": "Danube water level -227cm vs -230cm minimum; Unit 2 shutdown August 13; full shutdown imminent due to drought",
        "date": "2026-08-13",
        "severity": 6,
        "source": "firms"
      }
    },
    {
      "type": "Feature",
      "geometry": {
        "type": "Point",
        "coordinates": [
          68.25,
          58.2
        ]
      },
      "properties": {
        "title": "Tobolsk, Russia: Explosions reported",
        "summary": "Explosions reported in Tobolsk, Siberia; no confirmed cause",
        "date": "2026-08-13",
        "severity": 5,
        "source": "acled"
      }
    }
  ]
}