{
  "type": "FeatureCollection",
  "features": [
    {
      "type": "Feature",
      "geometry": {
        "type": "Point",
        "coordinates": [
          -118.2,
          36.5
        ]
      },
      "properties": {
        "title": "M5.5 Earthquake USA",
        "summary": "GDACS earthquake event",
        "date": "2026-06-29",
        "severity": 3,
        "source": "gdacs"
      }
    },
    {
      "type": "Feature",
      "geometry": {
        "type": "Point",
        "coordinates": [
          137.8,
          35.2
        ]
      },
      "properties": {
        "title": "M5.8 Earthquake Japan",
        "summary": "GDACS earthquake event",
        "date": "2026-06-27",
        "severity": 4,
        "source": "gdacs"
      }
    },
    {
      "type": "Feature",
      "geometry": {
        "type": "Point",
        "coordinates": [
          69.2,
          34.5
        ]
      },
      "properties": {
        "title": "M6.1 Earthquake Afghanistan",
        "summary": "GDACS earthquake event",
        "date": "2026-06-27",
        "severity": 5,
        "source": "gdacs"
      }
    },
    {
      "type": "Feature",
      "geometry": {
        "type": "Point",
        "coordinates": [
          107.0,
          -6.5
        ]
      },
      "properties": {
        "title": "M5.9 Earthquake Indonesia",
        "summary": "GDACS earthquake event",
        "date": "2026-06-27",
        "severity": 3,
        "source": "gdacs"
      }
    },
    {
      "type": "Feature",
      "geometry": {
        "type": "Point",
        "coordinates": [
          -66.9,
          10.5
        ]
      },
      "properties": {
        "title": "M7.5/M7.2 Venezuela Twin Earthquakes",
        "summary": "1,450 dead, 46,600 missing. La Guaira/Caracas. USAID DART deployed.",
        "date": "2026-06-24",
        "severity": 10,
        "source": "usgs"
      }
    },
    {
      "type": "Feature",
      "geometry": {
        "type": "Point",
        "coordinates": [
          55.1,
          51.8
        ]
      },
      "properties": {
        "title": "Ukraine: Orenburg Deep Strike",
        "summary": "Ukraine drones struck Orenburg Gas Processing Plant and Russia's only helium plant, 1,200km from front.",
        "date": "2026-06-30",
        "severity": 8,
        "source": "acled"
      }
    },
    {
      "type": "Feature",
      "geometry": {
        "type": "Point",
        "coordinates": [
          -8.0,
          12.7
        ]
      },
      "properties": {
        "title": "Mali: JNIM Coordinated Attacks",
        "summary": "JNIM/Tuareg attacks on Bamako, Gao, Kidal, Mopti, Sevare April 25.",
        "date": "2026-06-30",
        "severity": 8,
        "source": "acled"
      }
    },
    {
      "type": "Feature",
      "geometry": {
        "type": "Point",
        "coordinates": [
          34.5,
          31.5
        ]
      },
      "properties": {
        "title": "Gaza: Ongoing Operations",
        "summary": "IDF operations continue despite Rubio Lebanon framework. Ceasefire negotiations ongoing.",
        "date": "2026-06-30",
        "severity": 7,
        "source": "acled"
      }
    },
    {
      "type": "Feature",
      "geometry": {
        "type": "Point",
        "coordinates": [
          35.5,
          33.9
        ]
      },
      "properties": {
        "title": "Lebanon: Israel Ceasefire Framework",
        "summary": "Rubio June 26 framework deal. IDF soldier killed S. Lebanon June 25.",
        "date": "2026-06-30",
        "severity": 6,
        "source": "acled"
      }
    },
    {
      "type": "Feature",
      "geometry": {
        "type": "Point",
        "coordinates": [
          37.9,
          48.6
        ]
      },
      "properties": {
        "title": "Ukraine: Bakhmut-Donetsk Frontline",
        "summary": "ISW June 28: Russian forces saw net loss of 20 sq mi in 4 weeks. Ukraine deep strike campaign intensifying.",
        "date": "2026-06-30",
        "severity": 7,
        "source": "acled"
      }
    },
    {
      "type": "Feature",
      "geometry": {
        "type": "Point",
        "coordinates": [
          -1.5,
          12.4
        ]
      },
      "properties": {
        "title": "Burkina Faso: JNIM Operations",
        "summary": "February 2026 JNIM coordinated attacks across eastern/northern Burkina Faso.",
        "date": "2026-06-30",
        "severity": 6,
        "source": "acled"
      }
    },
    {
      "type": "Feature",
      "geometry": {
        "type": "Point",
        "coordinates": [
          32.5,
          15.6
        ]
      },
      "properties": {
        "title": "Sudan: Khartoum Conflict",
        "summary": "SAF-RSF conflict continues, ~150 weekly fatalities.",
        "date": "2026-06-30",
        "severity": 7,
        "source": "acled"
      }
    },
    {
      "type": "Feature",
      "geometry": {
        "type": "Point",
        "coordinates": [
          55.15,
          51.8
        ]
      },
      "properties": {
        "title": "FIRMS: Orenburg Gas Complex Fire",
        "summary": "Thermal anomaly from Ukraine strike on Orenburg helium+gas plant.",
        "date": "2026-06-30",
        "severity": 8,
        "source": "firms"
      }
    },
    {
      "type": "Feature",
      "geometry": {
        "type": "Point",
        "coordinates": [
          24.0,
          -4.0
        ]
      },
      "properties": {
        "title": "FIRMS: DRC Forest Fires",
        "summary": "GDACS Green forest fire notification DRC/Angola border region.",
        "date": "2026-06-30",
        "severity": 4,
        "source": "firms"
      }
    },
    {
      "type": "Feature",
      "geometry": {
        "type": "Point",
        "coordinates": [
          -122.5,
          38.5
        ]
      },
      "properties": {
        "title": "FIRMS: California Forest Fire",
        "summary": "GDACS forest fire notification northern California.",
        "date": "2026-06-30",
        "severity": 4,
        "source": "firms"
      }
    }
  ]
}