{"type": "FeatureCollection", "features": [{"type": "Feature", "geometry": {"type": "Point", "coordinates": [30.52, 50.45]}, "properties": {"title": "Russia mass strike on Kyiv", "summary": "8 Tsyrkon, 33 Iskander-M, 27 Kh-101, 5 Kaliber, 656 drones overnight Jun 1-2. 18 killed, 100+ wounded. 140k without power.", "date": "2026-06-02", "severity": 9, "source": "acled"}}, {"type": "Feature", "geometry": {"type": "Point", "coordinates": [34.59, 47.51]}, "properties": {"title": "Zaporizhzhia NPP Unit 6 drone strike", "summary": "Drone impact on unit 6 of ZNPP confirmed with imagery. Jun 1-2 2026.", "date": "2026-06-02", "severity": 9, "source": "firms"}}, {"type": "Feature", "geometry": {"type": "Point", "coordinates": [38.89, 47.53]}, "properties": {"title": "Russia fuel depot fire, Rostov", "summary": "Fuel depot on fire in Matveyev Kurgan, Rostov Oblast, following reported Ukrainian strike.", "date": "2026-06-02", "severity": 6, "source": "firms"}}, {"type": "Feature", "geometry": {"type": "Point", "coordinates": [35.35, 33.35]}, "properties": {"title": "Israeli airstrikes, southern Lebanon", "summary": "Israeli strikes on Breqa, Toul, Harouf, Shoukin, Kafr Tebnit, Al-Haniyah. 8 killed including children. Jun 2 2026.", "date": "2026-06-02", "severity": 7, "source": "acled"}}, {"type": "Feature", "geometry": {"type": "Point", "coordinates": [35.18, 33.28]}, "properties": {"title": "Hezbollah area, Burj al-Shamali", "summary": "2 dead, 14 wounded in Israeli raids on Burj al-Shamali. Jun 2 2026.", "date": "2026-06-02", "severity": 6, "source": "acled"}}, {"type": "Feature", "geometry": {"type": "Point", "coordinates": [29.47, 0.49]}, "properties": {"title": "ADF attack on Beni, DRC", "summary": "ADF rebels killed at least 16 people in Beni city - first incursion in 3 years.", "date": "2026-06-02", "severity": 7, "source": "acled"}}, {"type": "Feature", "geometry": {"type": "Point", "coordinates": [30.25, 1.55]}, "properties": {"title": "Ebola outbreak, DRC (Bundibugyo strain)", "summary": "321 confirmed Ebola cases, 48 deaths. 4 nurses recovered in Bunia. WHO suspects drop from 906 to 116 after testing.", "date": "2026-06-02", "severity": 7, "source": "acled"}}, {"type": "Feature", "geometry": {"type": "Point", "coordinates": [15.5, 40.4]}, "properties": {"title": "M6.2 Scarcelli, Italy", "summary": "M6.2 at 243km depth, 22km WSW of Scarcelli, Italy. Jun 1 2026.", "date": "2026-06-02", "severity": 5, "source": "usgs"}}, {"type": "Feature", "geometry": {"type": "Point", "coordinates": [135.0, -2.5]}, "properties": {"title": "M5.4 Abepura, Indonesia", "summary": "M5.4 at 29km depth, 207km WNW of Abepura, Indonesia. Jun 1 2026.", "date": "2026-06-02", "severity": 4, "source": "usgs"}}]}