{
  "type": "FeatureCollection",
  "features": [
    {
      "type": "Feature",
      "geometry": {
        "type": "Point",
        "coordinates": [
          37.6,
          48.87
        ]
      },
      "properties": {
        "title": "Clashes Sloviansk direction - Kryva Luka",
        "summary": "Ukraine conflict event 2026-08-28",
        "date": "2026-08-28",
        "severity": 6,
        "source": "acled"
      }
    },
    {
      "type": "Feature",
      "geometry": {
        "type": "Point",
        "coordinates": [
          30.52,
          50.45
        ]
      },
      "properties": {
        "title": "Russian drone strikes Kyiv region (2nd day)",
        "summary": "Ukraine conflict event 2026-08-28",
        "date": "2026-08-28",
        "severity": 8,
        "source": "acled"
      }
    },
    {
      "type": "Feature",
      "geometry": {
        "type": "Point",
        "coordinates": [
          30.52,
          50.45
        ]
      },
      "properties": {
        "title": "Explosions Bucha district warehouse",
        "summary": "Ukraine conflict event 2026-08-28",
        "date": "2026-08-28",
        "severity": 7,
        "source": "acled"
      }
    },
    {
      "type": "Feature",
      "geometry": {
        "type": "Point",
        "coordinates": [
          37.6,
          48.53
        ]
      },
      "properties": {
        "title": "Russian airstrikes Sloviansk city",
        "summary": "Ukraine conflict event 2026-08-28",
        "date": "2026-08-28",
        "severity": 7,
        "source": "acled"
      }
    },
    {
      "type": "Feature",
      "geometry": {
        "type": "Point",
        "coordinates": [
          28.85,
          46.97
        ]
      },
      "properties": {
        "title": "Russian drones violate Moldova airspace (5 drones)",
        "summary": "Shahed drones violated Moldovan airspace during attacks on Ukraine, Aug 26-27",
        "date": "2026-08-28",
        "severity": 6,
        "source": "acled"
      }
    },
    {
      "type": "Feature",
      "geometry": {
        "type": "Point",
        "coordinates": [
          121.23,
          28.12
        ]
      },
      "properties": {
        "title": "Typhoon Saudel landfall - Taizhou, Zhejiang",
        "summary": "Cat 2-equivalent; 35 m/s winds at landfall 08:05 local",
        "date": "2026-08-28",
        "severity": 7,
        "source": "gdacs"
      }
    },
    {
      "type": "Feature",
      "geometry": {
        "type": "Point",
        "coordinates": [
          -117.98,
          40.72
        ]
      },
      "properties": {
        "title": "Wildfire Calico - Humboldt County, Nevada",
        "summary": "Active wildfire from EONET/NASA",
        "date": "2026-08-28",
        "severity": 5,
        "source": "firms"
      }
    }
  ]
}