{
  "type": "FeatureCollection",
  "features": [
    {
      "type": "Feature",
      "geometry": {
        "type": "Point",
        "coordinates": [
          162.5,
          -66.5
        ]
      },
      "properties": {
        "title": "M5.6 - Balleny Islands region",
        "summary": "USGS M5.6 - Balleny Islands region",
        "date": "2026-06-05",
        "severity": 4,
        "source": "usgs",
        "url": "https://earthquake.usgs.gov/earthquakes/eventpage/us7000sqzx"
      }
    },
    {
      "type": "Feature",
      "geometry": {
        "type": "Point",
        "coordinates": [
          -98.6,
          16.9
        ]
      },
      "properties": {
        "title": "M5.1 - Quetzalapa, Mexico",
        "summary": "USGS M5.1 - Quetzalapa, Mexico",
        "date": "2026-06-05",
        "severity": 4,
        "source": "usgs",
        "url": "https://earthquake.usgs.gov/earthquakes/eventpage/us7000sqzv"
      }
    },
    {
      "type": "Feature",
      "geometry": {
        "type": "Point",
        "coordinates": [
          127.5,
          -8.2
        ]
      },
      "properties": {
        "title": "M5.3 - Lospalos, Timor Leste",
        "summary": "USGS M5.3 - Lospalos, Timor Leste",
        "date": "2026-06-05",
        "severity": 3,
        "source": "usgs",
        "url": "https://earthquake.usgs.gov/earthquakes/eventpage/us7000sqvk"
      }
    },
    {
      "type": "Feature",
      "geometry": {
        "type": "Point",
        "coordinates": [
          123.8,
          13.0
        ]
      },
      "properties": {
        "title": "M5.3 - Manito, Philippines",
        "summary": "USGS M5.3 - Manito, Philippines",
        "date": "2026-06-05",
        "severity": 3,
        "source": "usgs",
        "url": "https://earthquake.usgs.gov/earthquakes/eventpage/us7000squy"
      }
    },
    {
      "type": "Feature",
      "geometry": {
        "type": "Point",
        "coordinates": [
          52.4,
          28.5
        ]
      },
      "properties": {
        "title": "M4.8 - Firozabad, Iran",
        "summary": "USGS M4.8 - Firozabad, Iran",
        "date": "2026-06-05",
        "severity": 3,
        "source": "usgs",
        "url": "https://earthquake.usgs.gov/earthquakes/eventpage/us7000sqvg"
      }
    },
    {
      "type": "Feature",
      "geometry": {
        "type": "Point",
        "coordinates": [
          33.431,
          47.867
        ]
      },
      "properties": {
        "title": "FIRMS thermal FRP 20.84 MW",
        "summary": "Kryvyi Rih area - high FRP industrial",
        "date": "2026-06-05",
        "severity": 10,
        "source": "firms"
      }
    },
    {
      "type": "Feature",
      "geometry": {
        "type": "Point",
        "coordinates": [
          33.43,
          47.866
        ]
      },
      "properties": {
        "title": "FIRMS thermal FRP 16.04 MW",
        "summary": "Kryvyi Rih area - high FRP",
        "date": "2026-06-05",
        "severity": 10,
        "source": "firms"
      }
    },
    {
      "type": "Feature",
      "geometry": {
        "type": "Point",
        "coordinates": [
          34.039,
          52.178
        ]
      },
      "properties": {
        "title": "FIRMS thermal FRP 2.97 MW",
        "summary": "Sumy oblast thermal",
        "date": "2026-06-05",
        "severity": 2,
        "source": "firms"
      }
    },
    {
      "type": "Feature",
      "geometry": {
        "type": "Point",
        "coordinates": [
          34.038,
          52.175
        ]
      },
      "properties": {
        "title": "FIRMS thermal FRP 4.49 MW",
        "summary": "Sumy oblast thermal",
        "date": "2026-06-05",
        "severity": 4,
        "source": "firms"
      }
    },
    {
      "type": "Feature",
      "geometry": {
        "type": "Point",
        "coordinates": [
          50.5,
          26.2
        ]
      },
      "properties": {
        "title": "Iran ballistic missile attack on Kuwait/Bahrain",
        "summary": "Iran fired 7 ballistic missiles at Kuwait and Bahrain; US forces intercepted 6. IRGC claims hits on Ali Al Salem airbase and 5th Fleet HQ - US denies.",
        "date": "2026-06-06",
        "severity": 9,
        "source": "acled"
      }
    },
    {
      "type": "Feature",
      "geometry": {
        "type": "Point",
        "coordinates": [
          55.8,
          27.1
        ]
      },
      "properties": {
        "title": "US strikes Iranian radar sites (Goruk, Qeshm Island)",
        "summary": "CENTCOM struck Iranian coastal surveillance radar sites in response to maritime drone attacks near Hormuz.",
        "date": "2026-06-06",
        "severity": 9,
        "source": "acled"
      }
    },
    {
      "type": "Feature",
      "geometry": {
        "type": "Point",
        "coordinates": [
          30.3,
          59.9
        ]
      },
      "properties": {
        "title": "Ukrainian drone attack - St. Petersburg oil terminal",
        "summary": "Ukraine struck St. Petersburg oil terminal; guided-missile corvette Boikiy hit in Kronstadt drydock.",
        "date": "2026-06-06",
        "severity": 7,
        "source": "acled"
      }
    },
    {
      "type": "Feature",
      "geometry": {
        "type": "Point",
        "coordinates": [
          35.5,
          33.3
        ]
      },
      "properties": {
        "title": "Israeli airstrike kills 9 incl. Lebanese army officers",
        "summary": "Israeli strike on Lebanon days after ceasefire announced kills 9 including 3 Lebanese military. Lebanon calls it flagrant violation.",
        "date": "2026-06-06",
        "severity": 8,
        "source": "acled"
      }
    },
    {
      "type": "Feature",
      "geometry": {
        "type": "Point",
        "coordinates": [
          29.8,
          1.9
        ]
      },
      "properties": {
        "title": "Bundibugyo Ebola - Ituri Province, DRC",
        "summary": "906 suspected cases, 223 deaths. Largest Bundibugyo outbreak on record. WHO PHEIC declared.",
        "date": "2026-06-06",
        "severity": 7,
        "source": "gdacs"
      }
    },
    {
      "type": "Feature",
      "geometry": {
        "type": "Point",
        "coordinates": [
          47.0,
          -20.0
        ]
      },
      "properties": {
        "title": "GDACS Orange: Drought in Madagascar",
        "summary": "Persistent drought affecting 398,352 km2 of agricultural land.",
        "date": "2026-06-06",
        "severity": 5,
        "source": "gdacs"
      }
    },
    {
      "type": "Feature",
      "geometry": {
        "type": "Point",
        "coordinates": [
          44.5,
          40.2
        ]
      },
      "properties": {
        "title": "Armenia parliamentary elections (June 7)",
        "summary": "Pashinyan's Civil Contract party favored for landslide; geopolitical pivot from Russia toward EU/US at stake.",
        "date": "2026-06-06",
        "severity": 4,
        "source": "gdacs"
      }
    },
    {
      "type": "Feature",
      "geometry": {
        "type": "Point",
        "coordinates": [
          30.32,
          59.95
        ]
      },
      "properties": {
        "title": "SPIEF 2026 - St. Petersburg",
        "summary": "Putin keynote: declared end of Western economic dominance, invited global investment. 20,000 participants from 130 countries.",
        "date": "2026-06-06",
        "severity": 4,
        "source": "gdacs"
      }
    }
  ]
}