{"type": "FeatureCollection", "features": [{"type": "Feature", "geometry": {"type": "Point", "coordinates": [40.0, -45.0]}, "properties": {"title": "M 5.1 - Southwest Indian Ridge", "summary": "M5.1 \u00b7 Southwest Indian Ridge \u00b7 depth 10 km", "date": "2026-08-29", "severity": 1, "source": "usgs"}}, {"type": "Feature", "geometry": {"type": "Point", "coordinates": [126.5, -0.6]}, "properties": {"title": "M 5.0 - 64 km W of Labuha, Indonesia", "summary": "M5.0 \u00b7 64 km W of Labuha, Indonesia \u00b7 depth 41.899 km", "date": "2026-08-29", "severity": 1, "source": "usgs"}}, {"type": "Feature", "geometry": {"type": "Point", "coordinates": [152.0, -5.5]}, "properties": {"title": "M 5.0 - 191 km ESE of Kimbe, Papua New Guinea", "summary": "M5.0 \u00b7 191 km ESE of Kimbe, Papua New Guinea \u00b7 depth 10 km", "date": "2026-08-29", "severity": 1, "source": "usgs"}}, {"type": "Feature", "geometry": {"type": "Point", "coordinates": [-26.5, -57.0]}, "properties": {"title": "M 4.9 - South Sandwich Islands region", "summary": "M4.9 \u00b7 South Sandwich Islands region \u00b7 depth 89.886 km", "date": "2026-08-29", "severity": 1, "source": "usgs"}}, {"type": "Feature", "geometry": {"type": "Point", "coordinates": [80.5, 42.0]}, "properties": {"title": "M 4.9 - 124 km N of Aksu, China", "summary": "M4.9 \u00b7 124 km N of Aksu, China \u00b7 depth 10 km", "date": "2026-08-29", "severity": 1, "source": "usgs"}}, {"type": "Feature", "geometry": {"type": "Point", "coordinates": [40.0, -45.0]}, "properties": {"title": "M 4.9 - Southwest Indian Ridge", "summary": "M4.9 \u00b7 Southwest Indian Ridge \u00b7 depth 10 km", "date": "2026-08-29", "severity": 1, "source": "usgs"}}, {"type": "Feature", "geometry": {"type": "Point", "coordinates": [-124.5, 40.3]}, "properties": {"title": "M 4.8 - 85 km W of Petrolia, CA", "summary": "M4.84 \u00b7 85 km W of Petrolia, CA \u00b7 depth 10 km", "date": "2026-08-29", "severity": 1, "source": "usgs"}}, {"type": "Feature", "geometry": {"type": "Point", "coordinates": [124.0, 10.5]}, "properties": {"title": "M 4.8 - 29 km ENE of Pilar, Philippines", "summary": "M4.8 \u00b7 29 km ENE of Pilar, Philippines \u00b7 depth 60.935 km", "date": "2026-08-29", "severity": 1, "source": "usgs"}}, {"type": "Feature", "geometry": {"type": "Point", "coordinates": [143.0, 39.5]}, "properties": {"title": "M 4.8 - 110 km E of Miyako, Japan", "summary": "M4.8 \u00b7 110 km E of Miyako, Japan \u00b7 depth 34.933 km", "date": "2026-08-29", "severity": 1, "source": "usgs"}}, {"type": "Feature", "geometry": {"type": "Point", "coordinates": [127.5, -8.5]}, "properties": {"title": "M 4.7 - 25 km ESE of Lospalos, Timor Leste", "summary": "M4.7 \u00b7 25 km ESE of Lospalos, Timor Leste \u00b7 depth 10 km", "date": "2026-08-29", "severity": 1, "source": "usgs"}}, {"type": "Feature", "geometry": {"type": "Point", "coordinates": [147.0, 45.5]}, "properties": {"title": "M 4.6 - 170 km ESE of Kuril\u2019sk, Russia", "summary": "M4.6 \u00b7 170 km ESE of Kuril\u2019sk, Russia \u00b7 depth 43.998 km", "date": "2026-08-29", "severity": 1, "source": "usgs"}}, {"type": "Feature", "geometry": {"type": "Point", "coordinates": [-68.5, -21.0]}, "properties": {"title": "M 4.6 - 26 km W of Ollag\u00fce, Chile", "summary": "M4.6 \u00b7 26 km W of Ollag\u00fce, Chile \u00b7 depth 131.354 km", "date": "2026-08-29", "severity": 1, "source": "usgs"}}, {"type": "Feature", "geometry": {"type": "Point", "coordinates": [-77.0, 4.5]}, "properties": {"title": "M 4.5 - 24 km WSW of Sip\u00ed, Colombia", "summary": "M4.5 \u00b7 24 km WSW of Sip\u00ed, Colombia \u00b7 depth 58.147 km", "date": "2026-08-29", "severity": 1, "source": "usgs"}}, {"type": "Feature", "geometry": {"type": "Point", "coordinates": [22.7, 37.5]}, "properties": {"title": "M 4.5 - 2 km NNW of \u00c1stros, Greece", "summary": "M4.5 \u00b7 2 km NNW of \u00c1stros, Greece \u00b7 depth 89.639 km", "date": "2026-08-29", "severity": 1, "source": "usgs"}}, {"type": "Feature", "geometry": {"type": "Point", "coordinates": [30.2, 50.5]}, "properties": {"title": "Russian strike Bucha district - 37 killed", "summary": "Drone strike on ammunition warehouse in Myla village, Bucha district. 37 dead, 42 injured. Deadliest attack of 2026.", "date": "2026-08-29", "severity": 9, "source": "acled"}}, {"type": "Feature", "geometry": {"type": "Point", "coordinates": [40.4, 48.9]}, "properties": {"title": "Millerovo airfield explosions, Rostov", "summary": "Ukrainian drone strike on Millerovo airfield, Rostov region, Russia. Radar stations and industrial targets hit.", "date": "2026-08-29", "severity": 6, "source": "acled"}}, {"type": "Feature", "geometry": {"type": "Point", "coordinates": [39.8, 47.3]}, "properties": {"title": "Rostov region fires after explosions", "summary": "Fires in Askay, Rostov region following explosions reported Aug 29.", "date": "2026-08-29", "severity": 5, "source": "acled"}}, {"type": "Feature", "geometry": {"type": "Point", "coordinates": [36.23, 49.99]}, "properties": {"title": "Kharkiv explosions", "summary": "Explosions reported in Kharkiv, Aug 27.", "date": "2026-08-29", "severity": 5, "source": "acled"}}, {"type": "Feature", "geometry": {"type": "Point", "coordinates": [35.7, 47.5]}, "properties": {"title": "Orikhiv direction - clashes Krasnohirske", "summary": "Clashes at Orikhiv direction near Krasnohirske, Novopavlivka per Ukrainian General Staff.", "date": "2026-08-29", "severity": 4, "source": "acled"}}, {"type": "Feature", "geometry": {"type": "Point", "coordinates": [37.6, 55.7]}, "properties": {"title": "Russia 162-drone overnight launch", "summary": "Russia launched 162 strike drones overnight Aug 26. Ukrainian air force reported.", "date": "2026-08-29", "severity": 7, "source": "acled"}}, {"type": "Feature", "geometry": {"type": "Point", "coordinates": [56.5, 26.5]}, "properties": {"title": "Strait of Hormuz - Iranian anti-ship operations", "summary": "Iran firing anti-ship missiles at vessels. Strait effectively closed. 97% traffic drop since Feb 28.", "date": "2026-08-29", "severity": 9, "source": "gdacs"}}, {"type": "Feature", "geometry": {"type": "Point", "coordinates": [40.4, 62.9]}, "properties": {"title": "Russia Yars ICBM test - Plesetsk", "summary": "Russia test-launched Yars ICBM from Plesetsk. Warheads landed at Kura test site in Kamchatka. Test followed CIA Director Ratcliffe Moscow visit by 3 days.", "date": "2026-08-28", "severity": 8, "source": "acled"}}]}