{"type": "FeatureCollection", "features": [{"type": "Feature", "geometry": {"type": "Point", "coordinates": [-176.5171, -28.4982]}, "properties": {"title": "M 5.9 - Kermadec Islands region", "summary": "M5.9 depth 10km", "date": "2026-07-29", "severity": 8, "source": "usgs"}}, {"type": "Feature", "geometry": {"type": "Point", "coordinates": [-179.1239, -65.0558]}, "properties": {"title": "M 5.6 - Pacific-Antarctic Ridge", "summary": "M5.6 depth 10km", "date": "2026-07-29", "severity": 8, "source": "usgs"}}, {"type": "Feature", "geometry": {"type": "Point", "coordinates": [124.6138, 13.1384]}, "properties": {"title": "M 5.4 - 53 km E of Rapu-Rapu, Philippines", "summary": "M5.4 depth 46.281km", "date": "2026-07-29", "severity": 8, "source": "usgs"}}, {"type": "Feature", "geometry": {"type": "Point", "coordinates": [130.4881, 32.34]}, "properties": {"title": "M 5.4 - 11 km N of Tsunagi, Japan", "summary": "M5.4 depth 10km", "date": "2026-07-29", "severity": 8, "source": "usgs"}}, {"type": "Feature", "geometry": {"type": "Point", "coordinates": [-172.8179, -17.8256]}, "properties": {"title": "M 5.4 - 153 km NE of Neiafu, Tonga", "summary": "M5.4 depth 10km", "date": "2026-07-29", "severity": 8, "source": "usgs"}}, {"type": "Feature", "geometry": {"type": "Point", "coordinates": [-176.6372, -28.5591]}, "properties": {"title": "M 5.2 - Kermadec Islands region", "summary": "M5.2 depth 10km", "date": "2026-07-29", "severity": 7, "source": "usgs"}}, {"type": "Feature", "geometry": {"type": "Point", "coordinates": [-175.2721, -24.6282]}, "properties": {"title": "M 5.1 - south of Tonga", "summary": "M5.1 depth 10km", "date": "2026-07-29", "severity": 7, "source": "usgs"}}, {"type": "Feature", "geometry": {"type": "Point", "coordinates": [122.8525, 15.2694]}, "properties": {"title": "M 5.1 - 79 km NE of Casuguran, Philippines", "summary": "M5.1 depth 10km", "date": "2026-07-29", "severity": 7, "source": "usgs"}}, {"type": "Feature", "geometry": {"type": "Point", "coordinates": [-176.7131, -28.6804]}, "properties": {"title": "M 5.1 - Kermadec Islands region", "summary": "M5.1 depth 35km", "date": "2026-07-29", "severity": 7, "source": "usgs"}}, {"type": "Feature", "geometry": {"type": "Point", "coordinates": [-175.2899, -24.6958]}, "properties": {"title": "M 5.0 - south of Tonga", "summary": "M5.0 depth 10km", "date": "2026-07-29", "severity": 7, "source": "usgs"}}, {"type": "Feature", "geometry": {"type": "Point", "coordinates": [124.9945, 5.3176]}, "properties": {"title": "M 5.0 - 48 km SW of Balangonan, Philippines", "summary": "M5.0 depth 63.992km", "date": "2026-07-29", "severity": 7, "source": "usgs"}}, {"type": "Feature", "geometry": {"type": "Point", "coordinates": [125.3648, 5.6157]}, "properties": {"title": "M 5.0 - 4 km NNE of Balangonan, Philippines", "summary": "M5.0 depth 54.238km", "date": "2026-07-29", "severity": 7, "source": "usgs"}}, {"type": "Feature", "geometry": {"type": "Point", "coordinates": [-27.3636, -55.8769]}, "properties": {"title": "M 5.0 - South Sandwich Islands region", "summary": "M5.0 depth 60.675km", "date": "2026-07-29", "severity": 7, "source": "usgs"}}, {"type": "Feature", "geometry": {"type": "Point", "coordinates": [-174.924, -24.6364]}, "properties": {"title": "M 5.0 - south of Tonga", "summary": "M5.0 depth 10km", "date": "2026-07-29", "severity": 7, "source": "usgs"}}, {"type": "Feature", "geometry": {"type": "Point", "coordinates": [115.3704551, 22.7891796]}, "properties": {"title": "[Red] Flood in China", "summary": "Flood \u00b7 Red alert \u00b7 China \u00b7 Magnitude 0 ", "date": "2026-07-25", "severity": 8, "source": "gdacs"}}, {"type": "Feature", "geometry": {"type": "Point", "coordinates": [115.02738140000004, 23.50381360000003]}, "properties": {"title": "[Red] Flood in China", "summary": "Flood \u00b7 Red alert \u00b7 China \u00b7 Magnitude 0 ", "date": "2026-07-25", "severity": 8, "source": "gdacs"}}, {"type": "Feature", "geometry": {"type": "Point", "coordinates": [104.77912847318468, 34.451698469877954]}, "properties": {"title": "[Red] Flood in China", "summary": "Flood \u00b7 Red alert \u00b7 China \u00b7 Magnitude 0 ", "date": "2026-07-25", "severity": 8, "source": "gdacs"}}, {"type": "Feature", "geometry": {"type": "Point", "coordinates": [-1.0327725868683497, 44.84630606211697]}, "properties": {"title": "[Red] Forest fires in France", "summary": "Wildfire \u00b7 Red alert \u00b7 France \u00b7 Red impact for forestfire in 47873 ha", "date": "2026-07-22", "severity": 8, "source": "gdacs"}}, {"type": "Feature", "geometry": {"type": "Point", "coordinates": [99.5198, 35.3685]}, "properties": {"title": "[Orange] Earthquake in China", "summary": "Earthquake \u00b7 Orange alert \u00b7 China \u00b7 Magnitude 5.7M, Depth:10km", "date": "2026-07-28", "severity": 6, "source": "gdacs"}}, {"type": "Feature", "geometry": {"type": "Point", "coordinates": [99.5513, 35.3866]}, "properties": {"title": "[Orange] Earthquake in China", "summary": "Earthquake \u00b7 Orange alert \u00b7 China \u00b7 Magnitude 5.8M, Depth:10km", "date": "2026-07-28", "severity": 6, "source": "gdacs"}}, {"type": "Feature", "geometry": {"type": "Point", "coordinates": [130.7217, 32.6817]}, "properties": {"title": "[Orange] Earthquake in Japan", "summary": "Earthquake \u00b7 Orange alert \u00b7 Japan \u00b7 Magnitude 6.8M, Depth:10km", "date": "2026-07-28", "severity": 6, "source": "gdacs"}}, {"type": "Feature", "geometry": {"type": "Point", "coordinates": [114.5, 22.9]}, "properties": {"title": "[Orange] Tropical Cyclone NOUL-26", "summary": "Tropical Cyclone \u00b7 Orange alert \u00b7 China, Philippines \u00b7 Hurricane/Typhoon > 74 mph (maximum wind speed of 157 km/h)", "date": "2026-07-23", "severity": 6, "source": "gdacs"}}, {"type": "Feature", "geometry": {"type": "Point", "coordinates": [8.542756833859476, 36.26101633365732]}, "properties": {"title": "[Orange] Forest fires in Tunisia", "summary": "Wildfire \u00b7 Orange alert \u00b7 Tunisia \u00b7 Orange impact for forestfire in 11824 ha", "date": "2026-07-21", "severity": 6, "source": "gdacs"}}, {"type": "Feature", "geometry": {"type": "Point", "coordinates": [-0.2540601912549849, 39.88627044192625]}, "properties": {"title": "[Orange] Forest fires in Spain", "summary": "Wildfire \u00b7 Orange alert \u00b7 Spain \u00b7 Orange impact for forestfire in 13346 ha", "date": "2026-07-25", "severity": 6, "source": "gdacs"}}, {"type": "Feature", "geometry": {"type": "Point", "coordinates": [-4.540471147982623, 40.35943121215607]}, "properties": {"title": "[Orange] Forest fires in Spain", "summary": "Wildfire \u00b7 Orange alert \u00b7 Spain \u00b7 Orange impact for forestfire in 66098 ha", "date": "2026-07-22", "severity": 6, "source": "gdacs"}}, {"type": "Feature", "geometry": {"type": "Point", "coordinates": [47.604, -17.289]}, "properties": {"title": "[Orange] Drought in Madagascar", "summary": "Drought \u00b7 Orange alert \u00b7 Madagascar \u00b7 Medium impact for agricultural drought in 283053 km2", "date": "2025-11-21", "severity": 6, "source": "gdacs"}}, {"type": "Feature", "geometry": {"type": "Point", "coordinates": [47.587483646569844, -17.307761022921163]}, "properties": {"title": "[Orange] Drought in Madagascar", "summary": "Drought \u00b7 Orange alert \u00b7 Madagascar \u00b7 Medium impact for agricultural drought in 283053 km2", "date": "2025-11-21", "severity": 6, "source": "gdacs"}}, {"type": "Feature", "geometry": {"type": "Point", "coordinates": [44.618, 6.545]}, "properties": {"title": "[Orange] Drought in Ethiopia, Kenya, Somalia", "summary": "Drought \u00b7 Orange alert \u00b7 Ethiopia, Kenya, Somalia \u00b7 Medium impact for agricultural drought in 488851 km2", "date": "2026-04-21", "severity": 6, "source": "gdacs"}}, {"type": "Feature", "geometry": {"type": "Point", "coordinates": [44.62490036931999, 6.550521499241894]}, "properties": {"title": "[Orange] Drought in Ethiopia, Kenya, Somalia", "summary": "Drought \u00b7 Orange alert \u00b7 Ethiopia, Kenya, Somalia \u00b7 Medium impact for agricultural drought in 488851 km2", "date": "2026-04-21", "severity": 6, "source": "gdacs"}}, {"type": "Feature", "geometry": {"type": "Point", "coordinates": [12.774, 47.568]}, "properties": {"title": "[Orange] Drought in Albania, Austria, Bosnia  and  Herzegovina, Bulgaria, Belarus, Switzerland, Czech Republic, Germany, Denmark, Spain, France, Croatia, Hungary, Italy, Liechtenstein, Monaco, Montenegro, The Republic of North Macedonia, Poland, Romania, Serbia, Russia, Sweden, Slovakia, San Marino, Ukraine, , ", "summary": "Drought \u00b7 Orange alert \u00b7 Albania, Austria, Bosnia & Herzegovina, Bulgaria, Belarus, Switzerland, Czech Republic, Germany, Denmark, Spain, France, Croatia, Hungary, Italy, Liechtenstein, Monaco, Montenegro, The Republic of North Macedonia, Poland, Romania, Serbia, Russia, Sweden, Slovakia, San Marino, Ukraine, ,  \u00b7 Medium impact for agricultural drought in 1508099 km2", "date": "2025-12-11", "severity": 6, "source": "gdacs"}}, {"type": "Feature", "geometry": {"type": "Point", "coordinates": [12.292075305967401, 47.81565995820329]}, "properties": {"title": "[Orange] Drought in Albania, Austria, Bosnia  and  Herzegovina, Bulgaria, Belarus, Switzerland, Czech Republic, Germany, Denmark, Spain, France, Croatia, Hungary, Italy, Liechtenstein, Monaco, Montenegro, The Republic of North Macedonia, Poland, Romania, Serbia, Russia, Sweden, Slovakia, San Marino, Ukraine, , ", "summary": "Drought \u00b7 Orange alert \u00b7 Albania, Austria, Bosnia & Herzegovina, Bulgaria, Belarus, Switzerland, Czech Republic, Germany, Denmark, Spain, France, Croatia, Hungary, Italy, Liechtenstein, Monaco, Montenegro, The Republic of North Macedonia, Poland, Romania, Serbia, Russia, Sweden, Slovakia, San Marino, Ukraine, ,  \u00b7 Medium impact for agricultural drought in 1508099 km2", "date": "2025-12-11", "severity": 6, "source": "gdacs"}}]}