{
  "type": "FeatureCollection",
  "features": [
    {
      "type": "Feature",
      "geometry": {
        "type": "Point",
        "coordinates": [
          37.0,
          46.0
        ]
      },
      "properties": {
        "title": "Ukraine Sea of Azov tanker campaign",
        "summary": "Ukraine struck 42+ Russian shadow fleet tankers July 6-10; 55% AIS vessel decline; Russia halted Volga-Don Canal",
        "date": "2026-07-12",
        "severity": 8,
        "source": "acled"
      }
    },
    {
      "type": "Feature",
      "geometry": {
        "type": "Point",
        "coordinates": [
          37.7,
          48.5
        ]
      },
      "properties": {
        "title": "Ukraine frontline - Donetsk (Kostyantynivka-Druzhkivka)",
        "summary": "Russian advances in Kostyantynivka-Druzhkivka tactical area; Ukrainian advances in Novopavlivka direction; net Russian +6 sq mi in 4 weeks",
        "date": "2026-07-12",
        "severity": 7,
        "source": "acled"
      }
    },
    {
      "type": "Feature",
      "geometry": {
        "type": "Point",
        "coordinates": [
          34.1,
          47.6
        ]
      },
      "properties": {
        "title": "Dnipropetrovsk - Nikopol evacuation expansion",
        "summary": "Mandatory evacuation declared for Vyschchetarasivka (Nikopol) and Vasylkivka (Synelnykove); roads cut by drone/artillery",
        "date": "2026-07-10",
        "severity": 6,
        "source": "acled"
      }
    },
    {
      "type": "Feature",
      "geometry": {
        "type": "Point",
        "coordinates": [
          35.2,
          47.8
        ]
      },
      "properties": {
        "title": "Zaporizhzhia - residential drone fire",
        "summary": "Roof fire on residential house following drone strike; glide bomb strikes ongoing",
        "date": "2026-07-08",
        "severity": 5,
        "source": "acled"
      }
    },
    {
      "type": "Feature",
      "geometry": {
        "type": "Point",
        "coordinates": [
          33.5,
          44.6
        ]
      },
      "properties": {
        "title": "Sevastopol - reported explosion",
        "summary": "Explosion reported in Sevastopol, Crimea",
        "date": "2026-07-10",
        "severity": 5,
        "source": "acled"
      }
    },
    {
      "type": "Feature",
      "geometry": {
        "type": "Point",
        "coordinates": [
          38.7,
          44.9
        ]
      },
      "properties": {
        "title": "Ilskiy oil refinery - drone strike",
        "summary": "Ukrainian drone attack on Ilskiy oil refinery in Krasnodar Krai; part of campaign reducing Russian gasoline output 35%",
        "date": "2026-07-10",
        "severity": 7,
        "source": "firms"
      }
    },
    {
      "type": "Feature",
      "geometry": {
        "type": "Point",
        "coordinates": [
          36.3,
          33.5
        ]
      },
      "properties": {
        "title": "Damascus - explosions during Macron visit",
        "summary": "Two IED blasts near Four Seasons Hotel, 18 wounded, 4 police; Macron meeting al-Sharaa continued; no group claimed",
        "date": "2026-07-07",
        "severity": 5,
        "source": "acled"
      }
    },
    {
      "type": "Feature",
      "geometry": {
        "type": "Point",
        "coordinates": [
          35.6,
          33.4
        ]
      },
      "properties": {
        "title": "Khiam, South Lebanon - IDF demolitions",
        "summary": "Successive overnight explosions in Khiam; Israel refusing to begin withdrawal from pilot zones; 4 killed in Nabatieh airstrike Jul 6",
        "date": "2026-07-11",
        "severity": 7,
        "source": "acled"
      }
    },
    {
      "type": "Feature",
      "geometry": {
        "type": "Point",
        "coordinates": [
          34.3,
          31.3
        ]
      },
      "properties": {
        "title": "Gaza - ceasefire holding but fragile",
        "summary": "Ceasefire broadly holds; Israel conducting daily strikes citing 'imminent threats'; 1,000+ Gazans killed near GHF food sites; Phase 2 negotiations active",
        "date": "2026-07-12",
        "severity": 8,
        "source": "acled"
      }
    },
    {
      "type": "Feature",
      "geometry": {
        "type": "Point",
        "coordinates": [
          56.3,
          26.3
        ]
      },
      "properties": {
        "title": "Persian Gulf - Iran maritime escalations",
        "summary": "Iran fired at 3 commercial vessels Jul 6-7; July 8 ceasefire collapsed; grey-zone conflict; Qatar demands Iran cease maritime threats",
        "date": "2026-07-08",
        "severity": 8,
        "source": "acled"
      }
    },
    {
      "type": "Feature",
      "geometry": {
        "type": "Point",
        "coordinates": [
          30.2,
          13.2
        ]
      },
      "properties": {
        "title": "El Obeid, North Kordofan - RSF siege",
        "summary": "RSF drone strikes encircling El Obeid, 500k people trapped; mirrors El Fasher pattern; Amnesty: crimes against humanity; 33.7M Sudanese facing acute hunger",
        "date": "2026-07-12",
        "severity": 9,
        "source": "acled"
      }
    },
    {
      "type": "Feature",
      "geometry": {
        "type": "Point",
        "coordinates": [
          2.0,
          14.0
        ]
      },
      "properties": {
        "title": "Mali - JNIM/FLA coordinated offensives",
        "summary": "Largest Mali offensive since 2012: attacks in Bourem, Bamako, Kati, S\u00e9var\u00e9, Senou, Mopti (April 2026); JNIM expanding toward Gulf of Guinea",
        "date": "2026-04-25",
        "severity": 7,
        "source": "acled"
      }
    },
    {
      "type": "Feature",
      "geometry": {
        "type": "Point",
        "coordinates": [
          115.0,
          12.5
        ]
      },
      "properties": {
        "title": "PLA - first SLBM test into open Pacific",
        "summary": "China fired JL-2/3 SLBM from submarine through South China Sea, over Philippine Luzon, landing between Nauru and Tonga; first-ever test into international open waters; signals CASD posture shift",
        "date": "2026-07-06",
        "severity": 9,
        "source": "acled"
      }
    },
    {
      "type": "Feature",
      "geometry": {
        "type": "Point",
        "coordinates": [
          123.1,
          10.4
        ]
      },
      "properties": {
        "title": "Kanlaon Volcano, Philippines - eruption",
        "summary": "Moderately explosive eruption July 9, 3-min duration, 2-3km ash plume, ashfall to Cebu; Alert Level 2 maintained; 4th eruption of 2026",
        "date": "2026-07-09",
        "severity": 4,
        "source": "gdacs"
      }
    },
    {
      "type": "Feature",
      "geometry": {
        "type": "Point",
        "coordinates": [
          -27.0,
          -57.0
        ]
      },
      "properties": {
        "title": "M6.4 - South Sandwich Islands",
        "summary": "USGS significant earthquake M6.4, depth 26km; no tsunami warning issued",
        "date": "2026-07-11",
        "severity": 3,
        "source": "usgs"
      }
    },
    {
      "type": "Feature",
      "geometry": {
        "type": "Point",
        "coordinates": [
          122.0,
          25.5
        ]
      },
      "properties": {
        "title": "Taiwan - 4 PLAN formations, Joint Sea-2026",
        "summary": "Taiwan identified 4 Chinese naval formations in western Pacific; Joint Sea-2026 drills with Russia; Taiwan joint defense exercise begins Jul 13; follows PLA SLBM test",
        "date": "2026-07-12",
        "severity": 7,
        "source": "acled"
      }
    }
  ]
}