{"type": "FeatureCollection", "features": [{"type": "Feature", "geometry": {"type": "Point", "coordinates": [46.966, -19.706]}, "properties": {"title": "Drought is on going in Madagascar", "summary": "Drought is on going in Madagascar", "date": "2026-06-21", "severity": 5, "source": "gdacs"}}, {"type": "Feature", "geometry": {"type": "Point", "coordinates": [133, 15.4]}, "properties": {"title": "Tropical Storm Mekkhala", "summary": "Tropical Storm Mekkhala - Severe Storms", "date": "2026-06-21", "severity": 5, "source": "eonet"}}, {"type": "Feature", "geometry": {"type": "Point", "coordinates": [35.2, 31.8]}, "properties": {"title": "Israel-Lebanon conflict zone", "summary": "Israel-Lebanon conflict zone", "date": "2026-06-21", "severity": 8, "source": "acled"}}, {"type": "Feature", "geometry": {"type": "Point", "coordinates": [44.4, 33.3]}, "properties": {"title": "Iraq - IDF/IRGC tension zone", "summary": "Iraq - IDF/IRGC tension zone", "date": "2026-06-21", "severity": 6, "source": "acled"}}, {"type": "Feature", "geometry": {"type": "Point", "coordinates": [56.9, 24.7]}, "properties": {"title": "Iran Hormuz - Strait shipping resumes", "summary": "Iran Hormuz - Strait shipping resumes", "date": "2026-06-21", "severity": 7, "source": "acled"}}, {"type": "Feature", "geometry": {"type": "Point", "coordinates": [30.7, 28.4]}, "properties": {"title": "Ukraine-Russia frontline (Kursk-Donetsk)", "summary": "Ukraine-Russia frontline (Kursk-Donetsk)", "date": "2026-06-21", "severity": 9, "source": "acled"}}, {"type": "Feature", "geometry": {"type": "Point", "coordinates": [29.9, 0.5]}, "properties": {"title": "DRC Ituri - Ebola outbreak epicenter (767 cases)", "summary": "DRC Ituri - Ebola outbreak epicenter (767 cases)", "date": "2026-06-21", "severity": 8, "source": "acled"}}, {"type": "Feature", "geometry": {"type": "Point", "coordinates": [121.5, 25.0]}, "properties": {"title": "Taiwan Strait - CCG incursions (6 in 2026)", "summary": "Taiwan Strait - CCG incursions (6 in 2026)", "date": "2026-06-21", "severity": 6, "source": "acled"}}, {"type": "Feature", "geometry": {"type": "Point", "coordinates": [-1.5, 12.4]}, "properties": {"title": "Sahel jihadist corridor - JNIM/ISWAP activity", "summary": "Sahel jihadist corridor - JNIM/ISWAP activity", "date": "2026-06-21", "severity": 6, "source": "acled"}}, {"type": "Feature", "geometry": {"type": "Point", "coordinates": [-74.0, 4.7]}, "properties": {"title": "Colombia presidential runoff June 21", "summary": "Colombia presidential runoff June 21", "date": "2026-06-21", "severity": 4, "source": "acled"}}, {"type": "Feature", "geometry": {"type": "Point", "coordinates": [30.6, 47.1]}, "properties": {"title": "Ukraine theater - eastern front", "summary": "Ukraine theater - eastern front", "date": "2026-06-21", "severity": 9, "source": "acled"}}]}