{
  "type": "FeatureCollection",
  "features": [
    {
      "type": "Feature",
      "geometry": {
        "type": "Point",
        "coordinates": [
          -14.5,
          -37.2,
          10
        ]
      },
      "properties": {
        "type": "seismic",
        "magnitude": 5.6,
        "place": "southern Mid-Atlantic Ridge",
        "date": "2026-09-29"
      }
    },
    {
      "type": "Feature",
      "geometry": {
        "type": "Point",
        "coordinates": [
          -174.3,
          -21.0,
          10
        ]
      },
      "properties": {
        "type": "seismic",
        "magnitude": 5.4,
        "place": "99 km SSE of Pangai, Tonga",
        "date": "2026-09-29"
      }
    },
    {
      "type": "Feature",
      "geometry": {
        "type": "Point",
        "coordinates": [
          168.7,
          -20.8,
          10
        ]
      },
      "properties": {
        "type": "seismic",
        "magnitude": 5.3,
        "place": "76 km NE of Tadine, New Caledonia",
        "date": "2026-09-29"
      }
    },
    {
      "type": "Feature",
      "geometry": {
        "type": "Point",
        "coordinates": [
          168.8,
          -21.0,
          10
        ]
      },
      "properties": {
        "type": "seismic",
        "magnitude": 5.0,
        "place": "77 km ENE of Tadine, New Caledonia",
        "date": "2026-09-29"
      }
    },
    {
      "type": "Feature",
      "geometry": {
        "type": "Point",
        "coordinates": [
          135.5,
          34.6,
          71
        ]
      },
      "properties": {
        "type": "seismic",
        "magnitude": 4.9,
        "place": "2 km SW of Sakai, Japan",
        "date": "2026-09-29"
      }
    },
    {
      "type": "Feature",
      "geometry": {
        "type": "Point",
        "coordinates": [
          127.1,
          6.2,
          78
        ]
      },
      "properties": {
        "type": "seismic",
        "magnitude": 4.9,
        "place": "124 km SE of Pondaguitan, Philippines",
        "date": "2026-09-29"
      }
    },
    {
      "type": "Feature",
      "geometry": {
        "type": "Point",
        "coordinates": [
          29.99,
          52.846
        ]
      },
      "properties": {
        "type": "firms_thermal",
        "frp_mw": 3.64,
        "region": "Ukraine/Chernihiv",
        "date": "2026-09-28"
      }
    },
    {
      "type": "Feature",
      "geometry": {
        "type": "Point",
        "coordinates": [
          34.533,
          52.266
        ]
      },
      "properties": {
        "type": "firms_thermal",
        "frp_mw": 1.03,
        "region": "Ukraine/Sumy",
        "date": "2026-09-28"
      }
    },
    {
      "type": "Feature",
      "geometry": {
        "type": "Point",
        "coordinates": [
          34.092,
          51.656
        ]
      },
      "properties": {
        "type": "firms_thermal",
        "frp_mw": 0.48,
        "region": "Ukraine/Sumy",
        "date": "2026-09-28"
      }
    },
    {
      "type": "Feature",
      "geometry": {
        "type": "Point",
        "coordinates": [
          29.339,
          51.895
        ]
      },
      "properties": {
        "type": "firms_thermal",
        "frp_mw": 0.75,
        "region": "Ukraine/Chernihiv",
        "date": "2026-09-28"
      }
    },
    {
      "type": "Feature",
      "geometry": {
        "type": "Point",
        "coordinates": [
          56.2,
          26.6
        ]
      },
      "properties": {
        "type": "blockade",
        "label": "Strait of Hormuz blockaded",
        "polymarket_resolve_by_sep30": "0%",
        "date": "2026-09-29"
      }
    },
    {
      "type": "Feature",
      "geometry": {
        "type": "Point",
        "coordinates": [
          30.52,
          50.45
        ]
      },
      "properties": {
        "type": "missile_incident",
        "label": "Kyiv: 2 ballistic missiles unexploded, defused",
        "casualties": 1,
        "date": "2026-09-29"
      }
    },
    {
      "type": "Feature",
      "geometry": {
        "type": "Point",
        "coordinates": [
          128.0,
          51.5
        ]
      },
      "properties": {
        "type": "military_incident",
        "label": "Russia: Tu-95 crash near Krasnoarovo, Amur Oblast",
        "date": "2026-09-29"
      }
    }
  ]
}
