{
  "type": "FeatureCollection",
  "features": [
    {
      "type": "Feature",
      "geometry": {
        "type": "Point",
        "coordinates": [
          0,
          0
        ]
      },
      "properties": {
        "title": "M5.0 earthquake: 42 km SSW of Jurm, Afghanistan",
        "summary": "M5.2 \u00b7 42 km SSW of Jurm, Afghanistan \u00b7 depth 207.008 km",
        "date": "2026-06-22",
        "severity": 2,
        "source": "usgs"
      }
    },
    {
      "type": "Feature",
      "geometry": {
        "type": "Point",
        "coordinates": [
          0,
          0
        ]
      },
      "properties": {
        "title": "M5.0 earthquake: Kermadec Islands region",
        "summary": "M5.1 \u00b7 Kermadec Islands region \u00b7 depth 28.23 km",
        "date": "2026-06-22",
        "severity": 2,
        "source": "usgs"
      }
    },
    {
      "type": "Feature",
      "geometry": {
        "type": "Point",
        "coordinates": [
          0,
          0
        ]
      },
      "properties": {
        "title": "M5.0 earthquake: Mid-Indian Ridge",
        "summary": "M4.9 \u00b7 Mid-Indian Ridge \u00b7 depth 10 km",
        "date": "2026-06-22",
        "severity": 2,
        "source": "usgs"
      }
    },
    {
      "type": "Feature",
      "geometry": {
        "type": "Point",
        "coordinates": [
          0,
          0
        ]
      },
      "properties": {
        "title": "M5.0 earthquake: 260 km SSW of \u2018Ohonua, Tonga",
        "summary": "M4.9 \u00b7 260 km SSW of \u2018Ohonua, Tonga \u00b7 depth 10 km",
        "date": "2026-06-22",
        "severity": 2,
        "source": "usgs"
      }
    },
    {
      "type": "Feature",
      "geometry": {
        "type": "Point",
        "coordinates": [
          0,
          0
        ]
      },
      "properties": {
        "title": "M5.0 earthquake: 68 km WNW of Tobelo, Indonesia",
        "summary": "M4.9 \u00b7 68 km WNW of Tobelo, Indonesia \u00b7 depth 124.932 km",
        "date": "2026-06-22",
        "severity": 2,
        "source": "usgs"
      }
    },
    {
      "type": "Feature",
      "geometry": {
        "type": "Point",
        "coordinates": [
          0,
          0
        ]
      },
      "properties": {
        "title": "M5.0 earthquake: 276 km SSW of \u2018Ohonua, Tonga",
        "summary": "M4.8 \u00b7 276 km SSW of \u2018Ohonua, Tonga \u00b7 depth 35 km",
        "date": "2026-06-22",
        "severity": 2,
        "source": "usgs"
      }
    },
    {
      "type": "Feature",
      "geometry": {
        "type": "Point",
        "coordinates": [
          0,
          0
        ]
      },
      "properties": {
        "title": "M5.0 earthquake: 90 km SW of Pagar Alam, Indonesia",
        "summary": "M4.8 \u00b7 90 km SW of Pagar Alam, Indonesia \u00b7 depth 63.348 km",
        "date": "2026-06-22",
        "severity": 2,
        "source": "usgs"
      }
    },
    {
      "type": "Feature",
      "geometry": {
        "type": "Point",
        "coordinates": [
          0,
          0
        ]
      },
      "properties": {
        "title": "M5.0 earthquake: Fiji region",
        "summary": "M4.8 \u00b7 Fiji region \u00b7 depth 531.757 km",
        "date": "2026-06-22",
        "severity": 2,
        "source": "usgs"
      }
    },
    {
      "type": "Feature",
      "geometry": {
        "type": "Point",
        "coordinates": [
          0,
          0
        ]
      },
      "properties": {
        "title": "M5.0 earthquake: 76 km E of Kimbe, Papua New Guinea",
        "summary": "M4.8 \u00b7 76 km E of Kimbe, Papua New Guinea \u00b7 depth 108.069 km",
        "date": "2026-06-22",
        "severity": 2,
        "source": "usgs"
      }
    },
    {
      "type": "Feature",
      "geometry": {
        "type": "Point",
        "coordinates": [
          0,
          0
        ]
      },
      "properties": {
        "title": "M5.0 earthquake: 17 km WSW of Burias, Philippines",
        "summary": "M4.8 \u00b7 17 km WSW of Burias, Philippines \u00b7 depth 10.006 km",
        "date": "2026-06-22",
        "severity": 2,
        "source": "usgs"
      }
    },
    {
      "type": "Feature",
      "geometry": {
        "type": "Point",
        "coordinates": [
          0,
          0
        ]
      },
      "properties": {
        "title": "M5.0 earthquake: 275 km SSW of \u2018Ohonua, Tonga",
        "summary": "M4.7 \u00b7 275 km SSW of \u2018Ohonua, Tonga \u00b7 depth 109.246 km",
        "date": "2026-06-22",
        "severity": 2,
        "source": "usgs"
      }
    },
    {
      "type": "Feature",
      "geometry": {
        "type": "Point",
        "coordinates": [
          0,
          0
        ]
      },
      "properties": {
        "title": "M5.0 earthquake: 103 km SSW of Puerto El Triunfo, El Salvador",
        "summary": "M4.7 \u00b7 103 km SSW of Puerto El Triunfo, El Salvador \u00b7 depth 10 km",
        "date": "2026-06-22",
        "severity": 2,
        "source": "usgs"
      }
    },
    {
      "type": "Feature",
      "geometry": {
        "type": "Point",
        "coordinates": [
          0,
          0
        ]
      },
      "properties": {
        "title": "M5.0 earthquake: 56 km S of Puerto San Jos\u00e9, Guatemala",
        "summary": "M4.7 \u00b7 56 km S of Puerto San Jos\u00e9, Guatemala \u00b7 depth 45.812 km",
        "date": "2026-06-22",
        "severity": 2,
        "source": "usgs"
      }
    },
    {
      "type": "Feature",
      "geometry": {
        "type": "Point",
        "coordinates": [
          0,
          0
        ]
      },
      "properties": {
        "title": "M5.0 earthquake: 125 km SSE of Kuril\u2019sk, Russia",
        "summary": "M4.6 \u00b7 125 km SSE of Kuril\u2019sk, Russia \u00b7 depth 35 km",
        "date": "2026-06-22",
        "severity": 2,
        "source": "usgs"
      }
    },
    {
      "type": "Feature",
      "geometry": {
        "type": "Point",
        "coordinates": [
          0,
          0
        ]
      },
      "properties": {
        "title": "M5.0 earthquake: Kuril Islands",
        "summary": "M4.6 \u00b7 Kuril Islands \u00b7 depth 33.879 km",
        "date": "2026-06-22",
        "severity": 2,
        "source": "usgs"
      }
    },
    {
      "type": "Feature",
      "geometry": {
        "type": "Point",
        "coordinates": [
          0,
          0
        ]
      },
      "properties": {
        "title": "M5.0 earthquake: 53 km NNE of Tobelo, Indonesia",
        "summary": "M4.6 \u00b7 53 km NNE of Tobelo, Indonesia \u00b7 depth 179.831 km",
        "date": "2026-06-22",
        "severity": 2,
        "source": "usgs"
      }
    },
    {
      "type": "Feature",
      "geometry": {
        "type": "Point",
        "coordinates": [
          36.4534072,
          37.2401223
        ]
      },
      "properties": {
        "title": "Green flood alert in T\u00fcrkiye",
        "summary": "On 28/06/2026, a flood started in T\u00fcrkiye, lasting until 30/06/2026 (last update). The flood caused 0 deaths and 0 displaced .",
        "date": "2026-06-22",
        "severity": 3,
        "source": "gdacs"
      }
    },
    {
      "type": "Feature",
      "geometry": {
        "type": "Point",
        "coordinates": [
          144.9,
          14.8
        ]
      },
      "properties": {
        "title": "Green notification for tropical cyclone HIGOS-26. Population affected by Category 1 (120 km/h) wind speeds or higher is 0  (0 in Tropical Storm).",
        "summary": "From 22/06/2026 to 23/06/2026, a Tropical Storm (maximum wind speed of 111 km/h) HIGOS-26 was active in NWPacific. The cyclone affects these countries: Northern Mariana Islands, Guam (vulnerability Me",
        "date": "2026-06-22",
        "severity": 3,
        "source": "gdacs"
      }
    },
    {
      "type": "Feature",
      "geometry": {
        "type": "Point",
        "coordinates": [
          142.53756481778242,
          -12.80817578776608
        ]
      },
      "properties": {
        "title": "Green forest fire notification in Australia",
        "summary": "On 22/06/2026, a forest fire started in Australia,  until 22/06/2026.",
        "date": "2026-06-22",
        "severity": 3,
        "source": "gdacs"
      }
    },
    {
      "type": "Feature",
      "geometry": {
        "type": "Point",
        "coordinates": [
          22.3481728,
          47.3819953
        ]
      },
      "properties": {
        "title": "Green flood alert in Romania",
        "summary": "On 21/06/2026, a flood started in Romania, lasting until 23/06/2026 (last update). The flood caused 0 deaths and 0 displaced .",
        "date": "2026-06-22",
        "severity": 3,
        "source": "gdacs"
      }
    },
    {
      "type": "Feature",
      "geometry": {
        "type": "Point",
        "coordinates": [
          138.78054098778668,
          -17.518805224529856
        ]
      },
      "properties": {
        "title": "Green forest fire notification in Australia",
        "summary": "On 21/06/2026, a forest fire started in Australia,  until 22/06/2026.",
        "date": "2026-06-22",
        "severity": 3,
        "source": "gdacs"
      }
    },
    {
      "type": "Feature",
      "geometry": {
        "type": "Point",
        "coordinates": [
          -13.2711,
          -7.0346
        ]
      },
      "properties": {
        "title": "Green earthquake (Magnitude 5.5M, Depth:10km) in St. Helena 20/06/2026 06:43 UTC, Few people affected in MMI III.",
        "summary": "On 6/20/2026 6:43:17 AM, an earthquake occurred in St. Helena potentially affecting Few people affected in MMI III. The earthquake had Magnitude 5.5M, Depth:10km.",
        "date": "2026-06-22",
        "severity": 3,
        "source": "gdacs"
      }
    },
    {
      "type": "Feature",
      "geometry": {
        "type": "Point",
        "coordinates": [
          160.6412,
          52.7287
        ]
      },
      "properties": {
        "title": "Green earthquake (Magnitude 5.8M, Depth:35km) in Russia 20/06/2026 03:49 UTC, 250 thousand in MMI&gt;=III.",
        "summary": "On 6/20/2026 3:49:06 AM, an earthquake occurred in Russia potentially affecting 250 thousand in MMI&gt;=III. The earthquake had Magnitude 5.8M, Depth:35km.",
        "date": "2026-06-22",
        "severity": 3,
        "source": "gdacs"
      }
    },
    {
      "type": "Feature",
      "geometry": {
        "type": "Point",
        "coordinates": [
          147.9179,
          -57.129
        ]
      },
      "properties": {
        "title": "Green earthquake (Magnitude 5.7M, Depth:10km) in West Of Macquarie Island 20/06/2026 01:46 UTC, [unknown].",
        "summary": "On 6/20/2026 1:46:32 AM, an earthquake occurred in West Of Macquarie Island potentially affecting [unknown]. The earthquake had Magnitude 5.7M, Depth:10km.",
        "date": "2026-06-22",
        "severity": 3,
        "source": "gdacs"
      }
    },
    {
      "type": "Feature",
      "geometry": {
        "type": "Point",
        "coordinates": [
          -73.8471749,
          45.4955083
        ]
      },
      "properties": {
        "title": "Green flood alert in Canada",
        "summary": "On 20/06/2026, a flood started in Canada, lasting until 22/06/2026 (last update). The flood caused 0 deaths and 10 displaced .",
        "date": "2026-06-22",
        "severity": 3,
        "source": "gdacs"
      }
    },
    {
      "type": "Feature",
      "geometry": {
        "type": "Point",
        "coordinates": [
          14.0103663,
          49.6901444
        ]
      },
      "properties": {
        "title": "Green flood alert in Czech Republic",
        "summary": "On 20/06/2026, a flood started in Czech Republic, lasting until 22/06/2026 (last update). The flood caused 0 deaths and 0 displaced .",
        "date": "2026-06-22",
        "severity": 3,
        "source": "gdacs"
      }
    },
    {
      "type": "Feature",
      "geometry": {
        "type": "Point",
        "coordinates": [
          4.841761,
          50.4613937
        ]
      },
      "properties": {
        "title": "Green flood alert in Belgium",
        "summary": "On 20/06/2026, a flood started in Belgium, lasting until 22/06/2026 (last update). The flood caused 0 deaths and 0 displaced .",
        "date": "2026-06-22",
        "severity": 3,
        "source": "gdacs"
      }
    },
    {
      "type": "Feature",
      "geometry": {
        "type": "Point",
        "coordinates": [
          -112.15158743177098,
          40.007918384519144
        ]
      },
      "properties": {
        "title": "Green forest fire notification in United States",
        "summary": "On 20/06/2026, a forest fire started in United States,  until 22/06/2026.",
        "date": "2026-06-22",
        "severity": 3,
        "source": "gdacs"
      }
    },
    {
      "type": "Feature",
      "geometry": {
        "type": "Point",
        "coordinates": [
          130.72395562892453,
          -12.843943212311014
        ]
      },
      "properties": {
        "title": "Green forest fire notification in Australia",
        "summary": "On 20/06/2026, a forest fire started in Australia,  until 23/06/2026.",
        "date": "2026-06-22",
        "severity": 3,
        "source": "gdacs"
      }
    },
    {
      "type": "Feature",
      "geometry": {
        "type": "Point",
        "coordinates": [
          127.03877204693619,
          -15.073942738450981
        ]
      },
      "properties": {
        "title": "Green forest fire notification in Australia",
        "summary": "On 20/06/2026, a forest fire started in Australia,  until 23/06/2026.",
        "date": "2026-06-22",
        "severity": 3,
        "source": "gdacs"
      }
    },
    {
      "type": "Feature",
      "geometry": {
        "type": "Point",
        "coordinates": [
          126.28582207540872,
          -16.34486278927143
        ]
      },
      "properties": {
        "title": "Green forest fire notification in Australia",
        "summary": "On 20/06/2026, a forest fire started in Australia,  until 23/06/2026.",
        "date": "2026-06-22",
        "severity": 3,
        "source": "gdacs"
      }
    },
    {
      "type": "Feature",
      "geometry": {
        "type": "Point",
        "coordinates": [
          131.15173893482924,
          -12.685357061578177
        ]
      },
      "properties": {
        "title": "Green forest fire notification in Australia",
        "summary": "On 20/06/2026, a forest fire started in Australia,  until 22/06/2026.",
        "date": "2026-06-22",
        "severity": 3,
        "source": "gdacs"
      }
    },
    {
      "type": "Feature",
      "geometry": {
        "type": "Point",
        "coordinates": [
          161.1149,
          52.7355
        ]
      },
      "properties": {
        "title": "Green earthquake (Magnitude 5.8M, Depth:10km) in Russia 19/06/2026 07:52 UTC, 240 thousand in MMI&gt;=III.",
        "summary": "On 6/19/2026 7:52:57 AM, an earthquake occurred in Russia potentially affecting 240 thousand in MMI&gt;=III. The earthquake had Magnitude 5.8M, Depth:10km.",
        "date": "2026-06-22",
        "severity": 3,
        "source": "gdacs"
      }
    },
    {
      "type": "Feature",
      "geometry": {
        "type": "Point",
        "coordinates": [
          160.5652,
          52.7943
        ]
      },
      "properties": {
        "title": "Green earthquake (Magnitude 6.6M, Depth:10km) in Russia 19/06/2026 06:52 UTC, Few people affected in MMI&gt;=V.",
        "summary": "On 6/19/2026 6:52:34 AM, an earthquake occurred in Russia potentially affecting Few people affected in MMI&gt;=V. The earthquake had Magnitude 6.6M, Depth:10km.",
        "date": "2026-06-22",
        "severity": 3,
        "source": "gdacs"
      }
    },
    {
      "type": "Feature",
      "geometry": {
        "type": "Point",
        "coordinates": [
          160.8644,
          52.69
        ]
      },
      "properties": {
        "title": "Green earthquake (Magnitude 6M, Depth:28.383km) in Russia 19/06/2026 06:51 UTC, 8 thousand in MMI IV.",
        "summary": "On 6/19/2026 6:51:31 AM, an earthquake occurred in Russia potentially affecting 8 thousand in MMI IV. The earthquake had Magnitude 6M, Depth:28.383km.",
        "date": "2026-06-22",
        "severity": 3,
        "source": "gdacs"
      }
    },
    {
      "type": "Feature",
      "geometry": {
        "type": "Point",
        "coordinates": [
          -2.5607492,
          5.6166083
        ]
      },
      "properties": {
        "title": "Green flood alert in Ghana",
        "summary": "On 19/06/2026, a flood started in Ghana, lasting until 21/06/2026 (last update). The flood caused 2 deaths and 1340 displaced .",
        "date": "2026-06-22",
        "severity": 3,
        "source": "gdacs"
      }
    }
  ]
}