{"type": "FeatureCollection", "features": [{"type": "Feature", "geometry": {"type": "Point", "coordinates": [34.66953, 47.17239]}, "properties": {"title": "FIRMS thermal anomaly 20.9 MW", "summary": "VIIRS S-NPP NRT, sat N, acquired 2026-08-22 0930Z, FRP 20.89 MW", "date": "2026-08-22", "severity": 1, "source": "firms"}}, {"type": "Feature", "geometry": {"type": "Point", "coordinates": [33.30659, 47.29337]}, "properties": {"title": "FIRMS thermal anomaly 109.0 MW", "summary": "VIIRS S-NPP NRT, sat N, acquired 2026-08-22 0930Z, FRP 108.99 MW", "date": "2026-08-22", "severity": 5, "source": "firms"}}, {"type": "Feature", "geometry": {"type": "Point", "coordinates": [33.30216, 47.29922]}, "properties": {"title": "FIRMS thermal anomaly 109.0 MW", "summary": "VIIRS S-NPP NRT, sat N, acquired 2026-08-22 0930Z, FRP 108.99 MW", "date": "2026-08-22", "severity": 5, "source": "firms"}}, {"type": "Feature", "geometry": {"type": "Point", "coordinates": [33.29485, 47.29669]}, "properties": {"title": "FIRMS thermal anomaly 94.7 MW", "summary": "VIIRS S-NPP NRT, sat N, acquired 2026-08-22 0930Z, FRP 94.68 MW", "date": "2026-08-22", "severity": 4, "source": "firms"}}, {"type": "Feature", "geometry": {"type": "Point", "coordinates": [33.28777, 47.29424]}, "properties": {"title": "FIRMS thermal anomaly 94.7 MW", "summary": "VIIRS S-NPP NRT, sat N, acquired 2026-08-22 0930Z, FRP 94.68 MW", "date": "2026-08-22", "severity": 4, "source": "firms"}}, {"type": "Feature", "geometry": {"type": "Point", "coordinates": [33.30589, 47.29286]}, "properties": {"title": "FIRMS thermal anomaly 94.6 MW", "summary": "VIIRS S-NPP NRT, sat N, acquired 2026-08-22 0930Z, FRP 94.6 MW", "date": "2026-08-22", "severity": 4, "source": "firms"}}, {"type": "Feature", "geometry": {"type": "Point", "coordinates": [33.30147, 47.29871]}, "properties": {"title": "FIRMS thermal anomaly 94.6 MW", "summary": "VIIRS S-NPP NRT, sat N, acquired 2026-08-22 0930Z, FRP 94.6 MW", "date": "2026-08-22", "severity": 4, "source": "firms"}}, {"type": "Feature", "geometry": {"type": "Point", "coordinates": [33.29422, 47.29615]}, "properties": {"title": "FIRMS thermal anomaly 94.6 MW", "summary": "VIIRS S-NPP NRT, sat N, acquired 2026-08-22 0930Z, FRP 94.6 MW", "date": "2026-08-22", "severity": 4, "source": "firms"}}, {"type": "Feature", "geometry": {"type": "Point", "coordinates": [33.53546, 47.45374]}, "properties": {"title": "FIRMS thermal anomaly 21.1 MW", "summary": "VIIRS S-NPP NRT, sat N, acquired 2026-08-22 0930Z, FRP 21.08 MW", "date": "2026-08-22", "severity": 1, "source": "firms"}}, {"type": "Feature", "geometry": {"type": "Point", "coordinates": [33.53112, 47.45952]}, "properties": {"title": "FIRMS thermal anomaly 32.2 MW", "summary": "VIIRS S-NPP NRT, sat N, acquired 2026-08-22 0930Z, FRP 32.22 MW", "date": "2026-08-22", "severity": 1, "source": "firms"}}, {"type": "Feature", "geometry": {"type": "Point", "coordinates": [31.93447, 47.62319]}, "properties": {"title": "FIRMS thermal anomaly 33.9 MW", "summary": "VIIRS S-NPP NRT, sat N, acquired 2026-08-22 0930Z, FRP 33.86 MW", "date": "2026-08-22", "severity": 1, "source": "firms"}}, {"type": "Feature", "geometry": {"type": "Point", "coordinates": [31.92979, 47.62926]}, "properties": {"title": "FIRMS thermal anomaly 33.9 MW", "summary": "VIIRS S-NPP NRT, sat N, acquired 2026-08-22 0930Z, FRP 33.86 MW", "date": "2026-08-22", "severity": 1, "source": "firms"}}, {"type": "Feature", "geometry": {"type": "Point", "coordinates": [31.93181, 47.62558]}, "properties": {"title": "FIRMS thermal anomaly 57.4 MW", "summary": "VIIRS S-NPP NRT, sat N, acquired 2026-08-22 0930Z, FRP 57.36 MW", "date": "2026-08-22", "severity": 2, "source": "firms"}}, {"type": "Feature", "geometry": {"type": "Point", "coordinates": [34.20787, 45.92475]}, "properties": {"title": "FIRMS thermal anomaly 27.4 MW", "summary": "VIIRS S-NPP NRT, sat N, acquired 2026-08-22 1110Z, FRP 27.45 MW", "date": "2026-08-22", "severity": 1, "source": "firms"}}, {"type": "Feature", "geometry": {"type": "Point", "coordinates": [34.21437, 45.9294]}, "properties": {"title": "FIRMS thermal anomaly 27.4 MW", "summary": "VIIRS S-NPP NRT, sat N, acquired 2026-08-22 1110Z, FRP 27.45 MW", "date": "2026-08-22", "severity": 1, "source": "firms"}}, {"type": "Feature", "geometry": {"type": "Point", "coordinates": [33.93797, 46.27966]}, "properties": {"title": "FIRMS thermal anomaly 29.6 MW", "summary": "VIIRS S-NPP NRT, sat N, acquired 2026-08-22 1110Z, FRP 29.56 MW", "date": "2026-08-22", "severity": 1, "source": "firms"}}, {"type": "Feature", "geometry": {"type": "Point", "coordinates": [34.21021, 45.92656]}, "properties": {"title": "FIRMS thermal anomaly 73.5 MW", "summary": "VIIRS S-NPP NRT, sat N, acquired 2026-08-22 0930Z, FRP 73.53 MW", "date": "2026-08-22", "severity": 3, "source": "firms"}}, {"type": "Feature", "geometry": {"type": "Point", "coordinates": [31.53719, 49.56105]}, "properties": {"title": "FIRMS thermal anomaly 81.1 MW", "summary": "VIIRS S-NPP NRT, sat N, acquired 2026-08-22 0930Z, FRP 81.13 MW", "date": "2026-08-22", "severity": 4, "source": "firms"}}, {"type": "Feature", "geometry": {"type": "Point", "coordinates": [31.53003, 49.55851]}, "properties": {"title": "FIRMS thermal anomaly 44.4 MW", "summary": "VIIRS S-NPP NRT, sat N, acquired 2026-08-22 0930Z, FRP 44.44 MW", "date": "2026-08-22", "severity": 2, "source": "firms"}}, {"type": "Feature", "geometry": {"type": "Point", "coordinates": [31.53987, 49.56943]}, "properties": {"title": "FIRMS thermal anomaly 81.1 MW", "summary": "VIIRS S-NPP NRT, sat N, acquired 2026-08-22 0930Z, FRP 81.13 MW", "date": "2026-08-22", "severity": 4, "source": "firms"}}, {"type": "Feature", "geometry": {"type": "Point", "coordinates": [31.52511, 49.56421]}, "properties": {"title": "FIRMS thermal anomaly 44.4 MW", "summary": "VIIRS S-NPP NRT, sat N, acquired 2026-08-22 0930Z, FRP 44.44 MW", "date": "2026-08-22", "severity": 2, "source": "firms"}}, {"type": "Feature", "geometry": {"type": "Point", "coordinates": [31.53301, 49.56033]}, "properties": {"title": "FIRMS thermal anomaly 87.7 MW", "summary": "VIIRS S-NPP NRT, sat N, acquired 2026-08-22 0930Z, FRP 87.7 MW", "date": "2026-08-22", "severity": 4, "source": "firms"}}, {"type": "Feature", "geometry": {"type": "Point", "coordinates": [31.53562, 49.56872]}, "properties": {"title": "FIRMS thermal anomaly 87.7 MW", "summary": "VIIRS S-NPP NRT, sat N, acquired 2026-08-22 0930Z, FRP 87.7 MW", "date": "2026-08-22", "severity": 4, "source": "firms"}}, {"type": "Feature", "geometry": {"type": "Point", "coordinates": [31.52094, 49.56343]}, "properties": {"title": "FIRMS thermal anomaly 40.5 MW", "summary": "VIIRS S-NPP NRT, sat N, acquired 2026-08-22 0930Z, FRP 40.48 MW", "date": "2026-08-22", "severity": 2, "source": "firms"}}, {"type": "Feature", "geometry": {"type": "Point", "coordinates": [34.3576, 46.31414]}, "properties": {"title": "FIRMS thermal anomaly 34.4 MW", "summary": "VIIRS S-NPP NRT, sat N, acquired 2026-08-22 0930Z, FRP 34.4 MW", "date": "2026-08-22", "severity": 1, "source": "firms"}}, {"type": "Feature", "geometry": {"type": "Point", "coordinates": [33.01128, 46.44048]}, "properties": {"title": "FIRMS thermal anomaly 132.7 MW", "summary": "VIIRS S-NPP NRT, sat N, acquired 2026-08-22 1110Z, FRP 132.67 MW", "date": "2026-08-22", "severity": 6, "source": "firms"}}, {"type": "Feature", "geometry": {"type": "Point", "coordinates": [33.01794, 46.44116]}, "properties": {"title": "FIRMS thermal anomaly 61.4 MW", "summary": "VIIRS S-NPP NRT, sat N, acquired 2026-08-22 1110Z, FRP 61.43 MW", "date": "2026-08-22", "severity": 3, "source": "firms"}}, {"type": "Feature", "geometry": {"type": "Point", "coordinates": [32.97139, 46.43638]}, "properties": {"title": "FIRMS thermal anomaly 21.9 MW", "summary": "VIIRS S-NPP NRT, sat N, acquired 2026-08-22 1110Z, FRP 21.86 MW", "date": "2026-08-22", "severity": 1, "source": "firms"}}, {"type": "Feature", "geometry": {"type": "Point", "coordinates": [33.0038, 46.44358]}, "properties": {"title": "FIRMS thermal anomaly 132.7 MW", "summary": "VIIRS S-NPP NRT, sat N, acquired 2026-08-22 1110Z, FRP 132.67 MW", "date": "2026-08-22", "severity": 6, "source": "firms"}}, {"type": "Feature", "geometry": {"type": "Point", "coordinates": [33.5224, 46.19612]}, "properties": {"title": "FIRMS thermal anomaly 27.1 MW", "summary": "VIIRS S-NPP NRT, sat N, acquired 2026-08-22 0930Z, FRP 27.07 MW", "date": "2026-08-22", "severity": 1, "source": "firms"}}, {"type": "Feature", "geometry": {"type": "Point", "coordinates": [33.51476, 46.19346]}, "properties": {"title": "FIRMS thermal anomaly 27.1 MW", "summary": "VIIRS S-NPP NRT, sat N, acquired 2026-08-22 0930Z, FRP 27.07 MW", "date": "2026-08-22", "severity": 1, "source": "firms"}}, {"type": "Feature", "geometry": {"type": "Point", "coordinates": [32.97058, 46.44016]}, "properties": {"title": "FIRMS thermal anomaly 21.9 MW", "summary": "VIIRS S-NPP NRT, sat N, acquired 2026-08-22 1110Z, FRP 21.86 MW", "date": "2026-08-22", "severity": 1, "source": "firms"}}, {"type": "Feature", "geometry": {"type": "Point", "coordinates": [33.52391, 46.1931]}, "properties": {"title": "FIRMS thermal anomaly 33.6 MW", "summary": "VIIRS S-NPP NRT, sat N, acquired 2026-08-22 0930Z, FRP 33.62 MW", "date": "2026-08-22", "severity": 1, "source": "firms"}}, {"type": "Feature", "geometry": {"type": "Point", "coordinates": [32.96395, 46.43948]}, "properties": {"title": "FIRMS thermal anomaly 21.9 MW", "summary": "VIIRS S-NPP NRT, sat N, acquired 2026-08-22 1110Z, FRP 21.86 MW", "date": "2026-08-22", "severity": 1, "source": "firms"}}, {"type": "Feature", "geometry": {"type": "Point", "coordinates": [33.5163, 46.19041]}, "properties": {"title": "FIRMS thermal anomaly 36.5 MW", "summary": "VIIRS S-NPP NRT, sat N, acquired 2026-08-22 0930Z, FRP 36.54 MW", "date": "2026-08-22", "severity": 1, "source": "firms"}}, {"type": "Feature", "geometry": {"type": "Point", "coordinates": [32.95652, 46.44257]}, "properties": {"title": "FIRMS thermal anomaly 58.3 MW", "summary": "VIIRS S-NPP NRT, sat N, acquired 2026-08-22 1110Z, FRP 58.28 MW", "date": "2026-08-22", "severity": 2, "source": "firms"}}, {"type": "Feature", "geometry": {"type": "Point", "coordinates": [32.95572, 46.44635]}, "properties": {"title": "FIRMS thermal anomaly 58.3 MW", "summary": "VIIRS S-NPP NRT, sat N, acquired 2026-08-22 1110Z, FRP 58.28 MW", "date": "2026-08-22", "severity": 2, "source": "firms"}}, {"type": "Feature", "geometry": {"type": "Point", "coordinates": [33.92935, 46.58679]}, "properties": {"title": "FIRMS thermal anomaly 25.4 MW", "summary": "VIIRS S-NPP NRT, sat N, acquired 2026-08-22 0930Z, FRP 25.35 MW", "date": "2026-08-22", "severity": 1, "source": "firms"}}, {"type": "Feature", "geometry": {"type": "Point", "coordinates": [34.26276, 51.48145]}, "properties": {"title": "FIRMS thermal anomaly 21.8 MW", "summary": "VIIRS S-NPP NRT, sat N, acquired 2026-08-22 0932Z, FRP 21.81 MW", "date": "2026-08-22", "severity": 1, "source": "firms"}}, {"type": "Feature", "geometry": {"type": "Point", "coordinates": [33.92812, 46.58608]}, "properties": {"title": "FIRMS thermal anomaly 20.4 MW", "summary": "VIIRS S-NPP NRT, sat N, acquired 2026-08-22 0930Z, FRP 20.44 MW", "date": "2026-08-22", "severity": 1, "source": "firms"}}, {"type": "Feature", "geometry": {"type": "Point", "coordinates": [34.25758, 51.47981]}, "properties": {"title": "FIRMS thermal anomaly 21.8 MW", "summary": "VIIRS S-NPP NRT, sat N, acquired 2026-08-22 0932Z, FRP 21.81 MW", "date": "2026-08-22", "severity": 1, "source": "firms"}}, {"type": "Feature", "geometry": {"type": "Point", "coordinates": [34.25889, 51.48645]}, "properties": {"title": "FIRMS thermal anomaly 21.8 MW", "summary": "VIIRS S-NPP NRT, sat N, acquired 2026-08-22 0932Z, FRP 21.81 MW", "date": "2026-08-22", "severity": 1, "source": "firms"}}, {"type": "Feature", "geometry": {"type": "Point", "coordinates": [34.25367, 51.4848]}, "properties": {"title": "FIRMS thermal anomaly 21.8 MW", "summary": "VIIRS S-NPP NRT, sat N, acquired 2026-08-22 0932Z, FRP 21.81 MW", "date": "2026-08-22", "severity": 1, "source": "firms"}}, {"type": "Feature", "geometry": {"type": "Point", "coordinates": [34.44267, 51.57504]}, "properties": {"title": "FIRMS thermal anomaly 23.9 MW", "summary": "VIIRS S-NPP NRT, sat N, acquired 2026-08-22 0932Z, FRP 23.87 MW", "date": "2026-08-22", "severity": 1, "source": "firms"}}, {"type": "Feature", "geometry": {"type": "Point", "coordinates": [34.4477, 51.57661]}, "properties": {"title": "FIRMS thermal anomaly 21.0 MW", "summary": "VIIRS S-NPP NRT, sat N, acquired 2026-08-22 0932Z, FRP 21.04 MW", "date": "2026-08-22", "severity": 1, "source": "firms"}}, {"type": "Feature", "geometry": {"type": "Point", "coordinates": [34.43763, 51.57347]}, "properties": {"title": "FIRMS thermal anomaly 23.9 MW", "summary": "VIIRS S-NPP NRT, sat N, acquired 2026-08-22 0932Z, FRP 23.87 MW", "date": "2026-08-22", "severity": 1, "source": "firms"}}, {"type": "Feature", "geometry": {"type": "Point", "coordinates": [34.43362, 51.57837]}, "properties": {"title": "FIRMS thermal anomaly 23.9 MW", "summary": "VIIRS S-NPP NRT, sat N, acquired 2026-08-22 0932Z, FRP 23.87 MW", "date": "2026-08-22", "severity": 1, "source": "firms"}}, {"type": "Feature", "geometry": {"type": "Point", "coordinates": [34.43864, 51.57994]}, "properties": {"title": "FIRMS thermal anomaly 23.9 MW", "summary": "VIIRS S-NPP NRT, sat N, acquired 2026-08-22 0932Z, FRP 23.87 MW", "date": "2026-08-22", "severity": 1, "source": "firms"}}, {"type": "Feature", "geometry": {"type": "Point", "coordinates": [34.25459, 51.54719]}, "properties": {"title": "FIRMS thermal anomaly 44.8 MW", "summary": "VIIRS S-NPP NRT, sat N, acquired 2026-08-22 0932Z, FRP 44.79 MW", "date": "2026-08-22", "severity": 2, "source": "firms"}}, {"type": "Feature", "geometry": {"type": "Point", "coordinates": [34.25436, 51.54831]}, "properties": {"title": "FIRMS thermal anomaly 20.4 MW", "summary": "VIIRS S-NPP NRT, sat N, acquired 2026-08-22 0932Z, FRP 20.37 MW", "date": "2026-08-22", "severity": 1, "source": "firms"}}]}