{
  "type": "FeatureCollection",
  "features": [
    {
      "type": "Feature",
      "geometry": {
        "type": "Point",
        "coordinates": [
          121.5148,
          -8.2665
        ]
      },
      "properties": {
        "title": "M5.0 Earthquake - 65 km NNW of Ende, Indonesia",
        "summary": "Magnitude 5.0 earthquake near 65 km NNW of Ende, Indonesia",
        "date": "2026-08-17",
        "severity": 5,
        "source": "usgs"
      }
    },
    {
      "type": "Feature",
      "geometry": {
        "type": "Point",
        "coordinates": [
          121.407,
          -8.278
        ]
      },
      "properties": {
        "title": "M5.0 Earthquake - 68 km NNW of Ende, Indonesia",
        "summary": "Magnitude 5.0 earthquake near 68 km NNW of Ende, Indonesia",
        "date": "2026-08-17",
        "severity": 5,
        "source": "usgs"
      }
    },
    {
      "type": "Feature",
      "geometry": {
        "type": "Point",
        "coordinates": [
          120.5995,
          -7.9399
        ]
      },
      "properties": {
        "title": "M5.0 Earthquake - 75 km NNE of Ruteng, Indonesia",
        "summary": "Magnitude 5.0 earthquake near 75 km NNE of Ruteng, Indonesia",
        "date": "2026-08-17",
        "severity": 5,
        "source": "usgs"
      }
    },
    {
      "type": "Feature",
      "geometry": {
        "type": "Point",
        "coordinates": [
          121.327,
          -8.2999
        ]
      },
      "properties": {
        "title": "M5.0 Earthquake - 70 km NNW of Ende, Indonesia",
        "summary": "Magnitude 5.0 earthquake near 70 km NNW of Ende, Indonesia",
        "date": "2026-08-17",
        "severity": 5,
        "source": "usgs"
      }
    },
    {
      "type": "Feature",
      "geometry": {
        "type": "Point",
        "coordinates": [
          -92.969,
          14.4177
        ]
      },
      "properties": {
        "title": "M5.0 Earthquake - 67 km WSW of Puerto Madero, Mexico",
        "summary": "Magnitude 5.0 earthquake near 67 km WSW of Puerto Madero, Mexico",
        "date": "2026-08-17",
        "severity": 5,
        "source": "usgs"
      }
    },
    {
      "type": "Feature",
      "geometry": {
        "type": "Point",
        "coordinates": [
          146.7476,
          -5.5481
        ]
      },
      "properties": {
        "title": "M5.0 Earthquake - 112 km ESE of Madang, Papua New Guinea",
        "summary": "Magnitude 5.0 earthquake near 112 km ESE of Madang, Papua New Guinea",
        "date": "2026-08-17",
        "severity": 5,
        "source": "usgs"
      }
    },
    {
      "type": "Feature",
      "geometry": {
        "type": "Point",
        "coordinates": [
          120.5504,
          -7.8791
        ]
      },
      "properties": {
        "title": "M5.0 Earthquake - 81 km N of Ruteng, Indonesia",
        "summary": "Magnitude 5.0 earthquake near 81 km N of Ruteng, Indonesia",
        "date": "2026-08-17",
        "severity": 5,
        "source": "usgs"
      }
    },
    {
      "type": "Feature",
      "geometry": {
        "type": "Point",
        "coordinates": [
          -178.692,
          -17.6896
        ]
      },
      "properties": {
        "title": "M5.0 Earthquake - 215 km ENE of Levuka, Fiji",
        "summary": "Magnitude 5.0 earthquake near 215 km ENE of Levuka, Fiji",
        "date": "2026-08-17",
        "severity": 5,
        "source": "usgs"
      }
    },
    {
      "type": "Feature",
      "geometry": {
        "type": "Point",
        "coordinates": [
          120.7165,
          -7.9176
        ]
      },
      "properties": {
        "title": "M5.0 Earthquake - 81 km NNE of Ruteng, Indonesia",
        "summary": "Magnitude 5.0 earthquake near 81 km NNE of Ruteng, Indonesia",
        "date": "2026-08-17",
        "severity": 5,
        "source": "usgs"
      }
    },
    {
      "type": "Feature",
      "geometry": {
        "type": "Point",
        "coordinates": [
          121.0947,
          -8.0913
        ]
      },
      "properties": {
        "title": "M5.0 Earthquake - 90 km NE of Ruteng, Indonesia",
        "summary": "Magnitude 5.0 earthquake near 90 km NE of Ruteng, Indonesia",
        "date": "2026-08-17",
        "severity": 5,
        "source": "usgs"
      }
    },
    {
      "type": "Feature",
      "geometry": {
        "type": "Point",
        "coordinates": [
          120.4602,
          -7.9109
        ]
      },
      "properties": {
        "title": "M5.0 Earthquake - 77 km N of Ruteng, Indonesia",
        "summary": "Magnitude 5.0 earthquake near 77 km N of Ruteng, Indonesia",
        "date": "2026-08-17",
        "severity": 5,
        "source": "usgs"
      }
    },
    {
      "type": "Feature",
      "geometry": {
        "type": "Point",
        "coordinates": [
          -20.3712,
          -22.5775
        ]
      },
      "properties": {
        "title": "M5.0 Earthquake - South Atlantic Ocean",
        "summary": "Magnitude 5.0 earthquake near South Atlantic Ocean",
        "date": "2026-08-17",
        "severity": 5,
        "source": "usgs"
      }
    },
    {
      "type": "Feature",
      "geometry": {
        "type": "Point",
        "coordinates": [
          120.8509,
          -7.6716
        ]
      },
      "properties": {
        "title": "M5.0 Earthquake - 112 km NNE of Ruteng, Indonesia",
        "summary": "Magnitude 5.0 earthquake near 112 km NNE of Ruteng, Indonesia",
        "date": "2026-08-17",
        "severity": 5,
        "source": "usgs"
      }
    },
    {
      "type": "Feature",
      "geometry": {
        "type": "Point",
        "coordinates": [
          120.2556,
          -7.8295
        ]
      },
      "properties": {
        "title": "M5.0 Earthquake - 84 km NNE of Labuan Bajo, Indonesia",
        "summary": "Magnitude 5.0 earthquake near 84 km NNE of Labuan Bajo, Indonesia",
        "date": "2026-08-17",
        "severity": 5,
        "source": "usgs"
      }
    },
    {
      "type": "Feature",
      "geometry": {
        "type": "Point",
        "coordinates": [
          120.2356,
          -7.8283
        ]
      },
      "properties": {
        "title": "M5.0 Earthquake - 83 km NNE of Labuan Bajo, Indonesia",
        "summary": "Magnitude 5.0 earthquake near 83 km NNE of Labuan Bajo, Indonesia",
        "date": "2026-08-17",
        "severity": 5,
        "source": "usgs"
      }
    },
    {
      "type": "Feature",
      "geometry": {
        "type": "Point",
        "coordinates": [
          146.3275,
          -5.5296
        ]
      },
      "properties": {
        "title": "M5.0 Earthquake - 68 km ESE of Madang, Papua New Guinea",
        "summary": "Magnitude 5.0 earthquake near 68 km ESE of Madang, Papua New Guinea",
        "date": "2026-08-17",
        "severity": 5,
        "source": "usgs"
      }
    },
    {
      "type": "Feature",
      "geometry": {
        "type": "Point",
        "coordinates": [
          121.0709,
          -1.3664
        ]
      },
      "properties": {
        "title": "M5.0 Earthquake - 35 km E of Poso, Indonesia",
        "summary": "Magnitude 5.0 earthquake near 35 km E of Poso, Indonesia",
        "date": "2026-08-17",
        "severity": 5,
        "source": "usgs"
      }
    },
    {
      "type": "Feature",
      "geometry": {
        "type": "Point",
        "coordinates": [
          120.2426,
          -7.9505
        ]
      },
      "properties": {
        "title": "M5.0 Earthquake - 71 km NNE of Labuan Bajo, Indonesia",
        "summary": "Magnitude 5.0 earthquake near 71 km NNE of Labuan Bajo, Indonesia",
        "date": "2026-08-17",
        "severity": 5,
        "source": "usgs"
      }
    },
    {
      "type": "Feature",
      "geometry": {
        "type": "Point",
        "coordinates": [
          120.6656,
          -8.2271
        ]
      },
      "properties": {
        "title": "M5.0 Earthquake - 47 km NNE of Ruteng, Indonesia",
        "summary": "Magnitude 5.0 earthquake near 47 km NNE of Ruteng, Indonesia",
        "date": "2026-08-17",
        "severity": 5,
        "source": "usgs"
      }
    },
    {
      "type": "Feature",
      "geometry": {
        "type": "Point",
        "coordinates": [
          129.5762,
          -7.1047
        ]
      },
      "properties": {
        "title": "M5.0 Earthquake - Kepulauan Babar, Indonesia",
        "summary": "Magnitude 5.0 earthquake near Kepulauan Babar, Indonesia",
        "date": "2026-08-17",
        "severity": 5,
        "source": "usgs"
      }
    },
    {
      "type": "Feature",
      "geometry": {
        "type": "Point",
        "coordinates": [
          -67.3083,
          -24.3041
        ]
      },
      "properties": {
        "title": "M5.0 Earthquake - 100 km W of San Antonio de los Cobres, Argentina",
        "summary": "Magnitude 5.0 earthquake near 100 km W of San Antonio de los Cobres, Argentina",
        "date": "2026-08-17",
        "severity": 5,
        "source": "usgs"
      }
    },
    {
      "type": "Feature",
      "geometry": {
        "type": "Point",
        "coordinates": [
          120.5903,
          -7.5415
        ]
      },
      "properties": {
        "title": "M5.0 Earthquake - 119 km N of Ruteng, Indonesia",
        "summary": "Magnitude 5.0 earthquake near 119 km N of Ruteng, Indonesia",
        "date": "2026-08-17",
        "severity": 5,
        "source": "usgs"
      }
    },
    {
      "type": "Feature",
      "geometry": {
        "type": "Point",
        "coordinates": [
          121.3517,
          -8.3101
        ]
      },
      "properties": {
        "title": "Red earthquake (Magnitude 7.7M, Depth:10km) in Indonesia 14/08/2026 21:58 UTC, 1",
        "summary": "Red earthquake (Magnitude 7.7M, Depth:10km) in Indonesia 14/08/2026 21:58 UTC, 1",
        "date": "2026-08-17",
        "severity": 9,
        "source": "gdacs"
      }
    },
    {
      "type": "Feature",
      "geometry": {
        "type": "Point",
        "coordinates": [
          119.9016869,
          30.8307841
        ]
      },
      "properties": {
        "title": "Orange flood alert in China",
        "summary": "Orange flood alert in China",
        "date": "2026-08-17",
        "severity": 7,
        "source": "gdacs"
      }
    },
    {
      "type": "Feature",
      "geometry": {
        "type": "Point",
        "coordinates": [
          33.25,
          1.187
        ]
      },
      "properties": {
        "title": "Drought is on going in Democratic Republic of Congo, Kenya, Tanzania, Uganda",
        "summary": "Drought is on going in Democratic Republic of Congo, Kenya, Tanzania, Uganda",
        "date": "2026-08-17",
        "severity": 7,
        "source": "gdacs"
      }
    },
    {
      "type": "Feature",
      "geometry": {
        "type": "Point",
        "coordinates": [
          44.618,
          6.545
        ]
      },
      "properties": {
        "title": "Drought is on going in Ethiopia, Kenya, Somalia",
        "summary": "Drought is on going in Ethiopia, Kenya, Somalia",
        "date": "2026-08-17",
        "severity": 7,
        "source": "gdacs"
      }
    },
    {
      "type": "Feature",
      "geometry": {
        "type": "Point",
        "coordinates": [
          12.151,
          47.602
        ]
      },
      "properties": {
        "title": "Drought is on going in Albania, Austria, Bosnia & Herzegovina, Belgium, Bulgaria",
        "summary": "Drought is on going in Albania, Austria, Bosnia & Herzegovina, Belgium, Bulgaria",
        "date": "2026-08-17",
        "severity": 7,
        "source": "gdacs"
      }
    },
    {
      "type": "Feature",
      "geometry": {
        "type": "Point",
        "coordinates": [
          47.606,
          -17.932
        ]
      },
      "properties": {
        "title": "Drought is on going in Madagascar",
        "summary": "Drought is on going in Madagascar",
        "date": "2026-08-17",
        "severity": 7,
        "source": "gdacs"
      }
    },
    {
      "type": "Feature",
      "geometry": {
        "type": "Point",
        "coordinates": [
          56.5,
          26.5
        ]
      },
      "properties": {
        "title": "ADNOC vessel attack - Strait of Hormuz",
        "summary": "ADNOC tanker attacked transiting Strait of Hormuz",
        "date": "2026-08-17",
        "severity": 8,
        "source": "acled"
      }
    },
    {
      "type": "Feature",
      "geometry": {
        "type": "Point",
        "coordinates": [
          33.36,
          47.91
        ]
      },
      "properties": {
        "title": "ArcelorMittal strike - Kryvyi Rih",
        "summary": "Russian missile strike on steel plant, 2 killed 13 wounded",
        "date": "2026-08-16",
        "severity": 7,
        "source": "acled"
      }
    },
    {
      "type": "Feature",
      "geometry": {
        "type": "Point",
        "coordinates": [
          30.52,
          50.45
        ]
      },
      "properties": {
        "title": "Russian strikes kill 4 in Kyiv",
        "summary": "Russian missile strikes on Kyiv book market and residential areas",
        "date": "2026-08-16",
        "severity": 7,
        "source": "acled"
      }
    },
    {
      "type": "Feature",
      "geometry": {
        "type": "Point",
        "coordinates": [
          29.0,
          1.0
        ]
      },
      "properties": {
        "title": "DRC Ebola - deadliest outbreak",
        "summary": "Bundibugyo virus disease, 1 death every 28 minutes, WHO DON-615",
        "date": "2026-08-17",
        "severity": 9,
        "source": "acled"
      }
    },
    {
      "type": "Feature",
      "geometry": {
        "type": "Point",
        "coordinates": [
          -155.5,
          19.7
        ]
      },
      "properties": {
        "title": "Hurricane Lala - Hawaii",
        "summary": "100+ homes swept away, 180,000 without power, downgraded to tropical storm",
        "date": "2026-08-17",
        "severity": 7,
        "source": "gdacs"
      }
    },
    {
      "type": "Feature",
      "geometry": {
        "type": "Point",
        "coordinates": [
          35.5,
          33.5
        ]
      },
      "properties": {
        "title": "Israeli strikes - Southern Lebanon",
        "summary": "11 killed in strikes on Aug 15, worst toll since June truce",
        "date": "2026-08-15",
        "severity": 7,
        "source": "acled"
      }
    }
  ]
}