{"type": "FeatureCollection", "features": [{"type": "Feature", "geometry": {"type": "Point", "coordinates": [113.0, 30.0]}, "properties": {"title": "Red Flood - China", "summary": "Flood \u00b7 Red alert \u00b7 China \u00b7 Magnitude 0 ", "date": "2026-07-25", "severity": 8, "source": "gdacs"}}, {"type": "Feature", "geometry": {"type": "Point", "coordinates": [113.5, 30.5]}, "properties": {"title": "Red Flood - China (Yangtze)", "summary": "Red Flood - China (Yangtze)", "date": "2026-07-25", "severity": 8, "source": "gdacs"}}, {"type": "Feature", "geometry": {"type": "Point", "coordinates": [100.0, 27.0]}, "properties": {"title": "Orange EQ - China M5.8", "summary": "Orange EQ - China M5.8", "date": "2026-07-28", "severity": 6, "source": "gdacs"}}, {"type": "Feature", "geometry": {"type": "Point", "coordinates": [130.8, 32.6]}, "properties": {"title": "Orange EQ - Japan M6.8 (Kyushu)", "summary": "Orange EQ - Japan M6.8 (Kyushu)", "date": "2026-07-28", "severity": 7, "source": "gdacs"}}, {"type": "Feature", "geometry": {"type": "Point", "coordinates": [9.5, 37.0]}, "properties": {"title": "Orange Wildfire - Tunisia", "summary": "Orange Wildfire - Tunisia", "date": "2026-07-21", "severity": 5, "source": "gdacs"}}, {"type": "Feature", "geometry": {"type": "Point", "coordinates": [-0.7, 44.5]}, "properties": {"title": "Red Wildfire - France (Gironde)", "summary": "Red Wildfire - France (Gironde)", "date": "2026-07-22", "severity": 8, "source": "gdacs"}}, {"type": "Feature", "geometry": {"type": "Point", "coordinates": [-5.5, 37.5]}, "properties": {"title": "Orange Wildfire - Spain", "summary": "Orange Wildfire - Spain", "date": "2026-07-25", "severity": 6, "source": "gdacs"}}, {"type": "Feature", "geometry": {"type": "Point", "coordinates": [32.00494, 46.3484]}, "properties": {"title": "FIRMS 103.37MW thermal anomaly", "summary": "FRP 103.37MW, conf high, Ukraine theater", "date": "2026-07-30", "severity": 10, "source": "firms"}}, {"type": "Feature", "geometry": {"type": "Point", "coordinates": [31.69789, 52.9147]}, "properties": {"title": "FIRMS 86.77MW thermal anomaly", "summary": "FRP 86.77MW, conf high, Ukraine theater", "date": "2026-07-30", "severity": 8, "source": "firms"}}, {"type": "Feature", "geometry": {"type": "Point", "coordinates": [32.50658, 47.97505]}, "properties": {"title": "FIRMS 80.66MW thermal anomaly", "summary": "FRP 80.66MW, conf high, Ukraine theater", "date": "2026-07-29", "severity": 8, "source": "firms"}}, {"type": "Feature", "geometry": {"type": "Point", "coordinates": [32.49019, 47.97033]}, "properties": {"title": "FIRMS 61.23MW thermal anomaly", "summary": "FRP 61.23MW, conf nominal, Ukraine theater", "date": "2026-07-29", "severity": 6, "source": "firms"}}, {"type": "Feature", "geometry": {"type": "Point", "coordinates": [32.5073, 47.9702]}, "properties": {"title": "FIRMS 50.68MW thermal anomaly", "summary": "FRP 50.68MW, conf high, Ukraine theater", "date": "2026-07-29", "severity": 5, "source": "firms"}}, {"type": "Feature", "geometry": {"type": "Point", "coordinates": [32.49875, 47.97027]}, "properties": {"title": "FIRMS 50.68MW thermal anomaly", "summary": "FRP 50.68MW, conf nominal, Ukraine theater", "date": "2026-07-29", "severity": 5, "source": "firms"}}, {"type": "Feature", "geometry": {"type": "Point", "coordinates": [32.49888, 47.97702]}, "properties": {"title": "FIRMS 50.68MW thermal anomaly", "summary": "FRP 50.68MW, conf high, Ukraine theater", "date": "2026-07-29", "severity": 5, "source": "firms"}}, {"type": "Feature", "geometry": {"type": "Point", "coordinates": [32.50755, 47.97695]}, "properties": {"title": "FIRMS 50.68MW thermal anomaly", "summary": "FRP 50.68MW, conf nominal, Ukraine theater", "date": "2026-07-29", "severity": 5, "source": "firms"}}, {"type": "Feature", "geometry": {"type": "Point", "coordinates": [31.86586, 47.54717]}, "properties": {"title": "FIRMS 50.33MW thermal anomaly", "summary": "FRP 50.33MW, conf nominal, Ukraine theater", "date": "2026-07-29", "severity": 5, "source": "firms"}}, {"type": "Feature", "geometry": {"type": "Point", "coordinates": [31.86087, 47.54603]}, "properties": {"title": "FIRMS 50.33MW thermal anomaly", "summary": "FRP 50.33MW, conf nominal, Ukraine theater", "date": "2026-07-29", "severity": 5, "source": "firms"}}, {"type": "Feature", "geometry": {"type": "Point", "coordinates": [31.72937, 46.52191]}, "properties": {"title": "FIRMS 46.57MW thermal anomaly", "summary": "FRP 46.57MW, conf nominal, Ukraine theater", "date": "2026-07-29", "severity": 4, "source": "firms"}}, {"type": "Feature", "geometry": {"type": "Point", "coordinates": [31.96154, 46.47665]}, "properties": {"title": "FIRMS 45.26MW thermal anomaly", "summary": "FRP 45.26MW, conf high, Ukraine theater", "date": "2026-07-30", "severity": 4, "source": "firms"}}, {"type": "Feature", "geometry": {"type": "Point", "coordinates": [31.95469, 46.4803]}, "properties": {"title": "FIRMS 45.26MW thermal anomaly", "summary": "FRP 45.26MW, conf nominal, Ukraine theater", "date": "2026-07-30", "severity": 4, "source": "firms"}}, {"type": "Feature", "geometry": {"type": "Point", "coordinates": [32.5063, 47.9683]}, "properties": {"title": "FIRMS 43.88MW thermal anomaly", "summary": "FRP 43.88MW, conf high, Ukraine theater", "date": "2026-07-29", "severity": 4, "source": "firms"}}, {"type": "Feature", "geometry": {"type": "Point", "coordinates": [34.34499, 46.51112]}, "properties": {"title": "FIRMS 41.01MW thermal anomaly", "summary": "FRP 41.01MW, conf high, Ukraine theater", "date": "2026-07-30", "severity": 4, "source": "firms"}}, {"type": "Feature", "geometry": {"type": "Point", "coordinates": [30.71724, 46.51522]}, "properties": {"title": "FIRMS 39.65MW thermal anomaly", "summary": "FRP 39.65MW, conf nominal, Ukraine theater", "date": "2026-07-29", "severity": 3, "source": "firms"}}, {"type": "Feature", "geometry": {"type": "Point", "coordinates": [31.9656, 46.47778]}, "properties": {"title": "FIRMS 38.67MW thermal anomaly", "summary": "FRP 38.67MW, conf nominal, Ukraine theater", "date": "2026-07-30", "severity": 3, "source": "firms"}}, {"type": "Feature", "geometry": {"type": "Point", "coordinates": [31.96281, 46.48257]}, "properties": {"title": "FIRMS 38.67MW thermal anomaly", "summary": "FRP 38.67MW, conf high, Ukraine theater", "date": "2026-07-30", "severity": 3, "source": "firms"}}, {"type": "Feature", "geometry": {"type": "Point", "coordinates": [33.05819, 47.05406]}, "properties": {"title": "FIRMS 37.87MW thermal anomaly", "summary": "FRP 37.87MW, conf nominal, Ukraine theater", "date": "2026-07-29", "severity": 3, "source": "firms"}}, {"type": "Feature", "geometry": {"type": "Point", "coordinates": [28.80313, 45.88773]}, "properties": {"title": "FIRMS 37.82MW thermal anomaly", "summary": "FRP 37.82MW, conf high, Ukraine theater", "date": "2026-07-29", "severity": 3, "source": "firms"}}, {"type": "Feature", "geometry": {"type": "Point", "coordinates": [53.7, 32.4]}, "properties": {"title": "US strikes on Iran targets", "summary": "US strikes on Iran targets", "date": "2026-07-30", "severity": 9, "source": "acled"}}, {"type": "Feature", "geometry": {"type": "Point", "coordinates": [23.5, 50.7]}, "properties": {"title": "Russian missile lands in Poland (Tarnawa Kolonia)", "summary": "Russian missile lands in Poland (Tarnawa Kolonia)", "date": "2026-07-30", "severity": 8, "source": "acled"}}, {"type": "Feature", "geometry": {"type": "Point", "coordinates": [31.8, 31.4]}, "properties": {"title": "Drone strike - Egypt Damietta port", "summary": "Drone strike - Egypt Damietta port", "date": "2026-07-30", "severity": 7, "source": "acled"}}, {"type": "Feature", "geometry": {"type": "Point", "coordinates": [44.2, 33.3]}, "properties": {"title": "Houthi attack on Saudi from Iraq", "summary": "Houthi attack on Saudi from Iraq", "date": "2026-07-30", "severity": 7, "source": "acled"}}, {"type": "Feature", "geometry": {"type": "Point", "coordinates": [33.4, 47.9]}, "properties": {"title": "Russia strikes Kryvyi Rih (DPRK missile)", "summary": "Russia strikes Kryvyi Rih (DPRK missile)", "date": "2026-07-30", "severity": 8, "source": "acled"}}, {"type": "Feature", "geometry": {"type": "Point", "coordinates": [30.5, 50.4]}, "properties": {"title": "Terminal Autonomy drone factory hit, Kyiv", "summary": "Terminal Autonomy drone factory hit, Kyiv", "date": "2026-07-30", "severity": 7, "source": "acled"}}, {"type": "Feature", "geometry": {"type": "Point", "coordinates": [31.2, 50.0]}, "properties": {"title": "Russia missile salvo: 55 missiles + 265 drones", "summary": "Russia missile salvo: 55 missiles + 265 drones", "date": "2026-07-30", "severity": 8, "source": "acled"}}, {"type": "Feature", "geometry": {"type": "Point", "coordinates": [-5.3, 35.9]}, "properties": {"title": "Ceuta migrant emergency - 1,500+ in one week", "summary": "Ceuta migrant emergency - 1,500+ in one week", "date": "2026-07-30", "severity": 6, "source": "acled"}}, {"type": "Feature", "geometry": {"type": "Point", "coordinates": [130.9, 32.7]}, "properties": {"title": "Japan M6.8 earthquake - 30 dead", "summary": "Japan M6.8 earthquake - 30 dead", "date": "2026-07-28", "severity": 8, "source": "usgs"}}]}