{
  "type": "FeatureCollection",
  "features": [
    {
      "type": "Feature",
      "geometry": {
        "type": "Point",
        "coordinates": [
          121.3517,
          -8.3101
        ]
      },
      "properties": {
        "title": "M 7.7 Indonesia (Ende)",
        "summary": "USGS M7.7, depth 10km, PAGER orange. 15 Aug 2026.",
        "date": "2026-08-15",
        "severity": 8,
        "source": "usgs"
      }
    },
    {
      "type": "Feature",
      "geometry": {
        "type": "Point",
        "coordinates": [
          -83.7,
          42.3
        ]
      },
      "properties": {
        "title": "Michigan mass shootings",
        "summary": "6 dead including suspect across 3 locations. 15 Aug 2026.",
        "date": "2026-08-15",
        "severity": 6,
        "source": "acled"
      }
    },
    {
      "type": "Feature",
      "geometry": {
        "type": "Point",
        "coordinates": [
          50.15,
          53.2
        ]
      },
      "properties": {
        "title": "Ukraine strike on Samara, Russia",
        "summary": "Missile strike on industrial enterprise; smoke at RKC Progress space facility.",
        "date": "2026-08-15",
        "severity": 7,
        "source": "acled"
      }
    },
    {
      "type": "Feature",
      "geometry": {
        "type": "Point",
        "coordinates": [
          43.24,
          13.32
        ]
      },
      "properties": {
        "title": "Houthi strike: Port of Mocha, Red Sea",
        "summary": "Scenes from strategic Red Sea port after Houthi attack. 13 Aug 2026.",
        "date": "2026-08-13",
        "severity": 7,
        "source": "acled"
      }
    },
    {
      "type": "Feature",
      "geometry": {
        "type": "Point",
        "coordinates": [
          61.5,
          31.0
        ]
      },
      "properties": {
        "title": "IRGC Major Heidari assassination attempt, Zabol",
        "summary": "Motorcycle-borne attackers critically wounded IRGC Aerospace major in Sistan-Baluchestan.",
        "date": "2026-08-13",
        "severity": 7,
        "source": "acled"
      }
    },
    {
      "type": "Feature",
      "geometry": {
        "type": "Point",
        "coordinates": [
          121.5717,
          -8.3186
        ]
      },
      "properties": {
        "title": "EQ M6.1 Indonesia (GDACS Green)",
        "summary": "M6.1, depth 10km, 20k in MMI VI. 14 Aug 2026.",
        "date": "2026-08-14",
        "severity": 5,
        "source": "gdacs"
      }
    }
  ]
}