{"type": "FeatureCollection", "features": [{"type": "Feature", "geometry": {"type": "Point", "coordinates": [31.67525, 45.25743]}, "properties": {"title": "FIRMS Thermal 9.6MW", "summary": "[FIRMS] thermal anomaly 45.257, 31.675 (FRP 9.61 MW, conf nominal) \u2014 VIIRS S-NPP NRT, sat N, acquired 2026-06-04 1047Z, FRP 9.61 MW", "date": "2026-06-05", "severity": 2, "source": "firms"}}, {"type": "Feature", "geometry": {"type": "Point", "coordinates": [30.90426, 45.35635]}, "properties": {"title": "FIRMS Thermal 2.5MW", "summary": "[FIRMS] thermal anomaly 45.356, 30.904 (FRP 2.53 MW, conf nominal) \u2014 VIIRS S-NPP NRT, sat N, acquired 2026-06-04 1047Z, FRP 2.53 MW", "date": "2026-06-05", "severity": 1, "source": "firms"}}, {"type": "Feature", "geometry": {"type": "Point", "coordinates": [32.30439, 46.57285]}, "properties": {"title": "FIRMS Thermal 7.9MW", "summary": "[FIRMS] thermal anomaly 46.573, 32.304 (FRP 7.91 MW, conf nominal) \u2014 VIIRS S-NPP NRT, sat N, acquired 2026-06-04 1049Z, FRP 7.91 MW", "date": "2026-06-05", "severity": 2, "source": "firms"}}, {"type": "Feature", "geometry": {"type": "Point", "coordinates": [32.62113, 46.62708]}, "properties": {"title": "FIRMS Thermal 2.4MW", "summary": "[FIRMS] thermal anomaly 46.627, 32.621 (FRP 2.38 MW, conf nominal) \u2014 VIIRS S-NPP NRT, sat N, acquired 2026-06-04 1049Z, FRP 2.38 MW", "date": "2026-06-05", "severity": 1, "source": "firms"}}, {"type": "Feature", "geometry": {"type": "Point", "coordinates": [32.29237, 46.5779]}, "properties": {"title": "FIRMS Thermal 3.6MW", "summary": "[FIRMS] thermal anomaly 46.578, 32.292 (FRP 3.56 MW, conf nominal) \u2014 VIIRS S-NPP NRT, sat N, acquired 2026-06-04 1049Z, FRP 3.56 MW", "date": "2026-06-05", "severity": 1, "source": "firms"}}, {"type": "Feature", "geometry": {"type": "Point", "coordinates": [32.91389, 46.69759]}, "properties": {"title": "FIRMS Thermal 3.6MW", "summary": "[FIRMS] thermal anomaly 46.698, 32.914 (FRP 3.6 MW, conf nominal) \u2014 VIIRS S-NPP NRT, sat N, acquired 2026-06-04 1049Z, FRP 3.6 MW", "date": "2026-06-05", "severity": 1, "source": "firms"}}, {"type": "Feature", "geometry": {"type": "Point", "coordinates": [29.98449, 52.84989]}, "properties": {"title": "FIRMS Thermal 2.2MW", "summary": "[FIRMS] thermal anomaly 52.850, 29.984 (FRP 2.16 MW, conf nominal) \u2014 VIIRS S-NPP NRT, sat N, acquired 2026-06-04 2301Z, FRP 2.16 MW", "date": "2026-06-05", "severity": 1, "source": "firms"}}, {"type": "Feature", "geometry": {"type": "Point", "coordinates": [29.99339, 52.84998]}, "properties": {"title": "FIRMS Thermal 2.2MW", "summary": "[FIRMS] thermal anomaly 52.850, 29.993 (FRP 2.16 MW, conf nominal) \u2014 VIIRS S-NPP NRT, sat N, acquired 2026-06-04 2301Z, FRP 2.16 MW", "date": "2026-06-05", "severity": 1, "source": "firms"}}, {"type": "Feature", "geometry": {"type": "Point", "coordinates": [32.80738, 52.30141]}, "properties": {"title": "FIRMS Thermal 2.0MW", "summary": "[FIRMS] thermal anomaly 52.301, 32.807 (FRP 2.05 MW, conf nominal) \u2014 VIIRS S-NPP NRT, sat N, acquired 2026-06-04 2301Z, FRP 2.05 MW", "date": "2026-06-05", "severity": 1, "source": "firms"}}, {"type": "Feature", "geometry": {"type": "Point", "coordinates": [33.43288, 47.86559]}, "properties": {"title": "FIRMS Thermal 2.1MW", "summary": "[FIRMS] thermal anomaly 47.866, 33.433 (FRP 2.12 MW, conf nominal) \u2014 VIIRS S-NPP NRT, sat N, acquired 2026-06-04 2303Z, FRP 2.12 MW", "date": "2026-06-05", "severity": 1, "source": "firms"}}, {"type": "Feature", "geometry": {"type": "Point", "coordinates": [31.67431, 45.26036]}, "properties": {"title": "FIRMS Thermal 2.1MW", "summary": "[FIRMS] thermal anomaly 45.260, 31.674 (FRP 2.12 MW, conf nominal) \u2014 VIIRS S-NPP NRT, sat N, acquired 2026-06-04 2303Z, FRP 2.12 MW", "date": "2026-06-05", "severity": 1, "source": "firms"}}, {"type": "Feature", "geometry": {"type": "Point", "coordinates": [31.66836, 45.26052]}, "properties": {"title": "FIRMS Thermal 5.0MW", "summary": "[FIRMS] thermal anomaly 45.261, 31.668 (FRP 4.95 MW, conf nominal) \u2014 VIIRS S-NPP NRT, sat N, acquired 2026-06-04 2303Z, FRP 4.95 MW", "date": "2026-06-05", "severity": 1, "source": "firms"}}, {"type": "Feature", "geometry": {"type": "Point", "coordinates": [31.67393, 45.25445]}, "properties": {"title": "FIRMS Thermal 2.1MW", "summary": "[FIRMS] thermal anomaly 45.254, 31.674 (FRP 2.12 MW, conf nominal) \u2014 VIIRS S-NPP NRT, sat N, acquired 2026-06-04 2303Z, FRP 2.12 MW", "date": "2026-06-05", "severity": 1, "source": "firms"}}, {"type": "Feature", "geometry": {"type": "Point", "coordinates": [34.03932, 52.17754]}, "properties": {"title": "FIRMS Thermal 3.0MW", "summary": "[FIRMS] thermal anomaly 52.178, 34.039 (FRP 2.97 MW, conf nominal) \u2014 VIIRS S-NPP NRT, sat N, acquired 2026-06-05 0043Z, FRP 2.97 MW", "date": "2026-06-05", "severity": 1, "source": "firms"}}, {"type": "Feature", "geometry": {"type": "Point", "coordinates": [34.03846, 52.17545]}, "properties": {"title": "FIRMS Thermal 4.5MW", "summary": "[FIRMS] thermal anomaly 52.175, 34.038 (FRP 4.49 MW, conf nominal) \u2014 VIIRS S-NPP NRT, sat N, acquired 2026-06-05 0043Z, FRP 4.49 MW", "date": "2026-06-05", "severity": 1, "source": "firms"}}, {"type": "Feature", "geometry": {"type": "Point", "coordinates": [32.81213, 52.3022]}, "properties": {"title": "FIRMS Thermal 3.2MW", "summary": "[FIRMS] thermal anomaly 52.302, 32.812 (FRP 3.21 MW, conf nominal) \u2014 VIIRS S-NPP NRT, sat N, acquired 2026-06-05 0043Z, FRP 3.21 MW", "date": "2026-06-05", "severity": 1, "source": "firms"}}, {"type": "Feature", "geometry": {"type": "Point", "coordinates": [34.05781, 51.77343]}, "properties": {"title": "FIRMS Thermal 2.3MW", "summary": "[FIRMS] thermal anomaly 51.773, 34.058 (FRP 2.27 MW, conf nominal) \u2014 VIIRS S-NPP NRT, sat N, acquired 2026-06-05 0043Z, FRP 2.27 MW", "date": "2026-06-05", "severity": 1, "source": "firms"}}, {"type": "Feature", "geometry": {"type": "Point", "coordinates": [26.26143, 50.54289]}, "properties": {"title": "FIRMS Thermal 2.0MW", "summary": "[FIRMS] thermal anomaly 50.543, 26.261 (FRP 2 MW, conf nominal) \u2014 VIIRS S-NPP NRT, sat N, acquired 2026-06-05 0043Z, FRP 2 MW", "date": "2026-06-05", "severity": 1, "source": "firms"}}, {"type": "Feature", "geometry": {"type": "Point", "coordinates": [33.43106, 47.86673]}, "properties": {"title": "FIRMS Thermal 20.8MW", "summary": "[FIRMS] thermal anomaly 47.867, 33.431 (FRP 20.84 MW, conf nominal) \u2014 VIIRS S-NPP NRT, sat N, acquired 2026-06-05 0043Z, FRP 20.84 MW", "date": "2026-06-05", "severity": 5, "source": "firms"}}, {"type": "Feature", "geometry": {"type": "Point", "coordinates": [33.42987, 47.86583]}, "properties": {"title": "FIRMS Thermal 16.0MW", "summary": "[FIRMS] thermal anomaly 47.866, 33.430 (FRP 16.04 MW, conf nominal) \u2014 VIIRS S-NPP NRT, sat N, acquired 2026-06-05 0043Z, FRP 16.04 MW", "date": "2026-06-05", "severity": 4, "source": "firms"}}, {"type": "Feature", "geometry": {"type": "Point", "coordinates": [33.43688, 47.86398]}, "properties": {"title": "FIRMS Thermal 6.4MW", "summary": "[FIRMS] thermal anomaly 47.864, 33.437 (FRP 6.44 MW, conf nominal) \u2014 VIIRS S-NPP NRT, sat N, acquired 2026-06-05 0043Z, FRP 6.44 MW", "date": "2026-06-05", "severity": 2, "source": "firms"}}, {"type": "Feature", "geometry": {"type": "Point", "coordinates": [31.67283, 45.25726]}, "properties": {"title": "FIRMS Thermal 8.1MW", "summary": "[FIRMS] thermal anomaly 45.257, 31.673 (FRP 8.05 MW, conf nominal) \u2014 VIIRS S-NPP NRT, sat N, acquired 2026-06-05 0043Z, FRP 8.05 MW", "date": "2026-06-05", "severity": 2, "source": "firms"}}, {"type": "Feature", "geometry": {"type": "Point", "coordinates": [31.67324, 45.25595]}, "properties": {"title": "FIRMS Thermal 3.6MW", "summary": "[FIRMS] thermal anomaly 45.256, 31.673 (FRP 3.58 MW, conf nominal) \u2014 VIIRS S-NPP NRT, sat N, acquired 2026-06-05 0043Z, FRP 3.58 MW", "date": "2026-06-05", "severity": 1, "source": "firms"}}, {"type": "Feature", "geometry": {"type": "Point", "coordinates": [30.92724, 45.37581]}, "properties": {"title": "FIRMS Thermal 2.0MW", "summary": "[FIRMS] thermal anomaly 45.376, 30.927 (FRP 2.05 MW, conf nominal) \u2014 VIIRS S-NPP NRT, sat N, acquired 2026-06-05 0043Z, FRP 2.05 MW", "date": "2026-06-05", "severity": 1, "source": "firms"}}, {"type": "Feature", "geometry": {"type": "Point", "coordinates": [31.67439, 45.2593]}, "properties": {"title": "FIRMS Thermal 8.7MW", "summary": "[FIRMS] thermal anomaly 45.259, 31.674 (FRP 8.69 MW, conf nominal) \u2014 VIIRS S-NPP NRT, sat N, acquired 2026-06-05 1030Z, FRP 8.69 MW", "date": "2026-06-05", "severity": 2, "source": "firms"}}, {"type": "Feature", "geometry": {"type": "Point", "coordinates": [31.67374, 45.25955]}, "properties": {"title": "FIRMS Thermal 8.0MW", "summary": "[FIRMS] thermal anomaly 45.260, 31.674 (FRP 7.96 MW, conf nominal) \u2014 VIIRS S-NPP NRT, sat N, acquired 2026-06-05 1030Z, FRP 7.96 MW", "date": "2026-06-05", "severity": 2, "source": "firms"}}, {"type": "Feature", "geometry": {"type": "Point", "coordinates": [32.90986, 46.69572]}, "properties": {"title": "FIRMS Thermal 8.1MW", "summary": "[FIRMS] thermal anomaly 46.696, 32.910 (FRP 8.05 MW, conf nominal) \u2014 VIIRS S-NPP NRT, sat N, acquired 2026-06-05 1030Z, FRP 8.05 MW", "date": "2026-06-05", "severity": 2, "source": "firms"}}, {"type": "Feature", "geometry": {"type": "Point", "coordinates": [31.84429, 46.50532]}, "properties": {"title": "FIRMS Thermal 8.6MW", "summary": "[FIRMS] thermal anomaly 46.505, 31.844 (FRP 8.57 MW, conf nominal) \u2014 VIIRS S-NPP NRT, sat N, acquired 2026-06-05 1030Z, FRP 8.57 MW", "date": "2026-06-05", "severity": 2, "source": "firms"}}, {"type": "Feature", "geometry": {"type": "Point", "coordinates": [31.84284, 46.50525]}, "properties": {"title": "FIRMS Thermal 12.0MW", "summary": "[FIRMS] thermal anomaly 46.505, 31.843 (FRP 12 MW, conf nominal) \u2014 VIIRS S-NPP NRT, sat N, acquired 2026-06-05 1030Z, FRP 12 MW", "date": "2026-06-05", "severity": 3, "source": "firms"}}, {"type": "Feature", "geometry": {"type": "Point", "coordinates": [33.34254, 46.85768]}, "properties": {"title": "FIRMS Thermal 7.3MW", "summary": "[FIRMS] thermal anomaly 46.858, 33.343 (FRP 7.27 MW, conf nominal) \u2014 VIIRS S-NPP NRT, sat N, acquired 2026-06-05 1030Z, FRP 7.27 MW", "date": "2026-06-05", "severity": 2, "source": "firms"}}, {"type": "Feature", "geometry": {"type": "Point", "coordinates": [32.05237, 46.63081]}, "properties": {"title": "FIRMS Thermal 5.5MW", "summary": "[FIRMS] thermal anomaly 46.631, 32.052 (FRP 5.53 MW, conf nominal) \u2014 VIIRS S-NPP NRT, sat N, acquired 2026-06-05 1030Z, FRP 5.53 MW", "date": "2026-06-05", "severity": 2, "source": "firms"}}, {"type": "Feature", "geometry": {"type": "Point", "coordinates": [32.04649, 46.62966]}, "properties": {"title": "FIRMS Thermal 5.5MW", "summary": "[FIRMS] thermal anomaly 46.630, 32.046 (FRP 5.53 MW, conf nominal) \u2014 VIIRS S-NPP NRT, sat N, acquired 2026-06-05 1030Z, FRP 5.53 MW", "date": "2026-06-05", "severity": 2, "source": "firms"}}, {"type": "Feature", "geometry": {"type": "Point", "coordinates": [32.04504, 46.63316]}, "properties": {"title": "FIRMS Thermal 5.5MW", "summary": "[FIRMS] thermal anomaly 46.633, 32.045 (FRP 5.53 MW, conf nominal) \u2014 VIIRS S-NPP NRT, sat N, acquired 2026-06-05 1030Z, FRP 5.53 MW", "date": "2026-06-05", "severity": 2, "source": "firms"}}, {"type": "Feature", "geometry": {"type": "Point", "coordinates": [30.23871, 46.43607]}, "properties": {"title": "FIRMS Thermal 10.1MW", "summary": "[FIRMS] thermal anomaly 46.436, 30.239 (FRP 10.07 MW, conf nominal) \u2014 VIIRS S-NPP NRT, sat N, acquired 2026-06-05 1030Z, FRP 10.07 MW", "date": "2026-06-05", "severity": 3, "source": "firms"}}, {"type": "Feature", "geometry": {"type": "Point", "coordinates": [34.63273, 48.47234]}, "properties": {"title": "FIRMS Thermal 3.1MW", "summary": "[FIRMS] thermal anomaly 48.472, 34.633 (FRP 3.11 MW, conf nominal) \u2014 VIIRS S-NPP NRT, sat N, acquired 2026-06-05 1030Z, FRP 3.11 MW", "date": "2026-06-05", "severity": 1, "source": "firms"}}, {"type": "Feature", "geometry": {"type": "Point", "coordinates": [34.62754, 48.47148]}, "properties": {"title": "FIRMS Thermal 3.1MW", "summary": "[FIRMS] thermal anomaly 48.471, 34.628 (FRP 3.11 MW, conf nominal) \u2014 VIIRS S-NPP NRT, sat N, acquired 2026-06-05 1030Z, FRP 3.11 MW", "date": "2026-06-05", "severity": 1, "source": "firms"}}, {"type": "Feature", "geometry": {"type": "Point", "coordinates": [34.63087, 48.5207]}, "properties": {"title": "FIRMS Thermal 4.0MW", "summary": "[FIRMS] thermal anomaly 48.521, 34.631 (FRP 3.97 MW, conf nominal) \u2014 VIIRS S-NPP NRT, sat N, acquired 2026-06-05 1030Z, FRP 3.97 MW", "date": "2026-06-05", "severity": 1, "source": "firms"}}, {"type": "Feature", "geometry": {"type": "Point", "coordinates": [34.77969, 51.07694]}, "properties": {"title": "FIRMS Thermal 4.5MW", "summary": "[FIRMS] thermal anomaly 51.077, 34.780 (FRP 4.45 MW, conf nominal) \u2014 VIIRS S-NPP NRT, sat N, acquired 2026-06-05 1032Z, FRP 4.45 MW", "date": "2026-06-05", "severity": 1, "source": "firms"}}, {"type": "Feature", "geometry": {"type": "Point", "coordinates": [34.3779, 51.33589]}, "properties": {"title": "FIRMS Thermal 7.3MW", "summary": "[FIRMS] thermal anomaly 51.336, 34.378 (FRP 7.32 MW, conf nominal) \u2014 VIIRS S-NPP NRT, sat N, acquired 2026-06-05 1032Z, FRP 7.32 MW", "date": "2026-06-05", "severity": 2, "source": "firms"}}, {"type": "Feature", "geometry": {"type": "Point", "coordinates": [33.04656, 52.25192]}, "properties": {"title": "FIRMS Thermal 5.3MW", "summary": "[FIRMS] thermal anomaly 52.252, 33.047 (FRP 5.29 MW, conf nominal) \u2014 VIIRS S-NPP NRT, sat N, acquired 2026-06-05 1032Z, FRP 5.29 MW", "date": "2026-06-05", "severity": 2, "source": "firms"}}, {"type": "Feature", "geometry": {"type": "Point", "coordinates": [32.31871, 52.14137]}, "properties": {"title": "FIRMS Thermal 3.1MW", "summary": "[FIRMS] thermal anomaly 52.141, 32.319 (FRP 3.1 MW, conf nominal) \u2014 VIIRS S-NPP NRT, sat N, acquired 2026-06-05 1032Z, FRP 3.1 MW", "date": "2026-06-05", "severity": 1, "source": "firms"}}, {"type": "Feature", "geometry": {"type": "Point", "coordinates": [29.34092, 51.89149]}, "properties": {"title": "FIRMS Thermal 8.5MW", "summary": "[FIRMS] thermal anomaly 51.891, 29.341 (FRP 8.5 MW, conf nominal) \u2014 VIIRS S-NPP NRT, sat N, acquired 2026-06-05 1032Z, FRP 8.5 MW", "date": "2026-06-05", "severity": 2, "source": "firms"}}, {"type": "Feature", "geometry": {"type": "Point", "coordinates": [29.5544, 51.93778]}, "properties": {"title": "FIRMS Thermal 2.2MW", "summary": "[FIRMS] thermal anomaly 51.938, 29.554 (FRP 2.19 MW, conf nominal) \u2014 VIIRS S-NPP NRT, sat N, acquired 2026-06-05 1032Z, FRP 2.19 MW", "date": "2026-06-05", "severity": 1, "source": "firms"}}, {"type": "Feature", "geometry": {"type": "Point", "coordinates": [29.5481, 51.93653]}, "properties": {"title": "FIRMS Thermal 2.2MW", "summary": "[FIRMS] thermal anomaly 51.937, 29.548 (FRP 2.19 MW, conf nominal) \u2014 VIIRS S-NPP NRT, sat N, acquired 2026-06-05 1032Z, FRP 2.19 MW", "date": "2026-06-05", "severity": 1, "source": "firms"}}, {"type": "Feature", "geometry": {"type": "Point", "coordinates": [29.54634, 51.93997]}, "properties": {"title": "FIRMS Thermal 8.5MW", "summary": "[FIRMS] thermal anomaly 51.940, 29.546 (FRP 8.47 MW, conf nominal) \u2014 VIIRS S-NPP NRT, sat N, acquired 2026-06-05 1032Z, FRP 8.47 MW", "date": "2026-06-05", "severity": 2, "source": "firms"}}, {"type": "Feature", "geometry": {"type": "Point", "coordinates": [29.34362, 51.89305]}, "properties": {"title": "FIRMS Thermal 3.9MW", "summary": "[FIRMS] thermal anomaly 51.893, 29.344 (FRP 3.88 MW, conf nominal) \u2014 VIIRS S-NPP NRT, sat N, acquired 2026-06-05 1212Z, FRP 3.88 MW", "date": "2026-06-05", "severity": 1, "source": "firms"}}, {"type": "Feature", "geometry": {"type": "Point", "coordinates": [127.4, -8.2]}, "properties": {"title": "M5.3 - 97km NNE of Lospalos, Timor Leste", "summary": "Earthquake M5.3 - 97km NNE of Lospalos, Timor Leste", "date": "2026-06-05", "severity": 3, "source": "usgs"}}, {"type": "Feature", "geometry": {"type": "Point", "coordinates": [124.0, 13.2]}, "properties": {"title": "M5.3 - 7km NNW of Manito, Philippines", "summary": "Earthquake M5.3 - 7km NNW of Manito, Philippines", "date": "2026-06-05", "severity": 3, "source": "usgs"}}, {"type": "Feature", "geometry": {"type": "Point", "coordinates": [-145.0, -56.5]}, "properties": {"title": "M5.3 - Pacific-Antarctic Ridge", "summary": "Earthquake M5.3 - Pacific-Antarctic Ridge", "date": "2026-06-05", "severity": 3, "source": "usgs"}}, {"type": "Feature", "geometry": {"type": "Point", "coordinates": [122.4, -0.7]}, "properties": {"title": "M5.2 - 77km S of Gorontalo, Indonesia", "summary": "Earthquake M5.2 - 77km S of Gorontalo, Indonesia", "date": "2026-06-05", "severity": 3, "source": "usgs"}}]}