{
  "type": "FeatureCollection",
  "features": [
    {
      "type": "Feature",
      "geometry": {
        "type": "Point",
        "coordinates": [
          34.051,
          52.184
        ]
      },
      "properties": {
        "title": "FIRMS thermal anomaly - Sumy region (FRP 5.1 MW)",
        "summary": "VIIRS FIRMS thermal anomaly FRP 5.11 MW. Acquired 2026-06-08. Ukraine theater monitoring.",
        "date": "2026-06-08",
        "severity": 5,
        "source": "firms"
      }
    },
    {
      "type": "Feature",
      "geometry": {
        "type": "Point",
        "coordinates": [
          32.52,
          46.484
        ]
      },
      "properties": {
        "title": "FIRMS thermal anomaly - Mykolaiv area (FRP 14.1 MW)",
        "summary": "VIIRS FIRMS thermal anomaly FRP 14.12 MW. Acquired 2026-06-08. Ukraine theater monitoring.",
        "date": "2026-06-08",
        "severity": 10,
        "source": "firms"
      }
    },
    {
      "type": "Feature",
      "geometry": {
        "type": "Point",
        "coordinates": [
          32.52,
          46.48
        ]
      },
      "properties": {
        "title": "FIRMS thermal anomaly - Mykolaiv area (FRP 12.5 MW)",
        "summary": "VIIRS FIRMS thermal anomaly FRP 12.54 MW. Acquired 2026-06-08. Ukraine theater monitoring.",
        "date": "2026-06-08",
        "severity": 10,
        "source": "firms"
      }
    },
    {
      "type": "Feature",
      "geometry": {
        "type": "Point",
        "coordinates": [
          31.673,
          45.259
        ]
      },
      "properties": {
        "title": "FIRMS thermal anomaly - Kherson/Crimea border (FRP 10.5 MW)",
        "summary": "VIIRS FIRMS thermal anomaly FRP 10.5 MW. Acquired 2026-06-08. Ukraine theater monitoring.",
        "date": "2026-06-08",
        "severity": 9,
        "source": "firms"
      }
    },
    {
      "type": "Feature",
      "geometry": {
        "type": "Point",
        "coordinates": [
          34.917,
          51.097
        ]
      },
      "properties": {
        "title": "FIRMS thermal anomaly - Sumy oblast (FRP 1.7 MW)",
        "summary": "VIIRS FIRMS thermal anomaly FRP 1.67 MW. Acquired 2026-06-08. Ukraine theater monitoring.",
        "date": "2026-06-08",
        "severity": 2,
        "source": "firms"
      }
    },
    {
      "type": "Feature",
      "geometry": {
        "type": "Point",
        "coordinates": [
          26.604,
          48.748
        ]
      },
      "properties": {
        "title": "FIRMS thermal anomaly - Vinnytsia/Khmelnytskyi (FRP 0.7 MW)",
        "summary": "VIIRS FIRMS thermal anomaly FRP 0.71 MW. Acquired 2026-06-08. Ukraine theater monitoring.",
        "date": "2026-06-08",
        "severity": 1,
        "source": "firms"
      }
    },
    {
      "type": "Feature",
      "geometry": {
        "type": "Point",
        "coordinates": [
          24.707,
          48.976
        ]
      },
      "properties": {
        "title": "FIRMS thermal anomaly - Ivano-Frankivsk oblast (FRP 1.0 MW)",
        "summary": "VIIRS FIRMS thermal anomaly FRP 0.96 MW. Acquired 2026-06-08. Ukraine theater monitoring.",
        "date": "2026-06-08",
        "severity": 1,
        "source": "firms"
      }
    },
    {
      "type": "Feature",
      "geometry": {
        "type": "Point",
        "coordinates": [
          36.685,
          49.833
        ]
      },
      "properties": {
        "title": "Russian missile/drone strike - Chuhuiv, Kharkiv oblast",
        "summary": "3 killed, 6 wounded. Day of mourning declared.",
        "date": "2026-06-09",
        "severity": 7,
        "source": "acled"
      }
    },
    {
      "type": "Feature",
      "geometry": {
        "type": "Point",
        "coordinates": [
          35.139,
          47.838
        ]
      },
      "properties": {
        "title": "Russian drone strike - residential Zaporizhzhia",
        "summary": "2 killed, 32 wounded (5 children). Attack on residential district.",
        "date": "2026-06-09",
        "severity": 8,
        "source": "acled"
      }
    },
    {
      "type": "Feature",
      "geometry": {
        "type": "Point",
        "coordinates": [
          32.617,
          46.636
        ]
      },
      "properties": {
        "title": "Ukrainian drone strike - Chongar Bridge to Crimea",
        "summary": "Bridge damaged, traffic suspended. Key Russian supply route.",
        "date": "2026-06-09",
        "severity": 7,
        "source": "acled"
      }
    },
    {
      "type": "Feature",
      "geometry": {
        "type": "Point",
        "coordinates": [
          31.29,
          51.49
        ]
      },
      "properties": {
        "title": "Russian FPV drone attack - Semenivka bread delivery vehicle, Chernihiv",
        "summary": "Driver wounded. Border area attack on civilian vehicle.",
        "date": "2026-06-09",
        "severity": 4,
        "source": "acled"
      }
    },
    {
      "type": "Feature",
      "geometry": {
        "type": "Point",
        "coordinates": [
          37.96,
          55.797
        ]
      },
      "properties": {
        "title": "Car bomb - Balashikha (Moscow suburb)",
        "summary": "BMW X3 exploded, driver killed. Military district adjacent area.",
        "date": "2026-06-09",
        "severity": 6,
        "source": "acled"
      }
    },
    {
      "type": "Feature",
      "geometry": {
        "type": "Point",
        "coordinates": [
          35.046,
          48.466
        ]
      },
      "properties": {
        "title": "Russian double attack on rescuers - Dnipropetrovsk",
        "summary": "Rescuers attacked twice while fighting fire caused by initial strike.",
        "date": "2026-06-09",
        "severity": 5,
        "source": "acled"
      }
    },
    {
      "type": "Feature",
      "geometry": {
        "type": "Point",
        "coordinates": [
          31.997,
          46.95
        ]
      },
      "properties": {
        "title": "Civilian mine casualty - Kherson center",
        "summary": "67-yr-old utility worker lost foot after stepping on Russian mine.",
        "date": "2026-06-09",
        "severity": 4,
        "source": "acled"
      }
    },
    {
      "type": "Feature",
      "geometry": {
        "type": "Point",
        "coordinates": [
          126.5,
          6.8
        ]
      },
      "properties": {
        "title": "Major earthquake - Mindanao, Philippines",
        "summary": "Dozens killed, hundreds injured. Hundreds of aftershocks. Southern Philippines.",
        "date": "2026-06-08",
        "severity": 8,
        "source": "usgs"
      }
    },
    {
      "type": "Feature",
      "geometry": {
        "type": "Point",
        "coordinates": [
          27.46,
          0.52
        ]
      },
      "properties": {
        "title": "Ebola outbreak - Democratic Republic of Congo",
        "summary": "100 deaths of 550 cases after one month. CFR ~18%.",
        "date": "2026-06-09",
        "severity": 7,
        "source": "gdacs"
      }
    }
  ]
}