{
  "type": "FeatureCollection",
  "features": [
    {
      "type": "Feature",
      "geometry": {
        "type": "Point",
        "coordinates": [
          -179.849,
          -24.3729
        ]
      },
      "properties": {
        "title": "M5.4 - south of the Fiji Islands",
        "summary": "Magnitude 5.4 earthquake, depth 506.648km. Alert: green",
        "date": "2026-06-07",
        "severity": 6,
        "source": "usgs"
      }
    },
    {
      "type": "Feature",
      "geometry": {
        "type": "Point",
        "coordinates": [
          128.439,
          -7.4742
        ]
      },
      "properties": {
        "title": "M5.1 - 196 km NE of Lospalos, Timor Leste",
        "summary": "Magnitude 5.1 earthquake, depth 161.221km. Alert: none",
        "date": "2026-06-07",
        "severity": 6,
        "source": "usgs"
      }
    },
    {
      "type": "Feature",
      "geometry": {
        "type": "Point",
        "coordinates": [
          125.0469,
          5.5918
        ]
      },
      "properties": {
        "title": "M7.8 - 26 km SW of Kablalan, Philippines",
        "summary": "Magnitude 7.8 earthquake, depth 55.193km. Alert: orange",
        "date": "2026-06-07",
        "severity": 9,
        "source": "usgs"
      }
    },
    {
      "type": "Feature",
      "geometry": {
        "type": "Point",
        "coordinates": [
          157.3799,
          49.8993
        ]
      },
      "properties": {
        "title": "M6.1 - 124 km SE of Severo-Kuril\u2019sk, Russia",
        "summary": "Magnitude 6.1 earthquake, depth 35km. Alert: green",
        "date": "2026-06-07",
        "severity": 7,
        "source": "usgs"
      }
    },
    {
      "type": "Feature",
      "geometry": {
        "type": "Point",
        "coordinates": [
          125.3204,
          5.7148
        ]
      },
      "properties": {
        "title": "M6.0 - 4 km ENE of Pangyan, Philippines",
        "summary": "Magnitude 6.0 earthquake, depth 35km. Alert: none",
        "date": "2026-06-07",
        "severity": 7,
        "source": "usgs"
      }
    },
    {
      "type": "Feature",
      "geometry": {
        "type": "Point",
        "coordinates": [
          125.2096,
          5.5222
        ]
      },
      "properties": {
        "title": "M6.0 - 16 km WSW of Balangonan, Philippines",
        "summary": "Magnitude 6.0 earthquake, depth 81.843km. Alert: green",
        "date": "2026-06-07",
        "severity": 7,
        "source": "usgs"
      }
    },
    {
      "type": "Feature",
      "geometry": {
        "type": "Point",
        "coordinates": [
          -112.2108,
          -29.1847
        ]
      },
      "properties": {
        "title": "M5.8 - Easter Island region",
        "summary": "Magnitude 5.8 earthquake, depth 10km. Alert: green",
        "date": "2026-06-07",
        "severity": 6,
        "source": "usgs"
      }
    },
    {
      "type": "Feature",
      "geometry": {
        "type": "Point",
        "coordinates": [
          89.7236,
          27.6243
        ]
      },
      "properties": {
        "title": "M5.6 - 15 km WNW of Pun\u0101kha, Bhutan",
        "summary": "Magnitude 5.6 earthquake, depth 10km. Alert: green",
        "date": "2026-06-07",
        "severity": 6,
        "source": "usgs"
      }
    },
    {
      "type": "Feature",
      "geometry": {
        "type": "Point",
        "coordinates": [
          157.6645,
          49.8979
        ]
      },
      "properties": {
        "title": "M5.5 - 139 km SE of Severo-Kuril\u2019sk, Russia",
        "summary": "Magnitude 5.5 earthquake, depth 10km. Alert: green",
        "date": "2026-06-07",
        "severity": 6,
        "source": "usgs"
      }
    },
    {
      "type": "Feature",
      "geometry": {
        "type": "Point",
        "coordinates": [
          23.4046,
          38.7304
        ]
      },
      "properties": {
        "title": "M5.2 - 7 km W of Prok\u00f3pi, Greece",
        "summary": "Magnitude 5.2 earthquake, depth 10km. Alert: none",
        "date": "2026-06-07",
        "severity": 6,
        "source": "usgs"
      }
    },
    {
      "type": "Feature",
      "geometry": {
        "type": "Point",
        "coordinates": [
          23.3819,
          38.7777
        ]
      },
      "properties": {
        "title": "M4.9 - 5 km ENE of L\u00edmni, Greece",
        "summary": "Magnitude 4.9 earthquake, depth 10km. Alert: none",
        "date": "2026-06-07",
        "severity": 5,
        "source": "usgs"
      }
    },
    {
      "type": "Feature",
      "geometry": {
        "type": "Point",
        "coordinates": [
          -84.6908,
          2.0593
        ]
      },
      "properties": {
        "title": "M4.7 - off the coast of Central America",
        "summary": "Magnitude 4.7 earthquake, depth 10km. Alert: none",
        "date": "2026-06-07",
        "severity": 5,
        "source": "usgs"
      }
    },
    {
      "type": "Feature",
      "geometry": {
        "type": "Point",
        "coordinates": [
          101.5557,
          -5.1466
        ]
      },
      "properties": {
        "title": "M4.7 - 168 km SSW of Bengkulu, Indonesia",
        "summary": "Magnitude 4.7 earthquake, depth 10km. Alert: none",
        "date": "2026-06-07",
        "severity": 5,
        "source": "usgs"
      }
    },
    {
      "type": "Feature",
      "geometry": {
        "type": "Point",
        "coordinates": [
          101.9563,
          29.881
        ]
      },
      "properties": {
        "title": "M4.6 - 13 km S of Kangding, China",
        "summary": "Magnitude 4.6 earthquake, depth 10km. Alert: none",
        "date": "2026-06-07",
        "severity": 5,
        "source": "usgs"
      }
    },
    {
      "type": "Feature",
      "geometry": {
        "type": "Point",
        "coordinates": [
          157.4645,
          50.0122
        ]
      },
      "properties": {
        "title": "M4.6 - 120 km SE of Severo-Kuril\u2019sk, Russia",
        "summary": "Magnitude 4.6 earthquake, depth 35km. Alert: none",
        "date": "2026-06-07",
        "severity": 5,
        "source": "usgs"
      }
    },
    {
      "type": "Feature",
      "geometry": {
        "type": "Point",
        "coordinates": [
          -67.0098,
          -24.2434
        ]
      },
      "properties": {
        "title": "M4.6 - 70 km W of San Antonio de los Cobres, Argentina",
        "summary": "Magnitude 4.6 earthquake, depth 182.14km. Alert: none",
        "date": "2026-06-07",
        "severity": 5,
        "source": "usgs"
      }
    },
    {
      "type": "Feature",
      "geometry": {
        "type": "Point",
        "coordinates": [
          141.971,
          30.6675
        ]
      },
      "properties": {
        "title": "M4.6 - Izu Islands, Japan region",
        "summary": "Magnitude 4.6 earthquake, depth 10km. Alert: none",
        "date": "2026-06-07",
        "severity": 5,
        "source": "usgs"
      }
    },
    {
      "type": "Feature",
      "geometry": {
        "type": "Point",
        "coordinates": [
          96.1308,
          2.5731
        ]
      },
      "properties": {
        "title": "M4.6 - 29 km WNW of Sinabang, Indonesia",
        "summary": "Magnitude 4.6 earthquake, depth 26.408km. Alert: none",
        "date": "2026-06-07",
        "severity": 5,
        "source": "usgs"
      }
    },
    {
      "type": "Feature",
      "geometry": {
        "type": "Point",
        "coordinates": [
          -178.669,
          -20.7441
        ]
      },
      "properties": {
        "title": "M4.5 - Fiji region",
        "summary": "Magnitude 4.5 earthquake, depth 591.513km. Alert: none",
        "date": "2026-06-07",
        "severity": 5,
        "source": "usgs"
      }
    },
    {
      "type": "Feature",
      "geometry": {
        "type": "Point",
        "coordinates": [
          179.8177,
          -25.1179
        ]
      },
      "properties": {
        "title": "M4.5 - south of the Fiji Islands",
        "summary": "Magnitude 4.5 earthquake, depth 516.817km. Alert: none",
        "date": "2026-06-07",
        "severity": 5,
        "source": "usgs"
      }
    },
    {
      "type": "Feature",
      "geometry": {
        "type": "Point",
        "coordinates": [
          158.5609,
          50.0857
        ]
      },
      "properties": {
        "title": "M4.5 - 185 km ESE of Severo-Kuril\u2019sk, Russia",
        "summary": "Magnitude 4.5 earthquake, depth 10km. Alert: none",
        "date": "2026-06-07",
        "severity": 5,
        "source": "usgs"
      }
    },
    {
      "type": "Feature",
      "geometry": {
        "type": "Point",
        "coordinates": [
          125.2046,
          5.4724
        ]
      },
      "properties": {
        "title": "M6.5 - 19 km SW of Balangonan, Philippines",
        "summary": "Magnitude 6.5 earthquake, depth 65.57km. Alert: green",
        "date": "2026-06-08",
        "severity": 7,
        "source": "usgs"
      }
    },
    {
      "type": "Feature",
      "geometry": {
        "type": "Point",
        "coordinates": [
          125.5344,
          5.3313
        ]
      },
      "properties": {
        "title": "M5.8 - 11 km SE of Sarangani, Philippines",
        "summary": "Magnitude 5.8 earthquake, depth 52.541km. Alert: green",
        "date": "2026-06-08",
        "severity": 6,
        "source": "usgs"
      }
    },
    {
      "type": "Feature",
      "geometry": {
        "type": "Point",
        "coordinates": [
          125.215,
          4.9789
        ]
      },
      "properties": {
        "title": "M5.7 - 54 km SSW of Sarangani, Philippines",
        "summary": "Magnitude 5.7 earthquake, depth 35km. Alert: green",
        "date": "2026-06-08",
        "severity": 6,
        "source": "usgs"
      }
    },
    {
      "type": "Feature",
      "geometry": {
        "type": "Point",
        "coordinates": [
          125.4566,
          5.3774
        ]
      },
      "properties": {
        "title": "M5.5 - 2 km SSW of Sarangani, Philippines",
        "summary": "Magnitude 5.5 earthquake, depth 51.144km. Alert: green",
        "date": "2026-06-08",
        "severity": 6,
        "source": "usgs"
      }
    },
    {
      "type": "Feature",
      "geometry": {
        "type": "Point",
        "coordinates": [
          125.1601,
          5.3935
        ]
      },
      "properties": {
        "title": "M5.3 - 29 km SW of Balangonan, Philippines",
        "summary": "Magnitude 5.3 earthquake, depth 69.126km. Alert: none",
        "date": "2026-06-08",
        "severity": 6,
        "source": "usgs"
      }
    },
    {
      "type": "Feature",
      "geometry": {
        "type": "Point",
        "coordinates": [
          125.4434,
          4.8984
        ]
      },
      "properties": {
        "title": "M5.3 - 55 km S of Sarangani, Philippines",
        "summary": "Magnitude 5.3 earthquake, depth 57.891km. Alert: none",
        "date": "2026-06-08",
        "severity": 6,
        "source": "usgs"
      }
    },
    {
      "type": "Feature",
      "geometry": {
        "type": "Point",
        "coordinates": [
          125.3513,
          4.787
        ]
      },
      "properties": {
        "title": "M5.3 - 69 km S of Sarangani, Philippines",
        "summary": "Magnitude 5.3 earthquake, depth 51.359km. Alert: none",
        "date": "2026-06-08",
        "severity": 6,
        "source": "usgs"
      }
    },
    {
      "type": "Feature",
      "geometry": {
        "type": "Point",
        "coordinates": [
          125.1798,
          4.8963
        ]
      },
      "properties": {
        "title": "M5.1 - 64 km SSW of Sarangani, Philippines",
        "summary": "Magnitude 5.1 earthquake, depth 76.712km. Alert: none",
        "date": "2026-06-08",
        "severity": 6,
        "source": "usgs"
      }
    },
    {
      "type": "Feature",
      "geometry": {
        "type": "Point",
        "coordinates": [
          125.0994,
          5.4985
        ]
      },
      "properties": {
        "title": "M5.0 - 29 km WSW of Balangonan, Philippines",
        "summary": "Magnitude 5.0 earthquake, depth 53.484km. Alert: none",
        "date": "2026-06-08",
        "severity": 6,
        "source": "usgs"
      }
    },
    {
      "type": "Feature",
      "geometry": {
        "type": "Point",
        "coordinates": [
          125.1257,
          5.1926
        ]
      },
      "properties": {
        "title": "M5.0 - 44 km WSW of Sarangani, Philippines",
        "summary": "Magnitude 5.0 earthquake, depth 35km. Alert: none",
        "date": "2026-06-08",
        "severity": 6,
        "source": "usgs"
      }
    },
    {
      "type": "Feature",
      "geometry": {
        "type": "Point",
        "coordinates": [
          125.1793,
          5.2138
        ]
      },
      "properties": {
        "title": "M5.0 - 37 km WSW of Sarangani, Philippines",
        "summary": "Magnitude 5.0 earthquake, depth 44.502km. Alert: none",
        "date": "2026-06-08",
        "severity": 6,
        "source": "usgs"
      }
    },
    {
      "type": "Feature",
      "geometry": {
        "type": "Point",
        "coordinates": [
          100.456,
          -0.7906
        ]
      },
      "properties": {
        "title": "M4.9 - 20 km NNE of Padang, Indonesia",
        "summary": "Magnitude 4.9 earthquake, depth 93.13km. Alert: none",
        "date": "2026-06-08",
        "severity": 5,
        "source": "usgs"
      }
    },
    {
      "type": "Feature",
      "geometry": {
        "type": "Point",
        "coordinates": [
          125.1228,
          5.0116
        ]
      },
      "properties": {
        "title": "M4.9 - 57 km SW of Sarangani, Philippines",
        "summary": "Magnitude 4.9 earthquake, depth 35km. Alert: none",
        "date": "2026-06-08",
        "severity": 5,
        "source": "usgs"
      }
    },
    {
      "type": "Feature",
      "geometry": {
        "type": "Point",
        "coordinates": [
          125.1956,
          5.3553
        ]
      },
      "properties": {
        "title": "M4.9 - 29 km SW of Balangonan, Philippines",
        "summary": "Magnitude 4.9 earthquake, depth 35km. Alert: none",
        "date": "2026-06-08",
        "severity": 5,
        "source": "usgs"
      }
    },
    {
      "type": "Feature",
      "geometry": {
        "type": "Point",
        "coordinates": [
          125.3274,
          5.5478
        ]
      },
      "properties": {
        "title": "M4.9 - 4 km SW of Balangonan, Philippines",
        "summary": "Magnitude 4.9 earthquake, depth 54.502km. Alert: none",
        "date": "2026-06-08",
        "severity": 5,
        "source": "usgs"
      }
    },
    {
      "type": "Feature",
      "geometry": {
        "type": "Point",
        "coordinates": [
          125.2727,
          5.7459
        ]
      },
      "properties": {
        "title": "M4.8 - 3 km NE of Burias, Philippines",
        "summary": "Magnitude 4.8 earthquake, depth 59.87km. Alert: none",
        "date": "2026-06-08",
        "severity": 5,
        "source": "usgs"
      }
    },
    {
      "type": "Feature",
      "geometry": {
        "type": "Point",
        "coordinates": [
          125.3603,
          5.5664
        ]
      },
      "properties": {
        "title": "M4.8 - 1 km SE of Balangonan, Philippines",
        "summary": "Magnitude 4.8 earthquake, depth 35km. Alert: none",
        "date": "2026-06-08",
        "severity": 5,
        "source": "usgs"
      }
    },
    {
      "type": "Feature",
      "geometry": {
        "type": "Point",
        "coordinates": [
          125.3375,
          5.3206
        ]
      },
      "properties": {
        "title": "M4.7 - 16 km WSW of Sarangani, Philippines",
        "summary": "Magnitude 4.7 earthquake, depth 35km. Alert: none",
        "date": "2026-06-08",
        "severity": 5,
        "source": "usgs"
      }
    },
    {
      "type": "Feature",
      "geometry": {
        "type": "Point",
        "coordinates": [
          125.8947,
          5.3681
        ]
      },
      "properties": {
        "title": "M4.7 - 47 km E of Sarangani, Philippines",
        "summary": "Magnitude 4.7 earthquake, depth 63.869km. Alert: none",
        "date": "2026-06-08",
        "severity": 5,
        "source": "usgs"
      }
    },
    {
      "type": "Feature",
      "geometry": {
        "type": "Point",
        "coordinates": [
          125.3545,
          4.8722
        ]
      },
      "properties": {
        "title": "M4.7 - 59 km SSW of Sarangani, Philippines",
        "summary": "Magnitude 4.7 earthquake, depth 66.948km. Alert: none",
        "date": "2026-06-08",
        "severity": 5,
        "source": "usgs"
      }
    },
    {
      "type": "Feature",
      "geometry": {
        "type": "Point",
        "coordinates": [
          124.5997,
          4.8317
        ]
      },
      "properties": {
        "title": "M4.6 - 114 km WSW of Sarangani, Philippines",
        "summary": "Magnitude 4.6 earthquake, depth 35km. Alert: none",
        "date": "2026-06-08",
        "severity": 5,
        "source": "usgs"
      }
    },
    {
      "type": "Feature",
      "geometry": {
        "type": "Point",
        "coordinates": [
          125.0476,
          5.0057
        ]
      },
      "properties": {
        "title": "M4.6 - 63 km SW of Sarangani, Philippines",
        "summary": "Magnitude 4.6 earthquake, depth 35km. Alert: none",
        "date": "2026-06-08",
        "severity": 5,
        "source": "usgs"
      }
    },
    {
      "type": "Feature",
      "geometry": {
        "type": "Point",
        "coordinates": [
          124.9784,
          4.9916
        ]
      },
      "properties": {
        "title": "M4.6 - 70 km SW of Sarangani, Philippines",
        "summary": "Magnitude 4.6 earthquake, depth 60.192km. Alert: none",
        "date": "2026-06-08",
        "severity": 5,
        "source": "usgs"
      }
    },
    {
      "type": "Feature",
      "geometry": {
        "type": "Point",
        "coordinates": [
          125.6122,
          5.1996
        ]
      },
      "properties": {
        "title": "M4.6 - 27 km SE of Sarangani, Philippines",
        "summary": "Magnitude 4.6 earthquake, depth 59.832km. Alert: none",
        "date": "2026-06-08",
        "severity": 5,
        "source": "usgs"
      }
    },
    {
      "type": "Feature",
      "geometry": {
        "type": "Point",
        "coordinates": [
          125.6965,
          5.3316
        ]
      },
      "properties": {
        "title": "M4.5 - 27 km ESE of Sarangani, Philippines",
        "summary": "Magnitude 4.5 earthquake, depth 70.307km. Alert: none",
        "date": "2026-06-08",
        "severity": 5,
        "source": "usgs"
      }
    },
    {
      "type": "Feature",
      "geometry": {
        "type": "Point",
        "coordinates": [
          125.3094,
          4.9191
        ]
      },
      "properties": {
        "title": "M5.6 - 56 km SSW of Sarangani, Philippines",
        "summary": "Magnitude 5.6 earthquake, depth 35km. Alert: green",
        "date": "2026-06-08",
        "severity": 6,
        "source": "usgs"
      }
    },
    {
      "type": "Feature",
      "geometry": {
        "type": "Point",
        "coordinates": [
          125.2525,
          5.532
        ]
      },
      "properties": {
        "title": "M5.5 - 12 km WSW of Balangonan, Philippines",
        "summary": "Magnitude 5.5 earthquake, depth 81.095km. Alert: green",
        "date": "2026-06-08",
        "severity": 6,
        "source": "usgs"
      }
    },
    {
      "type": "Feature",
      "geometry": {
        "type": "Point",
        "coordinates": [
          125.5369,
          4.7279
        ]
      },
      "properties": {
        "title": "M5.1 - 75 km S of Sarangani, Philippines",
        "summary": "Magnitude 5.1 earthquake, depth 64.022km. Alert: none",
        "date": "2026-06-08",
        "severity": 6,
        "source": "usgs"
      }
    },
    {
      "type": "Feature",
      "geometry": {
        "type": "Point",
        "coordinates": [
          125.2036,
          5.3023
        ]
      },
      "properties": {
        "title": "M4.6 - 30 km WSW of Sarangani, Philippines",
        "summary": "Magnitude 4.6 earthquake, depth 72.975km. Alert: none",
        "date": "2026-06-08",
        "severity": 5,
        "source": "usgs"
      }
    },
    {
      "type": "Feature",
      "geometry": {
        "type": "Point",
        "coordinates": [
          -85.1501,
          22.7854
        ]
      },
      "properties": {
        "title": "M6.1 - 104 km WNW of Mantua, Cuba",
        "summary": "Magnitude 6.1 earthquake, depth 26km. Alert: green",
        "date": "2026-06-08",
        "severity": 7,
        "source": "usgs"
      }
    },
    {
      "type": "Feature",
      "geometry": {
        "type": "Point",
        "coordinates": [
          -4.3787,
          -55.7537
        ]
      },
      "properties": {
        "title": "M5.5 - southern Mid-Atlantic Ridge",
        "summary": "Magnitude 5.5 earthquake, depth 10km. Alert: green",
        "date": "2026-06-08",
        "severity": 6,
        "source": "usgs"
      }
    },
    {
      "type": "Feature",
      "geometry": {
        "type": "Point",
        "coordinates": [
          -4.3752,
          -55.7212
        ]
      },
      "properties": {
        "title": "M5.4 - southern Mid-Atlantic Ridge",
        "summary": "Magnitude 5.4 earthquake, depth 10km. Alert: green",
        "date": "2026-06-08",
        "severity": 6,
        "source": "usgs"
      }
    },
    {
      "type": "Feature",
      "geometry": {
        "type": "Point",
        "coordinates": [
          169.9905,
          -21.1981
        ]
      },
      "properties": {
        "title": "M5.4 - 197 km SSE of Isangel, Vanuatu",
        "summary": "Magnitude 5.4 earthquake, depth 59.614km. Alert: green",
        "date": "2026-06-08",
        "severity": 6,
        "source": "usgs"
      }
    },
    {
      "type": "Feature",
      "geometry": {
        "type": "Point",
        "coordinates": [
          124.8303,
          5.7068
        ]
      },
      "properties": {
        "title": "M5.3 - 19 km SSW of Lumatil, Philippines",
        "summary": "Magnitude 5.3 earthquake, depth 45.995km. Alert: none",
        "date": "2026-06-08",
        "severity": 6,
        "source": "usgs"
      }
    },
    {
      "type": "Feature",
      "geometry": {
        "type": "Point",
        "coordinates": [
          125.2439,
          5.0648
        ]
      },
      "properties": {
        "title": "M5.2 - 44 km SSW of Sarangani, Philippines",
        "summary": "Magnitude 5.2 earthquake, depth 55.698km. Alert: none",
        "date": "2026-06-08",
        "severity": 6,
        "source": "usgs"
      }
    },
    {
      "type": "Feature",
      "geometry": {
        "type": "Point",
        "coordinates": [
          125.4753,
          5.501
        ]
      },
      "properties": {
        "title": "M5.1 - 10 km N of Sarangani, Philippines",
        "summary": "Magnitude 5.1 earthquake, depth 23.958km. Alert: none",
        "date": "2026-06-08",
        "severity": 6,
        "source": "usgs"
      }
    },
    {
      "type": "Feature",
      "geometry": {
        "type": "Point",
        "coordinates": [
          125.4615,
          4.9304
        ]
      },
      "properties": {
        "title": "M5.1 - 52 km S of Sarangani, Philippines",
        "summary": "Magnitude 5.1 earthquake, depth 69.499km. Alert: none",
        "date": "2026-06-08",
        "severity": 6,
        "source": "usgs"
      }
    },
    {
      "type": "Feature",
      "geometry": {
        "type": "Point",
        "coordinates": [
          125.277,
          5.4912
        ]
      },
      "properties": {
        "title": "M4.9 - 12 km SW of Balangonan, Philippines",
        "summary": "Magnitude 4.9 earthquake, depth 78.015km. Alert: none",
        "date": "2026-06-08",
        "severity": 5,
        "source": "usgs"
      }
    },
    {
      "type": "Feature",
      "geometry": {
        "type": "Point",
        "coordinates": [
          56.9078,
          28.0292
        ]
      },
      "properties": {
        "title": "M4.9 - 101 km N of M\u012bn\u0101b, Iran",
        "summary": "Magnitude 4.9 earthquake, depth 10km. Alert: none",
        "date": "2026-06-08",
        "severity": 5,
        "source": "usgs"
      }
    },
    {
      "type": "Feature",
      "geometry": {
        "type": "Point",
        "coordinates": [
          125.3486,
          4.7313
        ]
      },
      "properties": {
        "title": "M4.9 - 75 km S of Sarangani, Philippines",
        "summary": "Magnitude 4.9 earthquake, depth 39.205km. Alert: none",
        "date": "2026-06-08",
        "severity": 5,
        "source": "usgs"
      }
    },
    {
      "type": "Feature",
      "geometry": {
        "type": "Point",
        "coordinates": [
          124.8372,
          4.997
        ]
      },
      "properties": {
        "title": "M4.8 - 82 km WSW of Sarangani, Philippines",
        "summary": "Magnitude 4.8 earthquake, depth 35km. Alert: none",
        "date": "2026-06-08",
        "severity": 5,
        "source": "usgs"
      }
    },
    {
      "type": "Feature",
      "geometry": {
        "type": "Point",
        "coordinates": [
          125.2423,
          5.6343
        ]
      },
      "properties": {
        "title": "M4.7 - 8 km SSW of Pangyan, Philippines",
        "summary": "Magnitude 4.7 earthquake, depth 62.575km. Alert: none",
        "date": "2026-06-08",
        "severity": 5,
        "source": "usgs"
      }
    },
    {
      "type": "Feature",
      "geometry": {
        "type": "Point",
        "coordinates": [
          125.3771,
          4.6464
        ]
      },
      "properties": {
        "title": "M4.6 - 84 km S of Sarangani, Philippines",
        "summary": "Magnitude 4.6 earthquake, depth 76.732km. Alert: none",
        "date": "2026-06-08",
        "severity": 5,
        "source": "usgs"
      }
    },
    {
      "type": "Feature",
      "geometry": {
        "type": "Point",
        "coordinates": [
          144.3895,
          -4.4318
        ]
      },
      "properties": {
        "title": "M4.6 - 54 km SE of Angoram, Papua New Guinea",
        "summary": "Magnitude 4.6 earthquake, depth 154.37km. Alert: none",
        "date": "2026-06-08",
        "severity": 5,
        "source": "usgs"
      }
    },
    {
      "type": "Feature",
      "geometry": {
        "type": "Point",
        "coordinates": [
          125.3116,
          5.2857
        ]
      },
      "properties": {
        "title": "M5.2 - 21 km SW of Sarangani, Philippines",
        "summary": "Magnitude 5.2 earthquake, depth 82.366km. Alert: none",
        "date": "2026-06-09",
        "severity": 6,
        "source": "usgs"
      }
    },
    {
      "type": "Feature",
      "geometry": {
        "type": "Point",
        "coordinates": [
          125.4582,
          5.622
        ]
      },
      "properties": {
        "title": "M4.9 - 2 km ESE of Nuing, Philippines",
        "summary": "Magnitude 4.9 earthquake, depth 50.122km. Alert: none",
        "date": "2026-06-09",
        "severity": 5,
        "source": "usgs"
      }
    },
    {
      "type": "Feature",
      "geometry": {
        "type": "Point",
        "coordinates": [
          125.1815,
          5.6276
        ]
      },
      "properties": {
        "title": "M4.6 - 12 km SW of Burias, Philippines",
        "summary": "Magnitude 4.6 earthquake, depth 71.728km. Alert: none",
        "date": "2026-06-09",
        "severity": 5,
        "source": "usgs"
      }
    },
    {
      "type": "Feature",
      "geometry": {
        "type": "Point",
        "coordinates": [
          124.825,
          5.6881
        ]
      },
      "properties": {
        "title": "M5.4 - 21 km SSW of Lumatil, Philippines",
        "summary": "Magnitude 5.4 earthquake, depth 35km. Alert: green",
        "date": "2026-06-09",
        "severity": 6,
        "source": "usgs"
      }
    },
    {
      "type": "Feature",
      "geometry": {
        "type": "Point",
        "coordinates": [
          125.685,
          8.769
        ]
      },
      "properties": {
        "title": "M5.1 - 6 km SSW of Sibagat, Philippines",
        "summary": "Magnitude 5.1 earthquake, depth 10km. Alert: none",
        "date": "2026-06-09",
        "severity": 6,
        "source": "usgs"
      }
    },
    {
      "type": "Feature",
      "geometry": {
        "type": "Point",
        "coordinates": [
          118.5847,
          -10.262
        ]
      },
      "properties": {
        "title": "M4.8 - 116 km SW of Tambolaka, Indonesia",
        "summary": "Magnitude 4.8 earthquake, depth 24.483km. Alert: none",
        "date": "2026-06-09",
        "severity": 5,
        "source": "usgs"
      }
    },
    {
      "type": "Feature",
      "geometry": {
        "type": "Point",
        "coordinates": [
          107.30753024777678,
          28.94242720962616
        ]
      },
      "properties": {
        "title": "GDACS: [Green] Flood in China \u2014 Flood \u00b7 Green alert \u00b7 China \u00b7 Magnitude 0 ",
        "summary": "[Green] Flood in China \u2014 Flood \u00b7 Green alert \u00b7 China \u00b7 Magnitude 0 ",
        "date": "2026-06-06",
        "severity": 3,
        "source": "gdacs"
      }
    },
    {
      "type": "Feature",
      "geometry": {
        "type": "Point",
        "coordinates": [
          35.2,
          33.27
        ]
      },
      "properties": {
        "title": "Israeli strikes on Tyre, Lebanon",
        "summary": "IDF airstrikes on residential areas in Tyre (Sour), South Governorate; 8 killed",
        "date": "2026-06-09",
        "severity": 8,
        "source": "acled"
      }
    },
    {
      "type": "Feature",
      "geometry": {
        "type": "Point",
        "coordinates": [
          36.68,
          49.83
        ]
      },
      "properties": {
        "title": "Russian strikes on Chuhuiv, Kharkiv region",
        "summary": "Russian missile strikes killed 3, injured 15 (incl. 3 children) in Kharkiv region",
        "date": "2026-06-09",
        "severity": 7,
        "source": "acled"
      }
    },
    {
      "type": "Feature",
      "geometry": {
        "type": "Point",
        "coordinates": [
          56.3,
          26.5
        ]
      },
      "properties": {
        "title": "US Apache helicopter crash near Hormuz",
        "summary": "US Army AH-64 Apache down near Strait of Hormuz; 2 crew rescued. Trump: pilots 'fine'. Cause unclear",
        "date": "2026-06-09",
        "severity": 6,
        "source": "acled"
      }
    },
    {
      "type": "Feature",
      "geometry": {
        "type": "Point",
        "coordinates": [
          125.3,
          5.5
        ]
      },
      "properties": {
        "title": "Philippine earthquake swarm - Sarangani/Lumatil region",
        "summary": "M7.8 mainshock + 20+ aftershocks M4.5-6.5 around Sarangani/Balangonan, Davao Occidental, Mindanao. z=37.3",
        "date": "2026-06-08",
        "severity": 9,
        "source": "acled"
      }
    },
    {
      "type": "Feature",
      "geometry": {
        "type": "Point",
        "coordinates": [
          4.35,
          50.85
        ]
      },
      "properties": {
        "title": "EU 21st Russia Sanctions Package",
        "summary": "Von der Leyen presents 21st Russia sanctions package in Brussels targeting oil revenue, shadow fleet, IRGC",
        "date": "2026-06-09",
        "severity": 5,
        "source": "acled"
      }
    }
  ]
}