{"type": "FeatureCollection", "features": [{"type": "Feature", "geometry": {"type": "Point", "coordinates": [34.807, 51.069]}, "properties": {"title": "FIRMS thermal anomaly FRP 2.7 MW", "summary": "VIIRS S-NPP NRT, sat N, acquired 2026-06-08 0126Z, FRP 2.7 MW", "date": "2026-06-08", "severity": 6, "source": "firms"}}, {"type": "Feature", "geometry": {"type": "Point", "coordinates": [26.604, 48.748]}, "properties": {"title": "FIRMS thermal anomaly FRP 0.71 MW", "summary": "VIIRS S-NPP NRT, sat N, acquired 2026-06-08 0128Z, FRP 0.71 MW", "date": "2026-06-08", "severity": 3, "source": "firms"}}, {"type": "Feature", "geometry": {"type": "Point", "coordinates": [24.707, 48.976]}, "properties": {"title": "FIRMS thermal anomaly FRP 0.61 MW", "summary": "VIIRS S-NPP NRT, sat N, acquired 2026-06-08 0128Z, FRP 0.61 MW", "date": "2026-06-08", "severity": 2, "source": "firms"}}, {"type": "Feature", "geometry": {"type": "Point", "coordinates": [24.711, 48.974]}, "properties": {"title": "FIRMS thermal anomaly FRP 0.61 MW", "summary": "VIIRS S-NPP NRT, sat N, acquired 2026-06-08 0128Z, FRP 0.61 MW", "date": "2026-06-08", "severity": 2, "source": "firms"}}, {"type": "Feature", "geometry": {"type": "Point", "coordinates": [24.711, 48.977]}, "properties": {"title": "FIRMS thermal anomaly FRP 0.96 MW", "summary": "VIIRS S-NPP NRT, sat N, acquired 2026-06-08 0128Z, FRP 0.96 MW", "date": "2026-06-08", "severity": 3, "source": "firms"}}, {"type": "Feature", "geometry": {"type": "Point", "coordinates": [22.867, 45.953]}, "properties": {"title": "FIRMS thermal anomaly FRP 0.9 MW", "summary": "VIIRS S-NPP NRT, sat N, acquired 2026-06-08 0128Z, FRP 0.9 MW", "date": "2026-06-08", "severity": 3, "source": "firms"}}, {"type": "Feature", "geometry": {"type": "Point", "coordinates": [25.415, 45.123]}, "properties": {"title": "FIRMS thermal anomaly FRP 1.84 MW", "summary": "VIIRS S-NPP NRT, sat N, acquired 2026-06-08 0128Z, FRP 1.84 MW", "date": "2026-06-08", "severity": 4, "source": "firms"}}, {"type": "Feature", "geometry": {"type": "Point", "coordinates": [31.678, 45.26]}, "properties": {"title": "FIRMS thermal anomaly FRP 4.5 MW", "summary": "VIIRS S-NPP NRT, sat N, acquired 2026-06-08 0934Z, FRP 4.5 MW", "date": "2026-06-08", "severity": 8, "source": "firms"}}, {"type": "Feature", "geometry": {"type": "Point", "coordinates": [32.69, 46.592]}, "properties": {"title": "FIRMS thermal anomaly FRP 4.73 MW", "summary": "VIIRS S-NPP NRT, sat N, acquired 2026-06-08 0934Z, FRP 4.73 MW", "date": "2026-06-08", "severity": 9, "source": "firms"}}, {"type": "Feature", "geometry": {"type": "Point", "coordinates": [30.479, 46.079]}, "properties": {"title": "FIRMS thermal anomaly FRP 3.62 MW", "summary": "VIIRS S-NPP NRT, sat N, acquired 2026-06-08 0934Z, FRP 3.62 MW", "date": "2026-06-08", "severity": 7, "source": "firms"}}, {"type": "Feature", "geometry": {"type": "Point", "coordinates": [34.917, 51.097]}, "properties": {"title": "FIRMS thermal anomaly FRP 1.67 MW", "summary": "VIIRS S-NPP NRT, sat N, acquired 2026-06-08 0934Z, FRP 1.67 MW", "date": "2026-06-08", "severity": 4, "source": "firms"}}, {"type": "Feature", "geometry": {"type": "Point", "coordinates": [34.642, 51.138]}, "properties": {"title": "FIRMS thermal anomaly FRP 1.45 MW", "summary": "VIIRS S-NPP NRT, sat N, acquired 2026-06-08 0934Z, FRP 1.45 MW", "date": "2026-06-08", "severity": 4, "source": "firms"}}, {"type": "Feature", "geometry": {"type": "Point", "coordinates": [34.481, 51.225]}, "properties": {"title": "FIRMS thermal anomaly FRP 2.7 MW", "summary": "VIIRS S-NPP NRT, sat N, acquired 2026-06-08 0937Z, FRP 2.7 MW", "date": "2026-06-08", "severity": 6, "source": "firms"}}, {"type": "Feature", "geometry": {"type": "Point", "coordinates": [34.332, 51.491]}, "properties": {"title": "FIRMS thermal anomaly FRP 2.1 MW", "summary": "VIIRS S-NPP NRT, sat N, acquired 2026-06-08 0937Z, FRP 2.1 MW", "date": "2026-06-08", "severity": 5, "source": "firms"}}, {"type": "Feature", "geometry": {"type": "Point", "coordinates": [34.323, 51.826]}, "properties": {"title": "FIRMS thermal anomaly FRP 1.63 MW", "summary": "VIIRS S-NPP NRT, sat N, acquired 2026-06-08 0937Z, FRP 1.63 MW", "date": "2026-06-08", "severity": 4, "source": "firms"}}, {"type": "Feature", "geometry": {"type": "Point", "coordinates": [34.03, 52.084]}, "properties": {"title": "FIRMS thermal anomaly FRP 2.34 MW", "summary": "VIIRS S-NPP NRT, sat N, acquired 2026-06-08 0937Z, FRP 2.34 MW", "date": "2026-06-08", "severity": 5, "source": "firms"}}, {"type": "Feature", "geometry": {"type": "Point", "coordinates": [34.051, 52.184]}, "properties": {"title": "FIRMS thermal anomaly FRP 5.11 MW", "summary": "VIIRS S-NPP NRT, sat N, acquired 2026-06-08 0937Z, FRP 5.11 MW", "date": "2026-06-08", "severity": 9, "source": "firms"}}, {"type": "Feature", "geometry": {"type": "Point", "coordinates": [33.291, 52.348]}, "properties": {"title": "FIRMS thermal anomaly FRP 1.56 MW", "summary": "VIIRS S-NPP NRT, sat N, acquired 2026-06-08 0937Z, FRP 1.56 MW", "date": "2026-06-08", "severity": 4, "source": "firms"}}, {"type": "Feature", "geometry": {"type": "Point", "coordinates": [31.673, 45.259]}, "properties": {"title": "FIRMS thermal anomaly FRP 10.5 MW", "summary": "VIIRS S-NPP NRT, sat N, acquired 2026-06-08 1115Z, FRP 10.5 MW", "date": "2026-06-08", "severity": 10, "source": "firms"}}, {"type": "Feature", "geometry": {"type": "Point", "coordinates": [32.52, 46.48]}, "properties": {"title": "FIRMS thermal anomaly FRP 12.54 MW", "summary": "VIIRS S-NPP NRT, sat N, acquired 2026-06-08 1115Z, FRP 12.54 MW", "date": "2026-06-08", "severity": 10, "source": "firms"}}, {"type": "Feature", "geometry": {"type": "Point", "coordinates": [32.52, 46.484]}, "properties": {"title": "FIRMS thermal anomaly FRP 14.12 MW", "summary": "VIIRS S-NPP NRT, sat N, acquired 2026-06-08 1115Z, FRP 14.12 MW", "date": "2026-06-08", "severity": 10, "source": "firms"}}, {"type": "Feature", "geometry": {"type": "Point", "coordinates": [32.512, 46.483]}, "properties": {"title": "FIRMS thermal anomaly FRP 14.12 MW", "summary": "VIIRS S-NPP NRT, sat N, acquired 2026-06-08 1115Z, FRP 14.12 MW", "date": "2026-06-08", "severity": 10, "source": "firms"}}, {"type": "Feature", "geometry": {"type": "Point", "coordinates": [32.519, 46.488]}, "properties": {"title": "FIRMS thermal anomaly FRP 14.12 MW", "summary": "VIIRS S-NPP NRT, sat N, acquired 2026-06-08 1115Z, FRP 14.12 MW", "date": "2026-06-08", "severity": 10, "source": "firms"}}, {"type": "Feature", "geometry": {"type": "Point", "coordinates": [32.335, 46.573]}, "properties": {"title": "FIRMS thermal anomaly FRP 12.52 MW", "summary": "VIIRS S-NPP NRT, sat N, acquired 2026-06-08 1115Z, FRP 12.52 MW", "date": "2026-06-08", "severity": 10, "source": "firms"}}, {"type": "Feature", "geometry": {"type": "Point", "coordinates": [32.328, 46.572]}, "properties": {"title": "FIRMS thermal anomaly FRP 21.28 MW", "summary": "VIIRS S-NPP NRT, sat N, acquired 2026-06-08 1115Z, FRP 21.28 MW", "date": "2026-06-08", "severity": 10, "source": "firms"}}, {"type": "Feature", "geometry": {"type": "Point", "coordinates": [32.327, 46.576]}, "properties": {"title": "FIRMS thermal anomaly FRP 21.28 MW", "summary": "VIIRS S-NPP NRT, sat N, acquired 2026-06-08 1115Z, FRP 21.28 MW", "date": "2026-06-08", "severity": 10, "source": "firms"}}, {"type": "Feature", "geometry": {"type": "Point", "coordinates": [27.762, 46.593]}, "properties": {"title": "FIRMS thermal anomaly FRP 2.79 MW", "summary": "VIIRS S-NPP NRT, sat N, acquired 2026-06-08 1115Z, FRP 2.79 MW", "date": "2026-06-08", "severity": 6, "source": "firms"}}, {"type": "Feature", "geometry": {"type": "Point", "coordinates": [24.587, 48.818]}, "properties": {"title": "FIRMS thermal anomaly FRP 4.44 MW", "summary": "VIIRS S-NPP NRT, sat N, acquired 2026-06-08 1117Z, FRP 4.44 MW", "date": "2026-06-08", "severity": 8, "source": "firms"}}, {"type": "Feature", "geometry": {"type": "Point", "coordinates": [22.245, 48.426]}, "properties": {"title": "FIRMS thermal anomaly FRP 4.35 MW", "summary": "VIIRS S-NPP NRT, sat N, acquired 2026-06-08 1117Z, FRP 4.35 MW", "date": "2026-06-08", "severity": 8, "source": "firms"}}, {"type": "Feature", "geometry": {"type": "Point", "coordinates": [24.458, 49.286]}, "properties": {"title": "FIRMS thermal anomaly FRP 2.22 MW", "summary": "VIIRS S-NPP NRT, sat N, acquired 2026-06-08 1117Z, FRP 2.22 MW", "date": "2026-06-08", "severity": 5, "source": "firms"}}, {"type": "Feature", "geometry": {"type": "Point", "coordinates": [34.567, 51.159]}, "properties": {"title": "FIRMS thermal anomaly FRP 3.05 MW", "summary": "VIIRS S-NPP NRT, sat N, acquired 2026-06-08 1117Z, FRP 3.05 MW", "date": "2026-06-08", "severity": 6, "source": "firms"}}, {"type": "Feature", "geometry": {"type": "Point", "coordinates": [34.68, 51.552]}, "properties": {"title": "FIRMS thermal anomaly FRP 2.28 MW", "summary": "VIIRS S-NPP NRT, sat N, acquired 2026-06-08 1117Z, FRP 2.28 MW", "date": "2026-06-08", "severity": 5, "source": "firms"}}, {"type": "Feature", "geometry": {"type": "Point", "coordinates": [33.791, 52.306]}, "properties": {"title": "FIRMS thermal anomaly FRP 5.13 MW", "summary": "VIIRS S-NPP NRT, sat N, acquired 2026-06-08 1117Z, FRP 5.13 MW", "date": "2026-06-08", "severity": 9, "source": "firms"}}, {"type": "Feature", "geometry": {"type": "Point", "coordinates": [33.784, 52.306]}, "properties": {"title": "FIRMS thermal anomaly FRP 5.13 MW", "summary": "VIIRS S-NPP NRT, sat N, acquired 2026-06-08 1117Z, FRP 5.13 MW", "date": "2026-06-08", "severity": 9, "source": "firms"}}, {"type": "Feature", "geometry": {"type": "Point", "coordinates": [33.578, 52.302]}, "properties": {"title": "FIRMS thermal anomaly FRP 10.91 MW", "summary": "VIIRS S-NPP NRT, sat N, acquired 2026-06-08 1117Z, FRP 10.91 MW", "date": "2026-06-08", "severity": 10, "source": "firms"}}, {"type": "Feature", "geometry": {"type": "Point", "coordinates": [29.989, 52.848]}, "properties": {"title": "FIRMS thermal anomaly FRP 6.67 MW", "summary": "VIIRS S-NPP NRT, sat N, acquired 2026-06-08 1117Z, FRP 6.67 MW", "date": "2026-06-08", "severity": 10, "source": "firms"}}, {"type": "Feature", "geometry": {"type": "Point", "coordinates": [33.862, 44.772]}, "properties": {"title": "FIRMS thermal anomaly FRP 0.8 MW", "summary": "VIIRS S-NPP NRT, sat N, acquired 2026-06-08 2329Z, FRP 0.8 MW", "date": "2026-06-08", "severity": 3, "source": "firms"}}, {"type": "Feature", "geometry": {"type": "Point", "coordinates": [25.107, 45.291]}, "properties": {"title": "FIRMS thermal anomaly FRP 1.12 MW", "summary": "VIIRS S-NPP NRT, sat N, acquired 2026-06-08 2329Z, FRP 1.12 MW", "date": "2026-06-08", "severity": 3, "source": "firms"}}, {"type": "Feature", "geometry": {"type": "Point", "coordinates": [25.414, 45.126]}, "properties": {"title": "FIRMS thermal anomaly FRP 0.46 MW", "summary": "VIIRS S-NPP NRT, sat N, acquired 2026-06-08 2329Z, FRP 0.46 MW", "date": "2026-06-08", "severity": 2, "source": "firms"}}, {"type": "Feature", "geometry": {"type": "Point", "coordinates": [25.415, 45.122]}, "properties": {"title": "FIRMS thermal anomaly FRP 0.65 MW", "summary": "VIIRS S-NPP NRT, sat N, acquired 2026-06-08 2329Z, FRP 0.65 MW", "date": "2026-06-08", "severity": 2, "source": "firms"}}, {"type": "Feature", "geometry": {"type": "Point", "coordinates": [32.221, 52.807]}, "properties": {"title": "FIRMS thermal anomaly FRP 1.24 MW", "summary": "VIIRS S-NPP NRT, sat N, acquired 2026-06-08 2329Z, FRP 1.24 MW", "date": "2026-06-08", "severity": 3, "source": "firms"}}, {"type": "Feature", "geometry": {"type": "Point", "coordinates": [29.983, 52.848]}, "properties": {"title": "FIRMS thermal anomaly FRP 1.35 MW", "summary": "VIIRS S-NPP NRT, sat N, acquired 2026-06-08 2329Z, FRP 1.35 MW", "date": "2026-06-08", "severity": 4, "source": "firms"}}, {"type": "Feature", "geometry": {"type": "Point", "coordinates": [29.993, 52.848]}, "properties": {"title": "FIRMS thermal anomaly FRP 1.18 MW", "summary": "VIIRS S-NPP NRT, sat N, acquired 2026-06-08 2329Z, FRP 1.18 MW", "date": "2026-06-08", "severity": 3, "source": "firms"}}, {"type": "Feature", "geometry": {"type": "Point", "coordinates": [33.205, 52.434]}, "properties": {"title": "FIRMS thermal anomaly FRP 1.31 MW", "summary": "VIIRS S-NPP NRT, sat N, acquired 2026-06-08 2329Z, FRP 1.31 MW", "date": "2026-06-08", "severity": 3, "source": "firms"}}, {"type": "Feature", "geometry": {"type": "Point", "coordinates": [34.17, 52.2]}, "properties": {"title": "FIRMS thermal anomaly FRP 0.54 MW", "summary": "VIIRS S-NPP NRT, sat N, acquired 2026-06-08 2329Z, FRP 0.54 MW", "date": "2026-06-08", "severity": 2, "source": "firms"}}, {"type": "Feature", "geometry": {"type": "Point", "coordinates": [34.029, 52.19]}, "properties": {"title": "FIRMS thermal anomaly FRP 0.96 MW", "summary": "VIIRS S-NPP NRT, sat N, acquired 2026-06-08 2329Z, FRP 0.96 MW", "date": "2026-06-08", "severity": 3, "source": "firms"}}, {"type": "Feature", "geometry": {"type": "Point", "coordinates": [34.029, 52.186]}, "properties": {"title": "FIRMS thermal anomaly FRP 0.96 MW", "summary": "VIIRS S-NPP NRT, sat N, acquired 2026-06-08 2329Z, FRP 0.96 MW", "date": "2026-06-08", "severity": 3, "source": "firms"}}, {"type": "Feature", "geometry": {"type": "Point", "coordinates": [34.035, 52.185]}, "properties": {"title": "FIRMS thermal anomaly FRP 1.61 MW", "summary": "VIIRS S-NPP NRT, sat N, acquired 2026-06-08 2329Z, FRP 1.61 MW", "date": "2026-06-08", "severity": 4, "source": "firms"}}, {"type": "Feature", "geometry": {"type": "Point", "coordinates": [33.991, 52.129]}, "properties": {"title": "FIRMS thermal anomaly FRP 0.85 MW", "summary": "VIIRS S-NPP NRT, sat N, acquired 2026-06-08 2329Z, FRP 0.85 MW", "date": "2026-06-08", "severity": 3, "source": "firms"}}, {"type": "Feature", "geometry": {"type": "Point", "coordinates": [33.991, 52.129]}, "properties": {"title": "FIRMS thermal anomaly FRP 0.84 MW", "summary": "VIIRS S-NPP NRT, sat N, acquired 2026-06-08 2329Z, FRP 0.84 MW", "date": "2026-06-08", "severity": 3, "source": "firms"}}, {"type": "Feature", "geometry": {"type": "Point", "coordinates": [34.39, 51.893]}, "properties": {"title": "FIRMS thermal anomaly FRP 0.22 MW", "summary": "VIIRS S-NPP NRT, sat N, acquired 2026-06-08 2329Z, FRP 0.22 MW", "date": "2026-06-08", "severity": 2, "source": "firms"}}, {"type": "Feature", "geometry": {"type": "Point", "coordinates": [34.389, 51.891]}, "properties": {"title": "FIRMS thermal anomaly FRP 0.65 MW", "summary": "VIIRS S-NPP NRT, sat N, acquired 2026-06-08 2329Z, FRP 0.65 MW", "date": "2026-06-08", "severity": 2, "source": "firms"}}, {"type": "Feature", "geometry": {"type": "Point", "coordinates": [34.277, 51.85]}, "properties": {"title": "FIRMS thermal anomaly FRP 0.88 MW", "summary": "VIIRS S-NPP NRT, sat N, acquired 2026-06-08 2329Z, FRP 0.88 MW", "date": "2026-06-08", "severity": 3, "source": "firms"}}, {"type": "Feature", "geometry": {"type": "Point", "coordinates": [34.283, 51.85]}, "properties": {"title": "FIRMS thermal anomaly FRP 0.88 MW", "summary": "VIIRS S-NPP NRT, sat N, acquired 2026-06-08 2329Z, FRP 0.88 MW", "date": "2026-06-08", "severity": 3, "source": "firms"}}, {"type": "Feature", "geometry": {"type": "Point", "coordinates": [34.246, 51.849]}, "properties": {"title": "FIRMS thermal anomaly FRP 1.24 MW", "summary": "VIIRS S-NPP NRT, sat N, acquired 2026-06-08 2329Z, FRP 1.24 MW", "date": "2026-06-08", "severity": 3, "source": "firms"}}, {"type": "Feature", "geometry": {"type": "Point", "coordinates": [34.276, 51.846]}, "properties": {"title": "FIRMS thermal anomaly FRP 0.88 MW", "summary": "VIIRS S-NPP NRT, sat N, acquired 2026-06-08 2329Z, FRP 0.88 MW", "date": "2026-06-08", "severity": 3, "source": "firms"}}, {"type": "Feature", "geometry": {"type": "Point", "coordinates": [34.543, 51.774]}, "properties": {"title": "FIRMS thermal anomaly FRP 0.59 MW", "summary": "VIIRS S-NPP NRT, sat N, acquired 2026-06-08 2329Z, FRP 0.59 MW", "date": "2026-06-08", "severity": 2, "source": "firms"}}, {"type": "Feature", "geometry": {"type": "Point", "coordinates": [34.542, 51.772]}, "properties": {"title": "FIRMS thermal anomaly FRP 1.4 MW", "summary": "VIIRS S-NPP NRT, sat N, acquired 2026-06-08 2329Z, FRP 1.4 MW", "date": "2026-06-08", "severity": 4, "source": "firms"}}, {"type": "Feature", "geometry": {"type": "Point", "coordinates": [34.218, 51.672]}, "properties": {"title": "FIRMS thermal anomaly FRP 0.63 MW", "summary": "VIIRS S-NPP NRT, sat N, acquired 2026-06-08 2329Z, FRP 0.63 MW", "date": "2026-06-08", "severity": 2, "source": "firms"}}, {"type": "Feature", "geometry": {"type": "Point", "coordinates": [33.941, 51.67]}, "properties": {"title": "FIRMS thermal anomaly FRP 2.5 MW", "summary": "VIIRS S-NPP NRT, sat N, acquired 2026-06-08 2329Z, FRP 2.5 MW", "date": "2026-06-08", "severity": 5, "source": "firms"}}, {"type": "Feature", "geometry": {"type": "Point", "coordinates": [34.911, 51.07]}, "properties": {"title": "FIRMS thermal anomaly FRP 1.16 MW", "summary": "VIIRS S-NPP NRT, sat N, acquired 2026-06-08 2329Z, FRP 1.16 MW", "date": "2026-06-08", "severity": 3, "source": "firms"}}, {"type": "Feature", "geometry": {"type": "Point", "coordinates": [34.65, 48.533]}, "properties": {"title": "FIRMS thermal anomaly FRP 10.19 MW", "summary": "VIIRS S-NPP NRT, sat N, acquired 2026-06-08 2329Z, FRP 10.19 MW", "date": "2026-06-08", "severity": 10, "source": "firms"}}, {"type": "Feature", "geometry": {"type": "Point", "coordinates": [34.612, 48.532]}, "properties": {"title": "FIRMS thermal anomaly FRP 1.26 MW", "summary": "VIIRS S-NPP NRT, sat N, acquired 2026-06-08 2329Z, FRP 1.26 MW", "date": "2026-06-08", "severity": 3, "source": "firms"}}, {"type": "Feature", "geometry": {"type": "Point", "coordinates": [34.625, 48.523]}, "properties": {"title": "FIRMS thermal anomaly FRP 1.17 MW", "summary": "VIIRS S-NPP NRT, sat N, acquired 2026-06-08 2329Z, FRP 1.17 MW", "date": "2026-06-08", "severity": 3, "source": "firms"}}, {"type": "Feature", "geometry": {"type": "Point", "coordinates": [34.633, 48.522]}, "properties": {"title": "FIRMS thermal anomaly FRP 1.17 MW", "summary": "VIIRS S-NPP NRT, sat N, acquired 2026-06-08 2329Z, FRP 1.17 MW", "date": "2026-06-08", "severity": 3, "source": "firms"}}, {"type": "Feature", "geometry": {"type": "Point", "coordinates": [34.63, 48.475]}, "properties": {"title": "FIRMS thermal anomaly FRP 1.86 MW", "summary": "VIIRS S-NPP NRT, sat N, acquired 2026-06-08 2329Z, FRP 1.86 MW", "date": "2026-06-08", "severity": 4, "source": "firms"}}, {"type": "Feature", "geometry": {"type": "Point", "coordinates": [24.709, 48.978]}, "properties": {"title": "FIRMS thermal anomaly FRP 0.73 MW", "summary": "VIIRS S-NPP NRT, sat N, acquired 2026-06-08 2329Z, FRP 0.73 MW", "date": "2026-06-08", "severity": 3, "source": "firms"}}, {"type": "Feature", "geometry": {"type": "Point", "coordinates": [26.601, 48.75]}, "properties": {"title": "FIRMS thermal anomaly FRP 1.1 MW", "summary": "VIIRS S-NPP NRT, sat N, acquired 2026-06-08 2329Z, FRP 1.1 MW", "date": "2026-06-08", "severity": 3, "source": "firms"}}, {"type": "Feature", "geometry": {"type": "Point", "coordinates": [33.398, 47.884]}, "properties": {"title": "FIRMS thermal anomaly FRP 0.49 MW", "summary": "VIIRS S-NPP NRT, sat N, acquired 2026-06-08 2329Z, FRP 0.49 MW", "date": "2026-06-08", "severity": 2, "source": "firms"}}, {"type": "Feature", "geometry": {"type": "Point", "coordinates": [33.397, 47.88]}, "properties": {"title": "FIRMS thermal anomaly FRP 0.49 MW", "summary": "VIIRS S-NPP NRT, sat N, acquired 2026-06-08 2329Z, FRP 0.49 MW", "date": "2026-06-08", "severity": 2, "source": "firms"}}, {"type": "Feature", "geometry": {"type": "Point", "coordinates": [33.413, 47.874]}, "properties": {"title": "FIRMS thermal anomaly FRP 1.07 MW", "summary": "VIIRS S-NPP NRT, sat N, acquired 2026-06-08 2329Z, FRP 1.07 MW", "date": "2026-06-08", "severity": 3, "source": "firms"}}, {"type": "Feature", "geometry": {"type": "Point", "coordinates": [33.418, 47.874]}, "properties": {"title": "FIRMS thermal anomaly FRP 1.14 MW", "summary": "VIIRS S-NPP NRT, sat N, acquired 2026-06-08 2329Z, FRP 1.14 MW", "date": "2026-06-08", "severity": 3, "source": "firms"}}, {"type": "Feature", "geometry": {"type": "Point", "coordinates": [33.434, 47.872]}, "properties": {"title": "FIRMS thermal anomaly FRP 1.52 MW", "summary": "VIIRS S-NPP NRT, sat N, acquired 2026-06-08 2329Z, FRP 1.52 MW", "date": "2026-06-08", "severity": 4, "source": "firms"}}, {"type": "Feature", "geometry": {"type": "Point", "coordinates": [33.434, 47.868]}, "properties": {"title": "FIRMS thermal anomaly FRP 1.52 MW", "summary": "VIIRS S-NPP NRT, sat N, acquired 2026-06-08 2329Z, FRP 1.52 MW", "date": "2026-06-08", "severity": 4, "source": "firms"}}, {"type": "Feature", "geometry": {"type": "Point", "coordinates": [33.385, 47.843]}, "properties": {"title": "FIRMS thermal anomaly FRP 1.19 MW", "summary": "VIIRS S-NPP NRT, sat N, acquired 2026-06-08 2329Z, FRP 1.19 MW", "date": "2026-06-08", "severity": 3, "source": "firms"}}, {"type": "Feature", "geometry": {"type": "Point", "coordinates": [33.664, 47.737]}, "properties": {"title": "FIRMS thermal anomaly FRP 0.7 MW", "summary": "VIIRS S-NPP NRT, sat N, acquired 2026-06-08 2329Z, FRP 0.7 MW", "date": "2026-06-08", "severity": 3, "source": "firms"}}, {"type": "Feature", "geometry": {"type": "Point", "coordinates": [33.669, 47.736]}, "properties": {"title": "FIRMS thermal anomaly FRP 0.7 MW", "summary": "VIIRS S-NPP NRT, sat N, acquired 2026-06-08 2329Z, FRP 0.7 MW", "date": "2026-06-08", "severity": 3, "source": "firms"}}, {"type": "Feature", "geometry": {"type": "Point", "coordinates": [31.756, 47.172]}, "properties": {"title": "FIRMS thermal anomaly FRP 1.09 MW", "summary": "VIIRS S-NPP NRT, sat N, acquired 2026-06-08 2331Z, FRP 1.09 MW", "date": "2026-06-08", "severity": 3, "source": "firms"}}, {"type": "Feature", "geometry": {"type": "Point", "coordinates": [32.701, 46.682]}, "properties": {"title": "FIRMS thermal anomaly FRP 2.05 MW", "summary": "VIIRS S-NPP NRT, sat N, acquired 2026-06-08 2331Z, FRP 2.05 MW", "date": "2026-06-08", "severity": 5, "source": "firms"}}, {"type": "Feature", "geometry": {"type": "Point", "coordinates": [32.744, 46.678]}, "properties": {"title": "FIRMS thermal anomaly FRP 0.82 MW", "summary": "VIIRS S-NPP NRT, sat N, acquired 2026-06-08 2331Z, FRP 0.82 MW", "date": "2026-06-08", "severity": 3, "source": "firms"}}, {"type": "Feature", "geometry": {"type": "Point", "coordinates": [32.719, 46.604]}, "properties": {"title": "FIRMS thermal anomaly FRP 0.37 MW", "summary": "VIIRS S-NPP NRT, sat N, acquired 2026-06-08 2331Z, FRP 0.37 MW", "date": "2026-06-08", "severity": 2, "source": "firms"}}, {"type": "Feature", "geometry": {"type": "Point", "coordinates": [32.719, 46.604]}, "properties": {"title": "FIRMS thermal anomaly FRP 0.37 MW", "summary": "VIIRS S-NPP NRT, sat N, acquired 2026-06-08 2331Z, FRP 0.37 MW", "date": "2026-06-08", "severity": 2, "source": "firms"}}, {"type": "Feature", "geometry": {"type": "Point", "coordinates": [32.643, 46.556]}, "properties": {"title": "FIRMS thermal anomaly FRP 0.43 MW", "summary": "VIIRS S-NPP NRT, sat N, acquired 2026-06-08 2331Z, FRP 0.43 MW", "date": "2026-06-08", "severity": 2, "source": "firms"}}, {"type": "Feature", "geometry": {"type": "Point", "coordinates": [32.648, 46.555]}, "properties": {"title": "FIRMS thermal anomaly FRP 0.43 MW", "summary": "VIIRS S-NPP NRT, sat N, acquired 2026-06-08 2331Z, FRP 0.43 MW", "date": "2026-06-08", "severity": 2, "source": "firms"}}, {"type": "Feature", "geometry": {"type": "Point", "coordinates": [26.029, 46.9]}, "properties": {"title": "FIRMS thermal anomaly FRP 0.5 MW", "summary": "VIIRS S-NPP NRT, sat N, acquired 2026-06-08 2331Z, FRP 0.5 MW", "date": "2026-06-08", "severity": 2, "source": "firms"}}, {"type": "Feature", "geometry": {"type": "Point", "coordinates": [25.28, 45.951]}, "properties": {"title": "FIRMS thermal anomaly FRP 1.13 MW", "summary": "VIIRS S-NPP NRT, sat N, acquired 2026-06-08 2331Z, FRP 1.13 MW", "date": "2026-06-08", "severity": 3, "source": "firms"}}, {"type": "Feature", "geometry": {"type": "Point", "coordinates": [22.867, 45.956]}, "properties": {"title": "FIRMS thermal anomaly FRP 0.59 MW", "summary": "VIIRS S-NPP NRT, sat N, acquired 2026-06-08 2331Z, FRP 0.59 MW", "date": "2026-06-08", "severity": 2, "source": "firms"}}, {"type": "Feature", "geometry": {"type": "Point", "coordinates": [30.924, 45.376]}, "properties": {"title": "FIRMS thermal anomaly FRP 0.99 MW", "summary": "VIIRS S-NPP NRT, sat N, acquired 2026-06-08 2331Z, FRP 0.99 MW", "date": "2026-06-08", "severity": 3, "source": "firms"}}, {"type": "Feature", "geometry": {"type": "Point", "coordinates": [30.931, 45.375]}, "properties": {"title": "FIRMS thermal anomaly FRP 0.99 MW", "summary": "VIIRS S-NPP NRT, sat N, acquired 2026-06-08 2331Z, FRP 0.99 MW", "date": "2026-06-08", "severity": 3, "source": "firms"}}, {"type": "Feature", "geometry": {"type": "Point", "coordinates": [30.902, 45.355]}, "properties": {"title": "FIRMS thermal anomaly FRP 3.66 MW", "summary": "VIIRS S-NPP NRT, sat N, acquired 2026-06-08 2331Z, FRP 3.66 MW", "date": "2026-06-08", "severity": 7, "source": "firms"}}, {"type": "Feature", "geometry": {"type": "Point", "coordinates": [31.673, 45.262]}, "properties": {"title": "FIRMS thermal anomaly FRP 3.45 MW", "summary": "VIIRS S-NPP NRT, sat N, acquired 2026-06-08 2331Z, FRP 3.45 MW", "date": "2026-06-08", "severity": 7, "source": "firms"}}, {"type": "Feature", "geometry": {"type": "Point", "coordinates": [31.673, 45.257]}, "properties": {"title": "FIRMS thermal anomaly FRP 3.45 MW", "summary": "VIIRS S-NPP NRT, sat N, acquired 2026-06-08 2331Z, FRP 3.45 MW", "date": "2026-06-08", "severity": 7, "source": "firms"}}, {"type": "Feature", "geometry": {"type": "Point", "coordinates": [34.041, 52.187]}, "properties": {"title": "FIRMS thermal anomaly FRP 1.54 MW", "summary": "VIIRS S-NPP NRT, sat N, acquired 2026-06-09 0107Z, FRP 1.54 MW", "date": "2026-06-09", "severity": 4, "source": "firms"}}, {"type": "Feature", "geometry": {"type": "Point", "coordinates": [33.992, 52.128]}, "properties": {"title": "FIRMS thermal anomaly FRP 0.5 MW", "summary": "VIIRS S-NPP NRT, sat N, acquired 2026-06-09 0107Z, FRP 0.5 MW", "date": "2026-06-09", "severity": 2, "source": "firms"}}, {"type": "Feature", "geometry": {"type": "Point", "coordinates": [33.992, 52.128]}, "properties": {"title": "FIRMS thermal anomaly FRP 0.44 MW", "summary": "VIIRS S-NPP NRT, sat N, acquired 2026-06-09 0107Z, FRP 0.44 MW", "date": "2026-06-09", "severity": 2, "source": "firms"}}, {"type": "Feature", "geometry": {"type": "Point", "coordinates": [34.249, 51.668]}, "properties": {"title": "FIRMS thermal anomaly FRP 0.42 MW", "summary": "VIIRS S-NPP NRT, sat N, acquired 2026-06-09 0107Z, FRP 0.42 MW", "date": "2026-06-09", "severity": 2, "source": "firms"}}, {"type": "Feature", "geometry": {"type": "Point", "coordinates": [29.99, 52.848]}, "properties": {"title": "FIRMS thermal anomaly FRP 0.66 MW", "summary": "VIIRS S-NPP NRT, sat N, acquired 2026-06-09 0107Z, FRP 0.66 MW", "date": "2026-06-09", "severity": 2, "source": "firms"}}, {"type": "Feature", "geometry": {"type": "Point", "coordinates": [34.92, 51.076]}, "properties": {"title": "FIRMS thermal anomaly FRP 0.58 MW", "summary": "VIIRS S-NPP NRT, sat N, acquired 2026-06-09 0107Z, FRP 0.58 MW", "date": "2026-06-09", "severity": 2, "source": "firms"}}, {"type": "Feature", "geometry": {"type": "Point", "coordinates": [34.627, 48.473]}, "properties": {"title": "FIRMS thermal anomaly FRP 0.69 MW", "summary": "VIIRS S-NPP NRT, sat N, acquired 2026-06-09 0107Z, FRP 0.69 MW", "date": "2026-06-09", "severity": 3, "source": "firms"}}, {"type": "Feature", "geometry": {"type": "Point", "coordinates": [24.708, 48.977]}, "properties": {"title": "FIRMS thermal anomaly FRP 1.22 MW", "summary": "VIIRS S-NPP NRT, sat N, acquired 2026-06-09 0109Z, FRP 1.22 MW", "date": "2026-06-09", "severity": 3, "source": "firms"}}, {"type": "Feature", "geometry": {"type": "Point", "coordinates": [32.69, 46.685]}, "properties": {"title": "FIRMS thermal anomaly FRP 0.76 MW", "summary": "VIIRS S-NPP NRT, sat N, acquired 2026-06-09 0109Z, FRP 0.76 MW", "date": "2026-06-09", "severity": 3, "source": "firms"}}, {"type": "Feature", "geometry": {"type": "Point", "coordinates": [29.018, 47.787]}, "properties": {"title": "FIRMS thermal anomaly FRP 0.64 MW", "summary": "VIIRS S-NPP NRT, sat N, acquired 2026-06-09 0109Z, FRP 0.64 MW", "date": "2026-06-09", "severity": 2, "source": "firms"}}, {"type": "Feature", "geometry": {"type": "Point", "coordinates": [31.675, 45.261]}, "properties": {"title": "FIRMS thermal anomaly FRP 2.93 MW", "summary": "VIIRS S-NPP NRT, sat N, acquired 2026-06-09 0109Z, FRP 2.93 MW", "date": "2026-06-09", "severity": 6, "source": "firms"}}, {"type": "Feature", "geometry": {"type": "Point", "coordinates": [31.669, 45.263]}, "properties": {"title": "FIRMS thermal anomaly FRP 5.71 MW", "summary": "VIIRS S-NPP NRT, sat N, acquired 2026-06-09 0109Z, FRP 5.71 MW", "date": "2026-06-09", "severity": 10, "source": "firms"}}, {"type": "Feature", "geometry": {"type": "Point", "coordinates": [31.672, 45.256]}, "properties": {"title": "FIRMS thermal anomaly FRP 2.93 MW", "summary": "VIIRS S-NPP NRT, sat N, acquired 2026-06-09 0109Z, FRP 2.93 MW", "date": "2026-06-09", "severity": 6, "source": "firms"}}, {"type": "Feature", "geometry": {"type": "Point", "coordinates": [31.673, 45.256]}, "properties": {"title": "FIRMS thermal anomaly FRP 2.64 MW", "summary": "VIIRS S-NPP NRT, sat N, acquired 2026-06-09 0109Z, FRP 2.64 MW", "date": "2026-06-09", "severity": 5, "source": "firms"}}, {"type": "Feature", "geometry": {"type": "Point", "coordinates": [31.667, 45.258]}, "properties": {"title": "FIRMS thermal anomaly FRP 2.64 MW", "summary": "VIIRS S-NPP NRT, sat N, acquired 2026-06-09 0109Z, FRP 2.64 MW", "date": "2026-06-09", "severity": 5, "source": "firms"}}, {"type": "Feature", "geometry": {"type": "Point", "coordinates": [30.903, 45.36]}, "properties": {"title": "FIRMS thermal anomaly FRP 1.03 MW", "summary": "VIIRS S-NPP NRT, sat N, acquired 2026-06-09 0109Z, FRP 1.03 MW", "date": "2026-06-09", "severity": 3, "source": "firms"}}, {"type": "Feature", "geometry": {"type": "Point", "coordinates": [30.899, 45.354]}, "properties": {"title": "FIRMS thermal anomaly FRP 1.03 MW", "summary": "VIIRS S-NPP NRT, sat N, acquired 2026-06-09 0109Z, FRP 1.03 MW", "date": "2026-06-09", "severity": 3, "source": "firms"}}, {"type": "Feature", "geometry": {"type": "Point", "coordinates": [25.283, 45.952]}, "properties": {"title": "FIRMS thermal anomaly FRP 1.33 MW", "summary": "VIIRS S-NPP NRT, sat N, acquired 2026-06-09 0109Z, FRP 1.33 MW", "date": "2026-06-09", "severity": 3, "source": "firms"}}, {"type": "Feature", "geometry": {"type": "Point", "coordinates": [25.284, 45.953]}, "properties": {"title": "FIRMS thermal anomaly FRP 1.59 MW", "summary": "VIIRS S-NPP NRT, sat N, acquired 2026-06-09 0109Z, FRP 1.59 MW", "date": "2026-06-09", "severity": 4, "source": "firms"}}, {"type": "Feature", "geometry": {"type": "Point", "coordinates": [22.866, 45.957]}, "properties": {"title": "FIRMS thermal anomaly FRP 0.86 MW", "summary": "VIIRS S-NPP NRT, sat N, acquired 2026-06-09 0109Z, FRP 0.86 MW", "date": "2026-06-09", "severity": 3, "source": "firms"}}, {"type": "Feature", "geometry": {"type": "Point", "coordinates": [25.413, 45.124]}, "properties": {"title": "FIRMS thermal anomaly FRP 1.05 MW", "summary": "VIIRS S-NPP NRT, sat N, acquired 2026-06-09 0109Z, FRP 1.05 MW", "date": "2026-06-09", "severity": 3, "source": "firms"}}, {"type": "Feature", "geometry": {"type": "Point", "coordinates": [25.42, 45.122]}, "properties": {"title": "FIRMS thermal anomaly FRP 1.05 MW", "summary": "VIIRS S-NPP NRT, sat N, acquired 2026-06-09 0109Z, FRP 1.05 MW", "date": "2026-06-09", "severity": 3, "source": "firms"}}, {"type": "Feature", "geometry": {"type": "Point", "coordinates": [25.414, 45.123]}, "properties": {"title": "FIRMS thermal anomaly FRP 1.44 MW", "summary": "VIIRS S-NPP NRT, sat N, acquired 2026-06-09 0109Z, FRP 1.44 MW", "date": "2026-06-09", "severity": 4, "source": "firms"}}, {"type": "Feature", "geometry": {"type": "Point", "coordinates": [22.585, 44.192]}, "properties": {"title": "FIRMS thermal anomaly FRP 0.53 MW", "summary": "VIIRS S-NPP NRT, sat N, acquired 2026-06-09 0109Z, FRP 0.53 MW", "date": "2026-06-09", "severity": 2, "source": "firms"}}, {"type": "Feature", "geometry": {"type": "Point", "coordinates": [22.102, 44.081]}, "properties": {"title": "FIRMS thermal anomaly FRP 0.92 MW", "summary": "VIIRS S-NPP NRT, sat N, acquired 2026-06-09 0109Z, FRP 0.92 MW", "date": "2026-06-09", "severity": 3, "source": "firms"}}]}