{
  "type": "FeatureCollection",
  "features": [
    {
      "type": "Feature",
      "geometry": {
        "type": "Point",
        "coordinates": [
          22.10215,
          44.08134
        ]
      },
      "properties": {
        "title": "FIRMS thermal anomaly 44.08,22.10",
        "summary": "FRP 0.92 MW, VIIRS 375m resolution",
        "date": "2026-06-09",
        "severity": 1,
        "source": "firms"
      }
    },
    {
      "type": "Feature",
      "geometry": {
        "type": "Point",
        "coordinates": [
          22.58494,
          44.19241
        ]
      },
      "properties": {
        "title": "FIRMS thermal anomaly 44.19,22.58",
        "summary": "FRP 0.53 MW, VIIRS 375m resolution",
        "date": "2026-06-09",
        "severity": 1,
        "source": "firms"
      }
    },
    {
      "type": "Feature",
      "geometry": {
        "type": "Point",
        "coordinates": [
          25.41367,
          45.12321
        ]
      },
      "properties": {
        "title": "FIRMS thermal anomaly 45.12,25.41",
        "summary": "FRP 1.44 MW, VIIRS 375m resolution",
        "date": "2026-06-09",
        "severity": 2,
        "source": "firms"
      }
    },
    {
      "type": "Feature",
      "geometry": {
        "type": "Point",
        "coordinates": [
          25.41962,
          45.12212
        ]
      },
      "properties": {
        "title": "FIRMS thermal anomaly 45.12,25.42",
        "summary": "FRP 1.05 MW, VIIRS 375m resolution",
        "date": "2026-06-09",
        "severity": 2,
        "source": "firms"
      }
    },
    {
      "type": "Feature",
      "geometry": {
        "type": "Point",
        "coordinates": [
          25.41262,
          45.12397
        ]
      },
      "properties": {
        "title": "FIRMS thermal anomaly 45.12,25.41",
        "summary": "FRP 1.05 MW, VIIRS 375m resolution",
        "date": "2026-06-09",
        "severity": 2,
        "source": "firms"
      }
    },
    {
      "type": "Feature",
      "geometry": {
        "type": "Point",
        "coordinates": [
          22.86573,
          45.95678
        ]
      },
      "properties": {
        "title": "FIRMS thermal anomaly 45.96,22.87",
        "summary": "FRP 0.86 MW, VIIRS 375m resolution",
        "date": "2026-06-09",
        "severity": 1,
        "source": "firms"
      }
    },
    {
      "type": "Feature",
      "geometry": {
        "type": "Point",
        "coordinates": [
          25.28406,
          45.95288
        ]
      },
      "properties": {
        "title": "FIRMS thermal anomaly 45.95,25.28",
        "summary": "FRP 1.59 MW, VIIRS 375m resolution",
        "date": "2026-06-09",
        "severity": 3,
        "source": "firms"
      }
    },
    {
      "type": "Feature",
      "geometry": {
        "type": "Point",
        "coordinates": [
          25.28328,
          45.95245
        ]
      },
      "properties": {
        "title": "FIRMS thermal anomaly 45.95,25.28",
        "summary": "FRP 1.33 MW, VIIRS 375m resolution",
        "date": "2026-06-09",
        "severity": 2,
        "source": "firms"
      }
    },
    {
      "type": "Feature",
      "geometry": {
        "type": "Point",
        "coordinates": [
          30.8992,
          45.35416
        ]
      },
      "properties": {
        "title": "FIRMS thermal anomaly 45.35,30.90",
        "summary": "FRP 1.03 MW, VIIRS 375m resolution",
        "date": "2026-06-09",
        "severity": 2,
        "source": "firms"
      }
    },
    {
      "type": "Feature",
      "geometry": {
        "type": "Point",
        "coordinates": [
          30.90278,
          45.35968
        ]
      },
      "properties": {
        "title": "FIRMS thermal anomaly 45.36,30.90",
        "summary": "FRP 1.03 MW, VIIRS 375m resolution",
        "date": "2026-06-09",
        "severity": 2,
        "source": "firms"
      }
    },
    {
      "type": "Feature",
      "geometry": {
        "type": "Point",
        "coordinates": [
          31.66681,
          45.25819
        ]
      },
      "properties": {
        "title": "FIRMS thermal anomaly 45.26,31.67",
        "summary": "FRP 2.64 MW, VIIRS 375m resolution",
        "date": "2026-06-09",
        "severity": 5,
        "source": "firms"
      }
    },
    {
      "type": "Feature",
      "geometry": {
        "type": "Point",
        "coordinates": [
          31.67308,
          45.25616
        ]
      },
      "properties": {
        "title": "FIRMS thermal anomaly 45.26,31.67",
        "summary": "FRP 2.64 MW, VIIRS 375m resolution",
        "date": "2026-06-09",
        "severity": 5,
        "source": "firms"
      }
    },
    {
      "type": "Feature",
      "geometry": {
        "type": "Point",
        "coordinates": [
          31.67156,
          45.25574
        ]
      },
      "properties": {
        "title": "FIRMS thermal anomaly 45.26,31.67",
        "summary": "FRP 2.93 MW, VIIRS 375m resolution",
        "date": "2026-06-09",
        "severity": 5,
        "source": "firms"
      }
    },
    {
      "type": "Feature",
      "geometry": {
        "type": "Point",
        "coordinates": [
          31.66905,
          45.26349
        ]
      },
      "properties": {
        "title": "FIRMS thermal anomaly 45.26,31.67",
        "summary": "FRP 5.71 MW, VIIRS 375m resolution",
        "date": "2026-06-09",
        "severity": 10,
        "source": "firms"
      }
    },
    {
      "type": "Feature",
      "geometry": {
        "type": "Point",
        "coordinates": [
          31.67532,
          45.26143
        ]
      },
      "properties": {
        "title": "FIRMS thermal anomaly 45.26,31.68",
        "summary": "FRP 2.93 MW, VIIRS 375m resolution",
        "date": "2026-06-09",
        "severity": 5,
        "source": "firms"
      }
    },
    {
      "type": "Feature",
      "geometry": {
        "type": "Point",
        "coordinates": [
          29.01753,
          47.78737
        ]
      },
      "properties": {
        "title": "FIRMS thermal anomaly 47.79,29.02",
        "summary": "FRP 0.64 MW, VIIRS 375m resolution",
        "date": "2026-06-09",
        "severity": 1,
        "source": "firms"
      }
    },
    {
      "type": "Feature",
      "geometry": {
        "type": "Point",
        "coordinates": [
          32.68969,
          46.6847
        ]
      },
      "properties": {
        "title": "FIRMS thermal anomaly 46.68,32.69",
        "summary": "FRP 0.76 MW, VIIRS 375m resolution",
        "date": "2026-06-09",
        "severity": 1,
        "source": "firms"
      }
    },
    {
      "type": "Feature",
      "geometry": {
        "type": "Point",
        "coordinates": [
          24.70811,
          48.97726
        ]
      },
      "properties": {
        "title": "FIRMS thermal anomaly 48.98,24.71",
        "summary": "FRP 1.22 MW, VIIRS 375m resolution",
        "date": "2026-06-09",
        "severity": 2,
        "source": "firms"
      }
    },
    {
      "type": "Feature",
      "geometry": {
        "type": "Point",
        "coordinates": [
          34.62656,
          48.4731
        ]
      },
      "properties": {
        "title": "FIRMS thermal anomaly 48.47,34.63",
        "summary": "FRP 0.69 MW, VIIRS 375m resolution",
        "date": "2026-06-09",
        "severity": 1,
        "source": "firms"
      }
    },
    {
      "type": "Feature",
      "geometry": {
        "type": "Point",
        "coordinates": [
          34.91955,
          51.07557
        ]
      },
      "properties": {
        "title": "FIRMS thermal anomaly 51.08,34.92",
        "summary": "FRP 0.58 MW, VIIRS 375m resolution",
        "date": "2026-06-09",
        "severity": 1,
        "source": "firms"
      }
    },
    {
      "type": "Feature",
      "geometry": {
        "type": "Point",
        "coordinates": [
          34.24913,
          51.66788
        ]
      },
      "properties": {
        "title": "FIRMS thermal anomaly 51.67,34.25",
        "summary": "FRP 0.42 MW, VIIRS 375m resolution",
        "date": "2026-06-09",
        "severity": 1,
        "source": "firms"
      }
    },
    {
      "type": "Feature",
      "geometry": {
        "type": "Point",
        "coordinates": [
          31.67272,
          45.25723
        ]
      },
      "properties": {
        "title": "FIRMS thermal anomaly 45.26,31.67",
        "summary": "FRP 3.45 MW, VIIRS 375m resolution",
        "date": "2026-06-09",
        "severity": 6,
        "source": "firms"
      }
    },
    {
      "type": "Feature",
      "geometry": {
        "type": "Point",
        "coordinates": [
          31.67346,
          45.26154
        ]
      },
      "properties": {
        "title": "FIRMS thermal anomaly 45.26,31.67",
        "summary": "FRP 3.45 MW, VIIRS 375m resolution",
        "date": "2026-06-09",
        "severity": 6,
        "source": "firms"
      }
    },
    {
      "type": "Feature",
      "geometry": {
        "type": "Point",
        "coordinates": [
          30.90195,
          45.35485
        ]
      },
      "properties": {
        "title": "FIRMS thermal anomaly 45.35,30.90",
        "summary": "FRP 3.66 MW, VIIRS 375m resolution",
        "date": "2026-06-09",
        "severity": 7,
        "source": "firms"
      }
    },
    {
      "type": "Feature",
      "geometry": {
        "type": "Point",
        "coordinates": [
          30.93062,
          45.37531
        ]
      },
      "properties": {
        "title": "FIRMS thermal anomaly 45.38,30.93",
        "summary": "FRP 0.99 MW, VIIRS 375m resolution",
        "date": "2026-06-09",
        "severity": 1,
        "source": "firms"
      }
    },
    {
      "type": "Feature",
      "geometry": {
        "type": "Point",
        "coordinates": [
          30.92434,
          45.37581
        ]
      },
      "properties": {
        "title": "FIRMS thermal anomaly 45.38,30.92",
        "summary": "FRP 0.99 MW, VIIRS 375m resolution",
        "date": "2026-06-09",
        "severity": 1,
        "source": "firms"
      }
    },
    {
      "type": "Feature",
      "geometry": {
        "type": "Point",
        "coordinates": [
          22.86675,
          45.95607
        ]
      },
      "properties": {
        "title": "FIRMS thermal anomaly 45.96,22.87",
        "summary": "FRP 0.59 MW, VIIRS 375m resolution",
        "date": "2026-06-09",
        "severity": 1,
        "source": "firms"
      }
    },
    {
      "type": "Feature",
      "geometry": {
        "type": "Point",
        "coordinates": [
          25.28044,
          45.95132
        ]
      },
      "properties": {
        "title": "FIRMS thermal anomaly 45.95,25.28",
        "summary": "FRP 1.13 MW, VIIRS 375m resolution",
        "date": "2026-06-09",
        "severity": 2,
        "source": "firms"
      }
    },
    {
      "type": "Feature",
      "geometry": {
        "type": "Point",
        "coordinates": [
          26.02858,
          46.90028
        ]
      },
      "properties": {
        "title": "FIRMS thermal anomaly 46.90,26.03",
        "summary": "FRP 0.5 MW, VIIRS 375m resolution",
        "date": "2026-06-09",
        "severity": 1,
        "source": "firms"
      }
    },
    {
      "type": "Feature",
      "geometry": {
        "type": "Point",
        "coordinates": [
          32.6482,
          46.55517
        ]
      },
      "properties": {
        "title": "FIRMS thermal anomaly 46.56,32.65",
        "summary": "FRP 0.43 MW, VIIRS 375m resolution",
        "date": "2026-06-09",
        "severity": 1,
        "source": "firms"
      }
    },
    {
      "type": "Feature",
      "geometry": {
        "type": "Point",
        "coordinates": [
          32.64271,
          46.55565
        ]
      },
      "properties": {
        "title": "FIRMS thermal anomaly 46.56,32.64",
        "summary": "FRP 0.43 MW, VIIRS 375m resolution",
        "date": "2026-06-09",
        "severity": 1,
        "source": "firms"
      }
    },
    {
      "type": "Feature",
      "geometry": {
        "type": "Point",
        "coordinates": [
          32.71869,
          46.60405
        ]
      },
      "properties": {
        "title": "FIRMS thermal anomaly 46.60,32.72",
        "summary": "FRP 0.37 MW, VIIRS 375m resolution",
        "date": "2026-06-09",
        "severity": 1,
        "source": "firms"
      }
    },
    {
      "type": "Feature",
      "geometry": {
        "type": "Point",
        "coordinates": [
          32.74442,
          46.67823
        ]
      },
      "properties": {
        "title": "FIRMS thermal anomaly 46.68,32.74",
        "summary": "FRP 0.82 MW, VIIRS 375m resolution",
        "date": "2026-06-09",
        "severity": 1,
        "source": "firms"
      }
    },
    {
      "type": "Feature",
      "geometry": {
        "type": "Point",
        "coordinates": [
          32.70075,
          46.68211
        ]
      },
      "properties": {
        "title": "FIRMS thermal anomaly 46.68,32.70",
        "summary": "FRP 2.05 MW, VIIRS 375m resolution",
        "date": "2026-06-09",
        "severity": 4,
        "source": "firms"
      }
    },
    {
      "type": "Feature",
      "geometry": {
        "type": "Point",
        "coordinates": [
          31.75567,
          47.17236
        ]
      },
      "properties": {
        "title": "FIRMS thermal anomaly 47.17,31.76",
        "summary": "FRP 1.09 MW, VIIRS 375m resolution",
        "date": "2026-06-09",
        "severity": 2,
        "source": "firms"
      }
    },
    {
      "type": "Feature",
      "geometry": {
        "type": "Point",
        "coordinates": [
          33.66928,
          47.73645
        ]
      },
      "properties": {
        "title": "FIRMS thermal anomaly 47.74,33.67",
        "summary": "FRP 0.7 MW, VIIRS 375m resolution",
        "date": "2026-06-09",
        "severity": 1,
        "source": "firms"
      }
    },
    {
      "type": "Feature",
      "geometry": {
        "type": "Point",
        "coordinates": [
          33.66405,
          47.73693
        ]
      },
      "properties": {
        "title": "FIRMS thermal anomaly 47.74,33.66",
        "summary": "FRP 0.7 MW, VIIRS 375m resolution",
        "date": "2026-06-09",
        "severity": 1,
        "source": "firms"
      }
    },
    {
      "type": "Feature",
      "geometry": {
        "type": "Point",
        "coordinates": [
          33.38452,
          47.84343
        ]
      },
      "properties": {
        "title": "FIRMS thermal anomaly 47.84,33.38",
        "summary": "FRP 1.19 MW, VIIRS 375m resolution",
        "date": "2026-06-09",
        "severity": 2,
        "source": "firms"
      }
    },
    {
      "type": "Feature",
      "geometry": {
        "type": "Point",
        "coordinates": [
          33.43359,
          47.86826
        ]
      },
      "properties": {
        "title": "FIRMS thermal anomaly 47.87,33.43",
        "summary": "FRP 1.52 MW, VIIRS 375m resolution",
        "date": "2026-06-09",
        "severity": 3,
        "source": "firms"
      }
    },
    {
      "type": "Feature",
      "geometry": {
        "type": "Point",
        "coordinates": [
          33.43441,
          47.87234
        ]
      },
      "properties": {
        "title": "FIRMS thermal anomaly 47.87,33.43",
        "summary": "FRP 1.52 MW, VIIRS 375m resolution",
        "date": "2026-06-09",
        "severity": 3,
        "source": "firms"
      }
    },
    {
      "type": "Feature",
      "geometry": {
        "type": "Point",
        "coordinates": [
          33.41823,
          47.8738
        ]
      },
      "properties": {
        "title": "FIRMS thermal anomaly 47.87,33.42",
        "summary": "FRP 1.14 MW, VIIRS 375m resolution",
        "date": "2026-06-09",
        "severity": 2,
        "source": "firms"
      }
    },
    {
      "type": "Feature",
      "geometry": {
        "type": "Point",
        "coordinates": [
          33.41284,
          47.87428
        ]
      },
      "properties": {
        "title": "FIRMS thermal anomaly 47.87,33.41",
        "summary": "FRP 1.07 MW, VIIRS 375m resolution",
        "date": "2026-06-09",
        "severity": 2,
        "source": "firms"
      }
    },
    {
      "type": "Feature",
      "geometry": {
        "type": "Point",
        "coordinates": [
          33.39747,
          47.87983
        ]
      },
      "properties": {
        "title": "FIRMS thermal anomaly 47.88,33.40",
        "summary": "FRP 0.49 MW, VIIRS 375m resolution",
        "date": "2026-06-09",
        "severity": 1,
        "source": "firms"
      }
    },
    {
      "type": "Feature",
      "geometry": {
        "type": "Point",
        "coordinates": [
          33.39822,
          47.88394
        ]
      },
      "properties": {
        "title": "FIRMS thermal anomaly 47.88,33.40",
        "summary": "FRP 0.49 MW, VIIRS 375m resolution",
        "date": "2026-06-09",
        "severity": 1,
        "source": "firms"
      }
    },
    {
      "type": "Feature",
      "geometry": {
        "type": "Point",
        "coordinates": [
          26.60114,
          48.75019
        ]
      },
      "properties": {
        "title": "FIRMS thermal anomaly 48.75,26.60",
        "summary": "FRP 1.1 MW, VIIRS 375m resolution",
        "date": "2026-06-09",
        "severity": 2,
        "source": "firms"
      }
    },
    {
      "type": "Feature",
      "geometry": {
        "type": "Point",
        "coordinates": [
          24.70903,
          48.97816
        ]
      },
      "properties": {
        "title": "FIRMS thermal anomaly 48.98,24.71",
        "summary": "FRP 0.73 MW, VIIRS 375m resolution",
        "date": "2026-06-09",
        "severity": 1,
        "source": "firms"
      }
    },
    {
      "type": "Feature",
      "geometry": {
        "type": "Point",
        "coordinates": [
          34.63034,
          48.47464
        ]
      },
      "properties": {
        "title": "FIRMS thermal anomaly 48.47,34.63",
        "summary": "FRP 1.86 MW, VIIRS 375m resolution",
        "date": "2026-06-09",
        "severity": 3,
        "source": "firms"
      }
    },
    {
      "type": "Feature",
      "geometry": {
        "type": "Point",
        "coordinates": [
          118.5847,
          -10.262
        ]
      },
      "properties": {
        "title": "M4.8 116 km SW of Tambolaka, Indonesia",
        "summary": "Magnitude 4.8, depth 24.483km",
        "date": "2026-06-09",
        "severity": 2,
        "source": "usgs"
      }
    },
    {
      "type": "Feature",
      "geometry": {
        "type": "Point",
        "coordinates": [
          125.685,
          8.769
        ]
      },
      "properties": {
        "title": "M5.1 6 km SSW of Sibagat, Philippines",
        "summary": "Magnitude 5.1, depth 10km",
        "date": "2026-06-09",
        "severity": 3,
        "source": "usgs"
      }
    },
    {
      "type": "Feature",
      "geometry": {
        "type": "Point",
        "coordinates": [
          124.825,
          5.6881
        ]
      },
      "properties": {
        "title": "M5.4 21 km SSW of Lumatil, Philippines",
        "summary": "Magnitude 5.4, depth 35km",
        "date": "2026-06-09",
        "severity": 4,
        "source": "usgs"
      }
    },
    {
      "type": "Feature",
      "geometry": {
        "type": "Point",
        "coordinates": [
          125.1815,
          5.6276
        ]
      },
      "properties": {
        "title": "M4.6 12 km SW of Burias, Philippines",
        "summary": "Magnitude 4.6, depth 71.728km",
        "date": "2026-06-09",
        "severity": 1,
        "source": "usgs"
      }
    },
    {
      "type": "Feature",
      "geometry": {
        "type": "Point",
        "coordinates": [
          125.4582,
          5.622
        ]
      },
      "properties": {
        "title": "M4.9 2 km ESE of Nuing, Philippines",
        "summary": "Magnitude 4.9, depth 50.122km",
        "date": "2026-06-09",
        "severity": 2,
        "source": "usgs"
      }
    },
    {
      "type": "Feature",
      "geometry": {
        "type": "Point",
        "coordinates": [
          125.3116,
          5.2857
        ]
      },
      "properties": {
        "title": "M5.2 21 km SW of Sarangani, Philippines",
        "summary": "Magnitude 5.2, depth 82.366km",
        "date": "2026-06-09",
        "severity": 3,
        "source": "usgs"
      }
    },
    {
      "type": "Feature",
      "geometry": {
        "type": "Point",
        "coordinates": [
          144.3895,
          -4.4318
        ]
      },
      "properties": {
        "title": "M4.6 54 km SE of Angoram, Papua New Guinea",
        "summary": "Magnitude 4.6, depth 154.37km",
        "date": "2026-06-09",
        "severity": 1,
        "source": "usgs"
      }
    },
    {
      "type": "Feature",
      "geometry": {
        "type": "Point",
        "coordinates": [
          125.3771,
          4.6464
        ]
      },
      "properties": {
        "title": "M4.6 84 km S of Sarangani, Philippines",
        "summary": "Magnitude 4.6, depth 76.732km",
        "date": "2026-06-09",
        "severity": 1,
        "source": "usgs"
      }
    },
    {
      "type": "Feature",
      "geometry": {
        "type": "Point",
        "coordinates": [
          125.2423,
          5.6343
        ]
      },
      "properties": {
        "title": "M4.7 8 km SSW of Pangyan, Philippines",
        "summary": "Magnitude 4.7, depth 62.575km",
        "date": "2026-06-09",
        "severity": 2,
        "source": "usgs"
      }
    },
    {
      "type": "Feature",
      "geometry": {
        "type": "Point",
        "coordinates": [
          124.8372,
          4.997
        ]
      },
      "properties": {
        "title": "M4.8 82 km WSW of Sarangani, Philippines",
        "summary": "Magnitude 4.8, depth 35km",
        "date": "2026-06-09",
        "severity": 2,
        "source": "usgs"
      }
    },
    {
      "type": "Feature",
      "geometry": {
        "type": "Point",
        "coordinates": [
          125.3486,
          4.7313
        ]
      },
      "properties": {
        "title": "M4.9 75 km S of Sarangani, Philippines",
        "summary": "Magnitude 4.9, depth 39.205km",
        "date": "2026-06-09",
        "severity": 2,
        "source": "usgs"
      }
    },
    {
      "type": "Feature",
      "geometry": {
        "type": "Point",
        "coordinates": [
          56.9078,
          28.0292
        ]
      },
      "properties": {
        "title": "M4.9 101 km N of M\u012bn\u0101b, Iran",
        "summary": "Magnitude 4.9, depth 10km",
        "date": "2026-06-09",
        "severity": 2,
        "source": "usgs"
      }
    },
    {
      "type": "Feature",
      "geometry": {
        "type": "Point",
        "coordinates": [
          125.277,
          5.4912
        ]
      },
      "properties": {
        "title": "M4.9 12 km SW of Balangonan, Philippines",
        "summary": "Magnitude 4.9, depth 78.015km",
        "date": "2026-06-09",
        "severity": 2,
        "source": "usgs"
      }
    },
    {
      "type": "Feature",
      "geometry": {
        "type": "Point",
        "coordinates": [
          125.4615,
          4.9304
        ]
      },
      "properties": {
        "title": "M5.1 52 km S of Sarangani, Philippines",
        "summary": "Magnitude 5.1, depth 69.499km",
        "date": "2026-06-09",
        "severity": 3,
        "source": "usgs"
      }
    },
    {
      "type": "Feature",
      "geometry": {
        "type": "Point",
        "coordinates": [
          125.4753,
          5.501
        ]
      },
      "properties": {
        "title": "M5.1 10 km N of Sarangani, Philippines",
        "summary": "Magnitude 5.1, depth 23.958km",
        "date": "2026-06-09",
        "severity": 3,
        "source": "usgs"
      }
    },
    {
      "type": "Feature",
      "geometry": {
        "type": "Point",
        "coordinates": [
          125.2439,
          5.0648
        ]
      },
      "properties": {
        "title": "M5.2 44 km SSW of Sarangani, Philippines",
        "summary": "Magnitude 5.2, depth 55.698km",
        "date": "2026-06-09",
        "severity": 3,
        "source": "usgs"
      }
    },
    {
      "type": "Feature",
      "geometry": {
        "type": "Point",
        "coordinates": [
          124.8303,
          5.7068
        ]
      },
      "properties": {
        "title": "M5.3 19 km SSW of Lumatil, Philippines",
        "summary": "Magnitude 5.3, depth 45.995km",
        "date": "2026-06-09",
        "severity": 3,
        "source": "usgs"
      }
    },
    {
      "type": "Feature",
      "geometry": {
        "type": "Point",
        "coordinates": [
          169.9905,
          -21.1981
        ]
      },
      "properties": {
        "title": "M5.4 197 km SSE of Isangel, Vanuatu",
        "summary": "Magnitude 5.4, depth 59.614km",
        "date": "2026-06-09",
        "severity": 4,
        "source": "usgs"
      }
    },
    {
      "type": "Feature",
      "geometry": {
        "type": "Point",
        "coordinates": [
          -4.3752,
          -55.7212
        ]
      },
      "properties": {
        "title": "M5.4 southern Mid-Atlantic Ridge",
        "summary": "Magnitude 5.4, depth 10km",
        "date": "2026-06-09",
        "severity": 4,
        "source": "usgs"
      }
    },
    {
      "type": "Feature",
      "geometry": {
        "type": "Point",
        "coordinates": [
          -4.3787,
          -55.7537
        ]
      },
      "properties": {
        "title": "M5.5 southern Mid-Atlantic Ridge",
        "summary": "Magnitude 5.5, depth 10km",
        "date": "2026-06-09",
        "severity": 4,
        "source": "usgs"
      }
    },
    {
      "type": "Feature",
      "geometry": {
        "type": "Point",
        "coordinates": [
          -85.1501,
          22.7854
        ]
      },
      "properties": {
        "title": "M6.1 104 km WNW of Mantua, Cuba",
        "summary": "Magnitude 6.1, depth 26km",
        "date": "2026-06-09",
        "severity": 6,
        "source": "usgs"
      }
    },
    {
      "type": "Feature",
      "geometry": {
        "type": "Point",
        "coordinates": [
          125.2036,
          5.3023
        ]
      },
      "properties": {
        "title": "M4.6 30 km WSW of Sarangani, Philippines",
        "summary": "Magnitude 4.6, depth 72.975km",
        "date": "2026-06-09",
        "severity": 1,
        "source": "usgs"
      }
    },
    {
      "type": "Feature",
      "geometry": {
        "type": "Point",
        "coordinates": [
          125.5369,
          4.7279
        ]
      },
      "properties": {
        "title": "M5.1 75 km S of Sarangani, Philippines",
        "summary": "Magnitude 5.1, depth 64.022km",
        "date": "2026-06-09",
        "severity": 3,
        "source": "usgs"
      }
    },
    {
      "type": "Feature",
      "geometry": {
        "type": "Point",
        "coordinates": [
          125.2525,
          5.532
        ]
      },
      "properties": {
        "title": "M5.5 12 km WSW of Balangonan, Philippines",
        "summary": "Magnitude 5.5, depth 81.095km",
        "date": "2026-06-09",
        "severity": 4,
        "source": "usgs"
      }
    },
    {
      "type": "Feature",
      "geometry": {
        "type": "Point",
        "coordinates": [
          125.3094,
          4.9191
        ]
      },
      "properties": {
        "title": "M5.6 56 km SSW of Sarangani, Philippines",
        "summary": "Magnitude 5.6, depth 35km",
        "date": "2026-06-09",
        "severity": 4,
        "source": "usgs"
      }
    },
    {
      "type": "Feature",
      "geometry": {
        "type": "Point",
        "coordinates": [
          125.6965,
          5.3316
        ]
      },
      "properties": {
        "title": "M4.5 27 km ESE of Sarangani, Philippines",
        "summary": "Magnitude 4.5, depth 70.307km",
        "date": "2026-06-09",
        "severity": 1,
        "source": "usgs"
      }
    },
    {
      "type": "Feature",
      "geometry": {
        "type": "Point",
        "coordinates": [
          125.6122,
          5.1996
        ]
      },
      "properties": {
        "title": "M4.6 27 km SE of Sarangani, Philippines",
        "summary": "Magnitude 4.6, depth 59.832km",
        "date": "2026-06-09",
        "severity": 1,
        "source": "usgs"
      }
    },
    {
      "type": "Feature",
      "geometry": {
        "type": "Point",
        "coordinates": [
          124.9784,
          4.9916
        ]
      },
      "properties": {
        "title": "M4.6 70 km SW of Sarangani, Philippines",
        "summary": "Magnitude 4.6, depth 60.192km",
        "date": "2026-06-09",
        "severity": 1,
        "source": "usgs"
      }
    },
    {
      "type": "Feature",
      "geometry": {
        "type": "Point",
        "coordinates": [
          125.0476,
          5.0057
        ]
      },
      "properties": {
        "title": "M4.6 63 km SW of Sarangani, Philippines",
        "summary": "Magnitude 4.6, depth 35km",
        "date": "2026-06-09",
        "severity": 1,
        "source": "usgs"
      }
    },
    {
      "type": "Feature",
      "geometry": {
        "type": "Point",
        "coordinates": [
          124.5997,
          4.8317
        ]
      },
      "properties": {
        "title": "M4.6 114 km WSW of Sarangani, Philippines",
        "summary": "Magnitude 4.6, depth 35km",
        "date": "2026-06-09",
        "severity": 1,
        "source": "usgs"
      }
    },
    {
      "type": "Feature",
      "geometry": {
        "type": "Point",
        "coordinates": [
          125.3545,
          4.8722
        ]
      },
      "properties": {
        "title": "M4.7 59 km SSW of Sarangani, Philippines",
        "summary": "Magnitude 4.7, depth 66.948km",
        "date": "2026-06-09",
        "severity": 2,
        "source": "usgs"
      }
    },
    {
      "type": "Feature",
      "geometry": {
        "type": "Point",
        "coordinates": [
          125.8947,
          5.3681
        ]
      },
      "properties": {
        "title": "M4.7 47 km E of Sarangani, Philippines",
        "summary": "Magnitude 4.7, depth 63.869km",
        "date": "2026-06-09",
        "severity": 2,
        "source": "usgs"
      }
    },
    {
      "type": "Feature",
      "geometry": {
        "type": "Point",
        "coordinates": [
          125.3375,
          5.3206
        ]
      },
      "properties": {
        "title": "M4.7 16 km WSW of Sarangani, Philippines",
        "summary": "Magnitude 4.7, depth 35km",
        "date": "2026-06-09",
        "severity": 2,
        "source": "usgs"
      }
    },
    {
      "type": "Feature",
      "geometry": {
        "type": "Point",
        "coordinates": [
          125.3603,
          5.5664
        ]
      },
      "properties": {
        "title": "M4.8 1 km SE of Balangonan, Philippines",
        "summary": "Magnitude 4.8, depth 35km",
        "date": "2026-06-09",
        "severity": 2,
        "source": "usgs"
      }
    },
    {
      "type": "Feature",
      "geometry": {
        "type": "Point",
        "coordinates": [
          125.2727,
          5.7459
        ]
      },
      "properties": {
        "title": "M4.8 3 km NE of Burias, Philippines",
        "summary": "Magnitude 4.8, depth 59.87km",
        "date": "2026-06-09",
        "severity": 2,
        "source": "usgs"
      }
    },
    {
      "type": "Feature",
      "geometry": {
        "type": "Point",
        "coordinates": [
          125.3274,
          5.5478
        ]
      },
      "properties": {
        "title": "M4.9 4 km SW of Balangonan, Philippines",
        "summary": "Magnitude 4.9, depth 54.502km",
        "date": "2026-06-09",
        "severity": 2,
        "source": "usgs"
      }
    },
    {
      "type": "Feature",
      "geometry": {
        "type": "Point",
        "coordinates": [
          125.1956,
          5.3553
        ]
      },
      "properties": {
        "title": "M4.9 29 km SW of Balangonan, Philippines",
        "summary": "Magnitude 4.9, depth 35km",
        "date": "2026-06-09",
        "severity": 2,
        "source": "usgs"
      }
    },
    {
      "type": "Feature",
      "geometry": {
        "type": "Point",
        "coordinates": [
          125.1228,
          5.0116
        ]
      },
      "properties": {
        "title": "M4.9 57 km SW of Sarangani, Philippines",
        "summary": "Magnitude 4.9, depth 35km",
        "date": "2026-06-09",
        "severity": 2,
        "source": "usgs"
      }
    },
    {
      "type": "Feature",
      "geometry": {
        "type": "Point",
        "coordinates": [
          100.456,
          -0.7906
        ]
      },
      "properties": {
        "title": "M4.9 20 km NNE of Padang, Indonesia",
        "summary": "Magnitude 4.9, depth 93.13km",
        "date": "2026-06-09",
        "severity": 2,
        "source": "usgs"
      }
    },
    {
      "type": "Feature",
      "geometry": {
        "type": "Point",
        "coordinates": [
          125.1793,
          5.2138
        ]
      },
      "properties": {
        "title": "M5.0 37 km WSW of Sarangani, Philippines",
        "summary": "Magnitude 5.0, depth 44.502km",
        "date": "2026-06-09",
        "severity": 3,
        "source": "usgs"
      }
    },
    {
      "type": "Feature",
      "geometry": {
        "type": "Point",
        "coordinates": [
          125.1257,
          5.1926
        ]
      },
      "properties": {
        "title": "M5.0 44 km WSW of Sarangani, Philippines",
        "summary": "Magnitude 5.0, depth 35km",
        "date": "2026-06-09",
        "severity": 3,
        "source": "usgs"
      }
    },
    {
      "type": "Feature",
      "geometry": {
        "type": "Point",
        "coordinates": [
          125.0994,
          5.4985
        ]
      },
      "properties": {
        "title": "M5.0 29 km WSW of Balangonan, Philippines",
        "summary": "Magnitude 5.0, depth 53.484km",
        "date": "2026-06-09",
        "severity": 3,
        "source": "usgs"
      }
    },
    {
      "type": "Feature",
      "geometry": {
        "type": "Point",
        "coordinates": [
          125.1798,
          4.8963
        ]
      },
      "properties": {
        "title": "M5.1 64 km SSW of Sarangani, Philippines",
        "summary": "Magnitude 5.1, depth 76.712km",
        "date": "2026-06-09",
        "severity": 3,
        "source": "usgs"
      }
    },
    {
      "type": "Feature",
      "geometry": {
        "type": "Point",
        "coordinates": [
          125.3513,
          4.787
        ]
      },
      "properties": {
        "title": "M5.3 69 km S of Sarangani, Philippines",
        "summary": "Magnitude 5.3, depth 51.359km",
        "date": "2026-06-09",
        "severity": 3,
        "source": "usgs"
      }
    },
    {
      "type": "Feature",
      "geometry": {
        "type": "Point",
        "coordinates": [
          125.4434,
          4.8984
        ]
      },
      "properties": {
        "title": "M5.3 55 km S of Sarangani, Philippines",
        "summary": "Magnitude 5.3, depth 57.891km",
        "date": "2026-06-09",
        "severity": 3,
        "source": "usgs"
      }
    },
    {
      "type": "Feature",
      "geometry": {
        "type": "Point",
        "coordinates": [
          125.1601,
          5.3935
        ]
      },
      "properties": {
        "title": "M5.3 29 km SW of Balangonan, Philippines",
        "summary": "Magnitude 5.3, depth 69.126km",
        "date": "2026-06-09",
        "severity": 3,
        "source": "usgs"
      }
    },
    {
      "type": "Feature",
      "geometry": {
        "type": "Point",
        "coordinates": [
          125.4566,
          5.3774
        ]
      },
      "properties": {
        "title": "M5.5 2 km SSW of Sarangani, Philippines",
        "summary": "Magnitude 5.5, depth 51.144km",
        "date": "2026-06-09",
        "severity": 4,
        "source": "usgs"
      }
    },
    {
      "type": "Feature",
      "geometry": {
        "type": "Point",
        "coordinates": [
          125.215,
          4.9789
        ]
      },
      "properties": {
        "title": "M5.7 54 km SSW of Sarangani, Philippines",
        "summary": "Magnitude 5.7, depth 35km",
        "date": "2026-06-09",
        "severity": 5,
        "source": "usgs"
      }
    },
    {
      "type": "Feature",
      "geometry": {
        "type": "Point",
        "coordinates": [
          125.5344,
          5.3313
        ]
      },
      "properties": {
        "title": "M5.8 11 km SE of Sarangani, Philippines",
        "summary": "Magnitude 5.8, depth 52.541km",
        "date": "2026-06-09",
        "severity": 5,
        "source": "usgs"
      }
    },
    {
      "type": "Feature",
      "geometry": {
        "type": "Point",
        "coordinates": [
          125.2046,
          5.4724
        ]
      },
      "properties": {
        "title": "M6.5 19 km SW of Balangonan, Philippines",
        "summary": "Magnitude 6.5, depth 65.57km",
        "date": "2026-06-09",
        "severity": 7,
        "source": "usgs"
      }
    },
    {
      "type": "Feature",
      "geometry": {
        "type": "Point",
        "coordinates": [
          -87.6,
          12.450000000000001
        ]
      },
      "properties": {
        "title": "GDACS Tropical Cyclone: Honduras, El Salvador, Nicaragua",
        "summary": "[Green] Tropical Cyclone CRISTINA-26 \u2014 Tropical Cyclone \u00b7 Green alert \u00b7 Honduras, El Salvador, Nicaragua \u00b7 Tropical Storm (maximum wind speed of 74 km/h)",
        "date": "2026-06-09",
        "severity": 3,
        "source": "gdacs"
      }
    },
    {
      "type": "Feature",
      "geometry": {
        "type": "Point",
        "coordinates": [
          -84.173,
          22.785
        ]
      },
      "properties": {
        "title": "GDACS Earthquake: Cuba",
        "summary": "[Green] Earthquake in Cuba \u2014 Earthquake \u00b7 Green alert \u00b7 Cuba \u00b7 Magnitude 6.1M, Depth:26km",
        "date": "2026-06-09",
        "severity": 3,
        "source": "gdacs"
      }
    },
    {
      "type": "Feature",
      "geometry": {
        "type": "Point",
        "coordinates": [
          -2.778,
          -55.754
        ]
      },
      "properties": {
        "title": "GDACS Earthquake: Southern Mid-Atlantic Ridge",
        "summary": "[Green] Earthquake in Southern Mid-Atlantic Ridge \u2014 Earthquake \u00b7 Green alert \u00b7 Southern Mid-Atlantic Ridge \u00b7 Magnitude 5.5M, Depth:10km",
        "date": "2026-06-09",
        "severity": 3,
        "source": "gdacs"
      }
    },
    {
      "type": "Feature",
      "geometry": {
        "type": "Point",
        "coordinates": [
          126.214,
          4.919
        ]
      },
      "properties": {
        "title": "GDACS Earthquake: Philippines",
        "summary": "[Green] Earthquake in Philippines \u2014 Earthquake \u00b7 Green alert \u00b7 Philippines \u00b7 Magnitude 5.6M, Depth:35km",
        "date": "2026-06-09",
        "severity": 3,
        "source": "gdacs"
      }
    },
    {
      "type": "Feature",
      "geometry": {
        "type": "Point",
        "coordinates": [
          126.158,
          5.532
        ]
      },
      "properties": {
        "title": "GDACS Earthquake: Philippines",
        "summary": "[Green] Earthquake in Philippines \u2014 Earthquake \u00b7 Green alert \u00b7 Philippines \u00b7 Magnitude 5.5M, Depth:81.095km",
        "date": "2026-06-09",
        "severity": 3,
        "source": "gdacs"
      }
    },
    {
      "type": "Feature",
      "geometry": {
        "type": "Point",
        "coordinates": [
          126.11,
          5.472
        ]
      },
      "properties": {
        "title": "GDACS Earthquake: Philippines",
        "summary": "[Green] Earthquake in Philippines \u2014 Earthquake \u00b7 Green alert \u00b7 Philippines \u00b7 Magnitude 6.5M, Depth:65.57km",
        "date": "2026-06-09",
        "severity": 3,
        "source": "gdacs"
      }
    },
    {
      "type": "Feature",
      "geometry": {
        "type": "Point",
        "coordinates": [
          126.563,
          5.284
        ]
      },
      "properties": {
        "title": "GDACS Earthquake: Philippines",
        "summary": "[Green] Earthquake in Philippines \u2014 Earthquake \u00b7 Green alert \u00b7 Philippines \u00b7 Magnitude 5.8M, Depth:69.795km",
        "date": "2026-06-09",
        "severity": 3,
        "source": "gdacs"
      }
    },
    {
      "type": "Feature",
      "geometry": {
        "type": "Point",
        "coordinates": [
          126.119,
          4.979
        ]
      },
      "properties": {
        "title": "GDACS Earthquake: Philippines",
        "summary": "[Green] Earthquake in Philippines \u2014 Earthquake \u00b7 Green alert \u00b7 Philippines \u00b7 Magnitude 5.7M, Depth:35km",
        "date": "2026-06-09",
        "severity": 3,
        "source": "gdacs"
      }
    },
    {
      "type": "Feature",
      "geometry": {
        "type": "Point",
        "coordinates": [
          126.361,
          5.377
        ]
      },
      "properties": {
        "title": "GDACS Earthquake: Philippines",
        "summary": "[Green] Earthquake in Philippines \u2014 Earthquake \u00b7 Green alert \u00b7 Philippines \u00b7 Magnitude 5.5M, Depth:51.144km",
        "date": "2026-06-09",
        "severity": 3,
        "source": "gdacs"
      }
    },
    {
      "type": "Feature",
      "geometry": {
        "type": "Point",
        "coordinates": [
          -98.4,
          16.15
        ]
      },
      "properties": {
        "title": "GDACS Tropical Cyclone: Mexico",
        "summary": "[Green] Tropical Cyclone BORIS-26 \u2014 Tropical Cyclone \u00b7 Green alert \u00b7 Mexico \u00b7 Tropical Storm (maximum wind speed of 74 km/h)",
        "date": "2026-06-09",
        "severity": 3,
        "source": "gdacs"
      }
    },
    {
      "type": "Feature",
      "geometry": {
        "type": "Point",
        "coordinates": [
          158.779,
          49.899
        ]
      },
      "properties": {
        "title": "GDACS Earthquake: Russia",
        "summary": "[Green] Earthquake in Russia \u2014 Earthquake \u00b7 Green alert \u00b7 Russia \u00b7 Magnitude 6.1M, Depth:35km",
        "date": "2026-06-09",
        "severity": 3,
        "source": "gdacs"
      }
    },
    {
      "type": "Feature",
      "geometry": {
        "type": "Point",
        "coordinates": [
          126.164,
          5.649
        ]
      },
      "properties": {
        "title": "GDACS Earthquake: Philippines",
        "summary": "[Green] Earthquake in Philippines \u2014 Earthquake \u00b7 Green alert \u00b7 Philippines \u00b7 Magnitude 6M, Depth:42.911km",
        "date": "2026-06-09",
        "severity": 3,
        "source": "gdacs"
      }
    },
    {
      "type": "Feature",
      "geometry": {
        "type": "Point",
        "coordinates": [
          126.115,
          5.522
        ]
      },
      "properties": {
        "title": "GDACS Earthquake: Philippines",
        "summary": "[Green] Earthquake in Philippines \u2014 Earthquake \u00b7 Green alert \u00b7 Philippines \u00b7 Magnitude 6M, Depth:81.843km",
        "date": "2026-06-09",
        "severity": 3,
        "source": "gdacs"
      }
    },
    {
      "type": "Feature",
      "geometry": {
        "type": "Point",
        "coordinates": [
          -111.179,
          -29.185
        ]
      },
      "properties": {
        "title": "GDACS Earthquake: Easter Island Region",
        "summary": "[Green] Earthquake in Easter Island Region \u2014 Earthquake \u00b7 Green alert \u00b7 Easter Island Region \u00b7 Magnitude 5.8M, Depth:10km",
        "date": "2026-06-09",
        "severity": 3,
        "source": "gdacs"
      }
    },
    {
      "type": "Feature",
      "geometry": {
        "type": "Point",
        "coordinates": [
          90.74,
          27.624
        ]
      },
      "properties": {
        "title": "GDACS Earthquake: Bhutan",
        "summary": "[Green] Earthquake in Bhutan \u2014 Earthquake \u00b7 Green alert \u00b7 Bhutan \u00b7 Magnitude 5.6M, Depth:10km",
        "date": "2026-06-09",
        "severity": 3,
        "source": "gdacs"
      }
    },
    {
      "type": "Feature",
      "geometry": {
        "type": "Point",
        "coordinates": [
          159.063,
          49.898
        ]
      },
      "properties": {
        "title": "GDACS Earthquake: Russia",
        "summary": "[Green] Earthquake in Russia \u2014 Earthquake \u00b7 Green alert \u00b7 Russia \u00b7 Magnitude 5.5M, Depth:10km",
        "date": "2026-06-09",
        "severity": 3,
        "source": "gdacs"
      }
    },
    {
      "type": "Feature",
      "geometry": {
        "type": "Point",
        "coordinates": [
          125.952,
          5.592
        ]
      },
      "properties": {
        "title": "GDACS Earthquake: Philippines",
        "summary": "[Orange] Earthquake in Philippines \u2014 Earthquake \u00b7 Orange alert \u00b7 Philippines \u00b7 Magnitude 7.8M, Depth:55.193km",
        "date": "2026-06-09",
        "severity": 5,
        "source": "gdacs"
      }
    }
  ]
}