{
  "type": "FeatureCollection",
  "features": [
    {
      "type": "Feature",
      "geometry": {
        "type": "Point",
        "coordinates": [
          125.5,
          8.0
        ]
      },
      "properties": {
        "title": "M7.8 Philippines",
        "summary": "Major earthquake, 32+ dead, GDACS Orange, tsunami triggered",
        "date": "2026-06-07",
        "severity": 9,
        "source": "usgs"
      }
    },
    {
      "type": "Feature",
      "geometry": {
        "type": "Point",
        "coordinates": [
          125.3,
          7.9
        ]
      },
      "properties": {
        "title": "M6.5 Philippines aftershock",
        "summary": "Strong aftershock near Balangonan",
        "date": "2026-06-08",
        "severity": 6,
        "source": "usgs"
      }
    },
    {
      "type": "Feature",
      "geometry": {
        "type": "Point",
        "coordinates": [
          37.78,
          44.775
        ]
      },
      "properties": {
        "title": "FIRMS: Novorossiysk oil terminal fire",
        "summary": "Ukraine drone strike on Grushevaya/Sheskharis terminal, fire confirmed",
        "date": "2026-06-08",
        "severity": 8,
        "source": "firms"
      }
    },
    {
      "type": "Feature",
      "geometry": {
        "type": "Point",
        "coordinates": [
          33.44,
          47.87
        ]
      },
      "properties": {
        "title": "FIRMS: Volgograd pipeline junction",
        "summary": "SSO drone strike on Russian oil pipeline junction, 500km from border",
        "date": "2026-06-08",
        "severity": 7,
        "source": "firms"
      }
    },
    {
      "type": "Feature",
      "geometry": {
        "type": "Point",
        "coordinates": [
          33.437,
          47.874
        ]
      },
      "properties": {
        "title": "FIRMS: Frontline cluster Kherson-Dnipropetrovsk",
        "summary": "Multiple FIRMS thermal anomalies near frontline",
        "date": "2026-06-07",
        "severity": 6,
        "source": "firms"
      }
    },
    {
      "type": "Feature",
      "geometry": {
        "type": "Point",
        "coordinates": [
          34.27,
          51.84
        ]
      },
      "properties": {
        "title": "FIRMS: Sumy oblast cluster",
        "summary": "Thermal anomalies Sumy region",
        "date": "2026-06-07",
        "severity": 5,
        "source": "firms"
      }
    },
    {
      "type": "Feature",
      "geometry": {
        "type": "Point",
        "coordinates": [
          35.51,
          33.82
        ]
      },
      "properties": {
        "title": "IDF strike: Hezbollah Dahiya command center",
        "summary": "IDF struck Hezbollah command center in Beirut's southern suburb",
        "date": "2026-06-07",
        "severity": 8,
        "source": "acled"
      }
    },
    {
      "type": "Feature",
      "geometry": {
        "type": "Point",
        "coordinates": [
          35.5,
          33.1
        ]
      },
      "properties": {
        "title": "Iran missile barrage at northern Israel",
        "summary": "IRGC fired missiles at northern Israel after Beirut strike",
        "date": "2026-06-07",
        "severity": 8,
        "source": "acled"
      }
    },
    {
      "type": "Feature",
      "geometry": {
        "type": "Point",
        "coordinates": [
          51.389,
          35.6892
        ]
      },
      "properties": {
        "title": "Israeli strikes on Iranian facilities",
        "summary": "IDF retaliatory strikes on Iranian military positions",
        "date": "2026-06-08",
        "severity": 9,
        "source": "acled"
      }
    },
    {
      "type": "Feature",
      "geometry": {
        "type": "Point",
        "coordinates": [
          28.5,
          47.0
        ]
      },
      "properties": {
        "title": "Drone airspace violation: Moldova",
        "summary": "Drone likely of Ukrainian origin exploded in Moldovan airspace; NATO Latvia shootdown same day",
        "date": "2026-06-08",
        "severity": 5,
        "source": "acled"
      }
    },
    {
      "type": "Feature",
      "geometry": {
        "type": "Point",
        "coordinates": [
          27.5,
          56.9
        ]
      },
      "properties": {
        "title": "NATO intercept: drone over Latvia",
        "summary": "First-ever NATO fighter jet shootdown of drone over Latvian territory, Latgale region",
        "date": "2026-06-08",
        "severity": 6,
        "source": "acled"
      }
    },
    {
      "type": "Feature",
      "geometry": {
        "type": "Point",
        "coordinates": [
          13.7,
          11.0
        ]
      },
      "properties": {
        "title": "Nigeria: Hundreds freed from Boko Haram",
        "summary": "Women and children rescued from Boko Haram hideout near Cameroon border",
        "date": "2026-06-07",
        "severity": 7,
        "source": "acled"
      }
    }
  ]
}