{
  "type": "FeatureCollection",
  "features": [
    {
      "type": "Feature",
      "geometry": {
        "type": "Point",
        "coordinates": [
          2.5678028972208944,
          42.672432960798744
        ]
      },
      "properties": {
        "title": "Orange forest fire notification in France",
        "summary": "GDACS Orange alert",
        "date": "2026-07-07",
        "severity": 5,
        "source": "gdacs"
      }
    },
    {
      "type": "Feature",
      "geometry": {
        "type": "Point",
        "coordinates": [
          30.45,
          50.35
        ]
      },
      "properties": {
        "title": "Russian missile strikes Kyiv area - 28 killed",
        "summary": "Russian strikes on Kyiv metropolitan area killed 28, exposing air-defense shortages. Vyshneve area. Jul 7 2026.",
        "date": "2026-07-07",
        "severity": 9,
        "source": "acled"
      }
    },
    {
      "type": "Feature",
      "geometry": {
        "type": "Point",
        "coordinates": [
          36.23,
          49.99
        ]
      },
      "properties": {
        "title": "Russian KAB strike Kharkiv - 1 killed",
        "summary": "Russia attacked Kharkiv with guided glide bombs, killing 1 and injuring 6. Jul 7 2026.",
        "date": "2026-07-07",
        "severity": 6,
        "source": "acled"
      }
    },
    {
      "type": "Feature",
      "geometry": {
        "type": "Point",
        "coordinates": [
          36.29,
          33.51
        ]
      },
      "properties": {
        "title": "Damascus bomb explosions near Macron hotel",
        "summary": "Two bomb explosions near French President Macron's Damascus hotel during landmark Syria visit. 18 wounded. Jul 7 2026.",
        "date": "2026-07-07",
        "severity": 7,
        "source": "acled"
      }
    },
    {
      "type": "Feature",
      "geometry": {
        "type": "Point",
        "coordinates": [
          76.09,
          11.7
        ]
      },
      "properties": {
        "title": "Wayanad debris slip - 8 feared dead",
        "summary": "Debris slip at Wayanad tunnel construction site in Kerala, India. 8 feared dead, rescue operations underway.",
        "date": "2026-07-07",
        "severity": 6,
        "source": "gdacs"
      }
    },
    {
      "type": "Feature",
      "geometry": {
        "type": "Point",
        "coordinates": [
          73.37,
          54.97
        ]
      },
      "properties": {
        "title": "Ukrainian drone strike Omsk refinery",
        "summary": "Ukrainian drone strike hit Omsk refinery 2,500 km from Ukrainian border. Jul 6-7 2026.",
        "date": "2026-07-07",
        "severity": 7,
        "source": "firms"
      }
    },
    {
      "type": "Feature",
      "geometry": {
        "type": "Point",
        "coordinates": [
          30.5,
          50.2
        ]
      },
      "properties": {
        "title": "Monaco bombing suspect found shot dead",
        "summary": "Body of Anastasia Berezovska (39), Ukrainian woman suspected of Monaco parcel bombing, found shot dead near Kyiv.",
        "date": "2026-07-07",
        "severity": 5,
        "source": "acled"
      }
    }
  ]
}