{"type": "FeatureCollection", "features": [{"type": "Feature", "geometry": {"type": "Point", "coordinates": [99.015, 3.0856]}, "properties": {"title": "M6.9 earthquake: 15 km NNW of Pematangsiantar, Indonesia", "summary": "M6.9 at depth 172.5km. Alert: green", "date": "2026-08-16", "severity": 10, "source": "usgs"}}, {"type": "Feature", "geometry": {"type": "Point", "coordinates": [121.3517, -8.3101]}, "properties": {"title": "Red earthquake (Magnitude 7.7M, Depth:10km) in Indonesia 14/08/2026 21:58 UTC, 1.2 million (in MMI>=VII).", "summary": "Red GDACS alert", "date": "2026-08-16", "severity": 8, "source": "gdacs"}}, {"type": "Feature", "geometry": {"type": "Point", "coordinates": [113.9999999, 34.0000001]}, "properties": {"title": "Orange flood alert in China", "summary": "Orange GDACS alert", "date": "2026-08-16", "severity": 6, "source": "gdacs"}}, {"type": "Feature", "geometry": {"type": "Point", "coordinates": [33.25, 1.187]}, "properties": {"title": "Drought is on going in Democratic Republic of Congo, Kenya, Tanzania, Uganda", "summary": "Orange GDACS alert", "date": "2026-08-16", "severity": 6, "source": "gdacs"}}, {"type": "Feature", "geometry": {"type": "Point", "coordinates": [44.618, 6.545]}, "properties": {"title": "Drought is on going in Ethiopia, Kenya, Somalia", "summary": "Orange GDACS alert", "date": "2026-08-16", "severity": 6, "source": "gdacs"}}, {"type": "Feature", "geometry": {"type": "Point", "coordinates": [12.151, 47.602]}, "properties": {"title": "Drought is on going in Albania, Austria, Bosnia & Herzegovina, Belgium, Bulgaria, Belarus, Switzerland, Czech Republic, Germany, Denmark, Spain, France, Croatia, Hungary, Italy, Liechtenstein, Luxembourg, Monaco, Montenegro, The Republic of North Macedonia, Poland, Romania, Serbia, Sweden, Slovenia, Slovakia, San Marino, Ukraine, , ", "summary": "Orange GDACS alert", "date": "2026-08-16", "severity": 6, "source": "gdacs"}}, {"type": "Feature", "geometry": {"type": "Point", "coordinates": [47.606, -17.932]}, "properties": {"title": "Drought is on going in Madagascar", "summary": "Orange GDACS alert", "date": "2026-08-16", "severity": 6, "source": "gdacs"}}, {"type": "Feature", "geometry": {"type": "Point", "coordinates": [34.42444, 46.29576]}, "properties": {"title": "FIRMS thermal anomaly FRP=24.62MW", "summary": "VIIRS S-NPP NRT, sat N, acquired 2026-08-15 1000Z, FRP 24.62 MW", "date": "2026-08-15", "severity": 2, "source": "firms"}}, {"type": "Feature", "geometry": {"type": "Point", "coordinates": [34.42214, 46.30013]}, "properties": {"title": "FIRMS thermal anomaly FRP=24.62MW", "summary": "VIIRS S-NPP NRT, sat N, acquired 2026-08-15 1000Z, FRP 24.62 MW", "date": "2026-08-15", "severity": 2, "source": "firms"}}, {"type": "Feature", "geometry": {"type": "Point", "coordinates": [34.9035, 46.41183]}, "properties": {"title": "FIRMS thermal anomaly FRP=23.38MW", "summary": "VIIRS S-NPP NRT, sat N, acquired 2026-08-15 1000Z, FRP 23.38 MW", "date": "2026-08-15", "severity": 2, "source": "firms"}}, {"type": "Feature", "geometry": {"type": "Point", "coordinates": [34.4279, 46.30072]}, "properties": {"title": "FIRMS thermal anomaly FRP=53.1MW", "summary": "VIIRS S-NPP NRT, sat N, acquired 2026-08-15 1000Z, FRP 53.1 MW", "date": "2026-08-15", "severity": 5, "source": "firms"}}, {"type": "Feature", "geometry": {"type": "Point", "coordinates": [34.4127, 46.30177]}, "properties": {"title": "FIRMS thermal anomaly FRP=30.67MW", "summary": "VIIRS S-NPP NRT, sat N, acquired 2026-08-15 1000Z, FRP 30.67 MW", "date": "2026-08-15", "severity": 3, "source": "firms"}}, {"type": "Feature", "geometry": {"type": "Point", "coordinates": [34.40619, 46.3001]}, "properties": {"title": "FIRMS thermal anomaly FRP=30.67MW", "summary": "VIIRS S-NPP NRT, sat N, acquired 2026-08-15 1000Z, FRP 30.67 MW", "date": "2026-08-15", "severity": 3, "source": "firms"}}, {"type": "Feature", "geometry": {"type": "Point", "coordinates": [34.41685, 46.3078]}, "properties": {"title": "FIRMS thermal anomaly FRP=21.12MW", "summary": "VIIRS S-NPP NRT, sat N, acquired 2026-08-15 1000Z, FRP 21.12 MW", "date": "2026-08-15", "severity": 2, "source": "firms"}}, {"type": "Feature", "geometry": {"type": "Point", "coordinates": [33.49188, 46.35581]}, "properties": {"title": "FIRMS thermal anomaly FRP=29.13MW", "summary": "VIIRS S-NPP NRT, sat N, acquired 2026-08-15 1000Z, FRP 29.13 MW", "date": "2026-08-15", "severity": 2, "source": "firms"}}, {"type": "Feature", "geometry": {"type": "Point", "coordinates": [33.48483, 46.35396]}, "properties": {"title": "FIRMS thermal anomaly FRP=29.13MW", "summary": "VIIRS S-NPP NRT, sat N, acquired 2026-08-15 1000Z, FRP 29.13 MW", "date": "2026-08-15", "severity": 2, "source": "firms"}}, {"type": "Feature", "geometry": {"type": "Point", "coordinates": [33.48943, 46.36034]}, "properties": {"title": "FIRMS thermal anomaly FRP=29.13MW", "summary": "VIIRS S-NPP NRT, sat N, acquired 2026-08-15 1000Z, FRP 29.13 MW", "date": "2026-08-15", "severity": 2, "source": "firms"}}, {"type": "Feature", "geometry": {"type": "Point", "coordinates": [33.48237, 46.35849]}, "properties": {"title": "FIRMS thermal anomaly FRP=29.13MW", "summary": "VIIRS S-NPP NRT, sat N, acquired 2026-08-15 1000Z, FRP 29.13 MW", "date": "2026-08-15", "severity": 2, "source": "firms"}}, {"type": "Feature", "geometry": {"type": "Point", "coordinates": [32.48132, 46.25307]}, "properties": {"title": "FIRMS thermal anomaly FRP=55.99MW", "summary": "VIIRS S-NPP NRT, sat N, acquired 2026-08-15 1000Z, FRP 55.99 MW", "date": "2026-08-15", "severity": 5, "source": "firms"}}, {"type": "Feature", "geometry": {"type": "Point", "coordinates": [32.85802, 46.41512]}, "properties": {"title": "FIRMS thermal anomaly FRP=27.02MW", "summary": "VIIRS S-NPP NRT, sat N, acquired 2026-08-15 1000Z, FRP 27.02 MW", "date": "2026-08-15", "severity": 2, "source": "firms"}}, {"type": "Feature", "geometry": {"type": "Point", "coordinates": [32.85056, 46.41311]}, "properties": {"title": "FIRMS thermal anomaly FRP=27.02MW", "summary": "VIIRS S-NPP NRT, sat N, acquired 2026-08-15 1000Z, FRP 27.02 MW", "date": "2026-08-15", "severity": 2, "source": "firms"}}, {"type": "Feature", "geometry": {"type": "Point", "coordinates": [33.19207, 46.64959]}, "properties": {"title": "FIRMS thermal anomaly FRP=21.72MW", "summary": "VIIRS S-NPP NRT, sat N, acquired 2026-08-15 1000Z, FRP 21.72 MW", "date": "2026-08-15", "severity": 2, "source": "firms"}}, {"type": "Feature", "geometry": {"type": "Point", "coordinates": [33.18491, 46.64772]}, "properties": {"title": "FIRMS thermal anomaly FRP=21.72MW", "summary": "VIIRS S-NPP NRT, sat N, acquired 2026-08-15 1000Z, FRP 21.72 MW", "date": "2026-08-15", "severity": 2, "source": "firms"}}, {"type": "Feature", "geometry": {"type": "Point", "coordinates": [33.18501, 46.64658]}, "properties": {"title": "FIRMS thermal anomaly FRP=52.48MW", "summary": "VIIRS S-NPP NRT, sat N, acquired 2026-08-15 1000Z, FRP 52.48 MW", "date": "2026-08-15", "severity": 5, "source": "firms"}}, {"type": "Feature", "geometry": {"type": "Point", "coordinates": [34.48166, 47.10878]}, "properties": {"title": "FIRMS thermal anomaly FRP=27.92MW", "summary": "VIIRS S-NPP NRT, sat N, acquired 2026-08-15 1000Z, FRP 27.92 MW", "date": "2026-08-15", "severity": 2, "source": "firms"}}, {"type": "Feature", "geometry": {"type": "Point", "coordinates": [34.4794, 47.11304]}, "properties": {"title": "FIRMS thermal anomaly FRP=27.92MW", "summary": "VIIRS S-NPP NRT, sat N, acquired 2026-08-15 1000Z, FRP 27.92 MW", "date": "2026-08-15", "severity": 2, "source": "firms"}}, {"type": "Feature", "geometry": {"type": "Point", "coordinates": [34.54614, 47.27179]}, "properties": {"title": "FIRMS thermal anomaly FRP=29.65MW", "summary": "VIIRS S-NPP NRT, sat N, acquired 2026-08-15 1000Z, FRP 29.65 MW", "date": "2026-08-15", "severity": 2, "source": "firms"}}, {"type": "Feature", "geometry": {"type": "Point", "coordinates": [34.25225, 47.38455]}, "properties": {"title": "FIRMS thermal anomaly FRP=22.9MW", "summary": "VIIRS S-NPP NRT, sat N, acquired 2026-08-15 1000Z, FRP 22.9 MW", "date": "2026-08-15", "severity": 2, "source": "firms"}}, {"type": "Feature", "geometry": {"type": "Point", "coordinates": [34.24597, 47.38298]}, "properties": {"title": "FIRMS thermal anomaly FRP=22.9MW", "summary": "VIIRS S-NPP NRT, sat N, acquired 2026-08-15 1000Z, FRP 22.9 MW", "date": "2026-08-15", "severity": 2, "source": "firms"}}, {"type": "Feature", "geometry": {"type": "Point", "coordinates": [34.24993, 47.38881]}, "properties": {"title": "FIRMS thermal anomaly FRP=22.9MW", "summary": "VIIRS S-NPP NRT, sat N, acquired 2026-08-15 1000Z, FRP 22.9 MW", "date": "2026-08-15", "severity": 2, "source": "firms"}}, {"type": "Feature", "geometry": {"type": "Point", "coordinates": [34.25145, 47.38593]}, "properties": {"title": "FIRMS thermal anomaly FRP=53.54MW", "summary": "VIIRS S-NPP NRT, sat N, acquired 2026-08-15 1002Z, FRP 53.54 MW", "date": "2026-08-15", "severity": 5, "source": "firms"}}, {"type": "Feature", "geometry": {"type": "Point", "coordinates": [32.69089, 47.31426]}, "properties": {"title": "FIRMS thermal anomaly FRP=22.58MW", "summary": "VIIRS S-NPP NRT, sat N, acquired 2026-08-15 1002Z, FRP 22.58 MW", "date": "2026-08-15", "severity": 2, "source": "firms"}}, {"type": "Feature", "geometry": {"type": "Point", "coordinates": [32.68826, 47.31881]}, "properties": {"title": "FIRMS thermal anomaly FRP=22.58MW", "summary": "VIIRS S-NPP NRT, sat N, acquired 2026-08-15 1002Z, FRP 22.58 MW", "date": "2026-08-15", "severity": 2, "source": "firms"}}, {"type": "Feature", "geometry": {"type": "Point", "coordinates": [32.68828, 47.31788]}, "properties": {"title": "FIRMS thermal anomaly FRP=36.46MW", "summary": "VIIRS S-NPP NRT, sat N, acquired 2026-08-15 1002Z, FRP 36.46 MW", "date": "2026-08-15", "severity": 3, "source": "firms"}}, {"type": "Feature", "geometry": {"type": "Point", "coordinates": [27.57005, 44.53154]}, "properties": {"title": "FIRMS thermal anomaly FRP=65.28MW", "summary": "VIIRS S-NPP NRT, sat N, acquired 2026-08-15 1140Z, FRP 65.28 MW", "date": "2026-08-15", "severity": 6, "source": "firms"}}, {"type": "Feature", "geometry": {"type": "Point", "coordinates": [22.27998, 44.09812]}, "properties": {"title": "FIRMS thermal anomaly FRP=24.16MW", "summary": "VIIRS S-NPP NRT, sat N, acquired 2026-08-15 1140Z, FRP 24.16 MW", "date": "2026-08-15", "severity": 2, "source": "firms"}}, {"type": "Feature", "geometry": {"type": "Point", "coordinates": [22.27914, 44.10149]}, "properties": {"title": "FIRMS thermal anomaly FRP=24.16MW", "summary": "VIIRS S-NPP NRT, sat N, acquired 2026-08-15 1140Z, FRP 24.16 MW", "date": "2026-08-15", "severity": 2, "source": "firms"}}, {"type": "Feature", "geometry": {"type": "Point", "coordinates": [33.48515, 46.32779]}, "properties": {"title": "FIRMS thermal anomaly FRP=27.81MW", "summary": "VIIRS S-NPP NRT, sat N, acquired 2026-08-15 1142Z, FRP 27.81 MW", "date": "2026-08-15", "severity": 2, "source": "firms"}}, {"type": "Feature", "geometry": {"type": "Point", "coordinates": [33.48481, 46.33346]}, "properties": {"title": "FIRMS thermal anomaly FRP=27.81MW", "summary": "VIIRS S-NPP NRT, sat N, acquired 2026-08-15 1142Z, FRP 27.81 MW", "date": "2026-08-15", "severity": 2, "source": "firms"}}, {"type": "Feature", "geometry": {"type": "Point", "coordinates": [33.48138, 46.32943]}, "properties": {"title": "FIRMS thermal anomaly FRP=40.94MW", "summary": "VIIRS S-NPP NRT, sat N, acquired 2026-08-15 1142Z, FRP 40.94 MW", "date": "2026-08-15", "severity": 4, "source": "firms"}}, {"type": "Feature", "geometry": {"type": "Point", "coordinates": [33.47587, 46.32926]}, "properties": {"title": "FIRMS thermal anomaly FRP=40.94MW", "summary": "VIIRS S-NPP NRT, sat N, acquired 2026-08-15 1142Z, FRP 40.94 MW", "date": "2026-08-15", "severity": 4, "source": "firms"}}, {"type": "Feature", "geometry": {"type": "Point", "coordinates": [32.59353, 46.39809]}, "properties": {"title": "FIRMS thermal anomaly FRP=22.06MW", "summary": "VIIRS S-NPP NRT, sat N, acquired 2026-08-15 1142Z, FRP 22.06 MW", "date": "2026-08-15", "severity": 2, "source": "firms"}}, {"type": "Feature", "geometry": {"type": "Point", "coordinates": [32.59308, 46.40353]}, "properties": {"title": "FIRMS thermal anomaly FRP=22.06MW", "summary": "VIIRS S-NPP NRT, sat N, acquired 2026-08-15 1142Z, FRP 22.06 MW", "date": "2026-08-15", "severity": 2, "source": "firms"}}, {"type": "Feature", "geometry": {"type": "Point", "coordinates": [32.49986, 46.82305]}, "properties": {"title": "FIRMS thermal anomaly FRP=25.06MW", "summary": "VIIRS S-NPP NRT, sat N, acquired 2026-08-15 1142Z, FRP 25.06 MW", "date": "2026-08-15", "severity": 2, "source": "firms"}}, {"type": "Feature", "geometry": {"type": "Point", "coordinates": [32.497, 46.81882]}, "properties": {"title": "FIRMS thermal anomaly FRP=20.05MW", "summary": "VIIRS S-NPP NRT, sat N, acquired 2026-08-15 1142Z, FRP 20.05 MW", "date": "2026-08-15", "severity": 2, "source": "firms"}}, {"type": "Feature", "geometry": {"type": "Point", "coordinates": [33.54821, 47.07598]}, "properties": {"title": "FIRMS thermal anomaly FRP=21.29MW", "summary": "VIIRS S-NPP NRT, sat N, acquired 2026-08-15 1142Z, FRP 21.29 MW", "date": "2026-08-15", "severity": 2, "source": "firms"}}, {"type": "Feature", "geometry": {"type": "Point", "coordinates": [33.54258, 47.0758]}, "properties": {"title": "FIRMS thermal anomaly FRP=21.29MW", "summary": "VIIRS S-NPP NRT, sat N, acquired 2026-08-15 1142Z, FRP 21.29 MW", "date": "2026-08-15", "severity": 2, "source": "firms"}}, {"type": "Feature", "geometry": {"type": "Point", "coordinates": [33.54606, 47.07733]}, "properties": {"title": "FIRMS thermal anomaly FRP=46.24MW", "summary": "VIIRS S-NPP NRT, sat N, acquired 2026-08-15 1142Z, FRP 46.24 MW", "date": "2026-08-15", "severity": 4, "source": "firms"}}, {"type": "Feature", "geometry": {"type": "Point", "coordinates": [32.78042, 47.07608]}, "properties": {"title": "FIRMS thermal anomaly FRP=21.46MW", "summary": "VIIRS S-NPP NRT, sat N, acquired 2026-08-15 1142Z, FRP 21.46 MW", "date": "2026-08-15", "severity": 2, "source": "firms"}}, {"type": "Feature", "geometry": {"type": "Point", "coordinates": [32.77523, 47.07589]}, "properties": {"title": "FIRMS thermal anomaly FRP=21.46MW", "summary": "VIIRS S-NPP NRT, sat N, acquired 2026-08-15 1142Z, FRP 21.46 MW", "date": "2026-08-15", "severity": 2, "source": "firms"}}, {"type": "Feature", "geometry": {"type": "Point", "coordinates": [27.94533, 48.27877]}, "properties": {"title": "FIRMS thermal anomaly FRP=24.71MW", "summary": "VIIRS S-NPP NRT, sat N, acquired 2026-08-15 1142Z, FRP 24.71 MW", "date": "2026-08-15", "severity": 2, "source": "firms"}}, {"type": "Feature", "geometry": {"type": "Point", "coordinates": [27.10312, 50.61689]}, "properties": {"title": "FIRMS thermal anomaly FRP=23.83MW", "summary": "VIIRS S-NPP NRT, sat N, acquired 2026-08-15 1142Z, FRP 23.83 MW", "date": "2026-08-15", "severity": 2, "source": "firms"}}]}