{"type": "FeatureCollection", "features": [{"type": "Feature", "geometry": {"type": "Point", "coordinates": [-73.5236, -14.6414]}, "properties": {"title": "M6.7 - 31 km NW of Aniso, Peru", "summary": "Depth 99 km", "date": "2026-08-20", "severity": 8, "source": "usgs"}}, {"type": "Feature", "geometry": {"type": "Point", "coordinates": [30.83134, 50.52201]}, "properties": {"title": "FIRMS 6.9MW", "summary": "VIIRS S-NPP NRT, sat N, acquired 2026-08-20 0020Z, FRP 6.9 MW", "date": "2026-08-20", "severity": 3, "source": "firms"}}, {"type": "Feature", "geometry": {"type": "Point", "coordinates": [31.67044, 45.25726]}, "properties": {"title": "FIRMS 7.44MW", "summary": "VIIRS S-NPP NRT, sat N, acquired 2026-08-20 0022Z, FRP 7.44 MW", "date": "2026-08-20", "severity": 3, "source": "firms"}}, {"type": "Feature", "geometry": {"type": "Point", "coordinates": [22.85686, 44.23017]}, "properties": {"title": "FIRMS 5.6MW", "summary": "VIIRS S-NPP NRT, sat N, acquired 2026-08-20 0022Z, FRP 5.6 MW", "date": "2026-08-20", "severity": 2, "source": "firms"}}, {"type": "Feature", "geometry": {"type": "Point", "coordinates": [22.85115, 44.23085]}, "properties": {"title": "FIRMS 5.6MW", "summary": "VIIRS S-NPP NRT, sat N, acquired 2026-08-20 0022Z, FRP 5.6 MW", "date": "2026-08-20", "severity": 2, "source": "firms"}}, {"type": "Feature", "geometry": {"type": "Point", "coordinates": [22.856, 44.22659]}, "properties": {"title": "FIRMS 5.6MW", "summary": "VIIRS S-NPP NRT, sat N, acquired 2026-08-20 0022Z, FRP 5.6 MW", "date": "2026-08-20", "severity": 2, "source": "firms"}}, {"type": "Feature", "geometry": {"type": "Point", "coordinates": [25.3231, 44.05339]}, "properties": {"title": "FIRMS 11.42MW", "summary": "VIIRS S-NPP NRT, sat N, acquired 2026-08-20 1147Z, FRP 11.42 MW", "date": "2026-08-20", "severity": 5, "source": "firms"}}, {"type": "Feature", "geometry": {"type": "Point", "coordinates": [25.32241, 44.05738]}, "properties": {"title": "FIRMS 17.29MW", "summary": "VIIRS S-NPP NRT, sat N, acquired 2026-08-20 1147Z, FRP 17.29 MW", "date": "2026-08-20", "severity": 8, "source": "firms"}}, {"type": "Feature", "geometry": {"type": "Point", "coordinates": [23.54882, 44.06544]}, "properties": {"title": "FIRMS 13.41MW", "summary": "VIIRS S-NPP NRT, sat N, acquired 2026-08-20 1149Z, FRP 13.41 MW", "date": "2026-08-20", "severity": 6, "source": "firms"}}, {"type": "Feature", "geometry": {"type": "Point", "coordinates": [23.54802, 44.06913]}, "properties": {"title": "FIRMS 9.92MW", "summary": "VIIRS S-NPP NRT, sat N, acquired 2026-08-20 1149Z, FRP 9.92 MW", "date": "2026-08-20", "severity": 4, "source": "firms"}}, {"type": "Feature", "geometry": {"type": "Point", "coordinates": [22.1126, 44.00264]}, "properties": {"title": "FIRMS 5.36MW", "summary": "VIIRS S-NPP NRT, sat N, acquired 2026-08-20 1149Z, FRP 5.36 MW", "date": "2026-08-20", "severity": 2, "source": "firms"}}, {"type": "Feature", "geometry": {"type": "Point", "coordinates": [22.10712, 44.00196]}, "properties": {"title": "FIRMS 5.36MW", "summary": "VIIRS S-NPP NRT, sat N, acquired 2026-08-20 1149Z, FRP 5.36 MW", "date": "2026-08-20", "severity": 2, "source": "firms"}}, {"type": "Feature", "geometry": {"type": "Point", "coordinates": [22.85927, 44.22313]}, "properties": {"title": "FIRMS 11.5MW", "summary": "VIIRS S-NPP NRT, sat N, acquired 2026-08-20 1149Z, FRP 11.5 MW", "date": "2026-08-20", "severity": 5, "source": "firms"}}, {"type": "Feature", "geometry": {"type": "Point", "coordinates": [23.08353, 44.29716]}, "properties": {"title": "FIRMS 5.75MW", "summary": "VIIRS S-NPP NRT, sat N, acquired 2026-08-20 1149Z, FRP 5.75 MW", "date": "2026-08-20", "severity": 2, "source": "firms"}}, {"type": "Feature", "geometry": {"type": "Point", "coordinates": [23.07695, 44.30013]}, "properties": {"title": "FIRMS 17.83MW", "summary": "VIIRS S-NPP NRT, sat N, acquired 2026-08-20 1149Z, FRP 17.83 MW", "date": "2026-08-20", "severity": 8, "source": "firms"}}, {"type": "Feature", "geometry": {"type": "Point", "coordinates": [23.07622, 44.30377]}, "properties": {"title": "FIRMS 17.83MW", "summary": "VIIRS S-NPP NRT, sat N, acquired 2026-08-20 1149Z, FRP 17.83 MW", "date": "2026-08-20", "severity": 8, "source": "firms"}}, {"type": "Feature", "geometry": {"type": "Point", "coordinates": [23.07452, 44.31101]}, "properties": {"title": "FIRMS 14.79MW", "summary": "VIIRS S-NPP NRT, sat N, acquired 2026-08-20 1149Z, FRP 14.79 MW", "date": "2026-08-20", "severity": 7, "source": "firms"}}, {"type": "Feature", "geometry": {"type": "Point", "coordinates": [23.17663, 44.36749]}, "properties": {"title": "FIRMS 7.93MW", "summary": "VIIRS S-NPP NRT, sat N, acquired 2026-08-20 1149Z, FRP 7.93 MW", "date": "2026-08-20", "severity": 3, "source": "firms"}}, {"type": "Feature", "geometry": {"type": "Point", "coordinates": [28.82403, 45.23827]}, "properties": {"title": "FIRMS 7.83MW", "summary": "VIIRS S-NPP NRT, sat N, acquired 2026-08-20 1149Z, FRP 7.83 MW", "date": "2026-08-20", "severity": 3, "source": "firms"}}, {"type": "Feature", "geometry": {"type": "Point", "coordinates": [28.4531, 45.39689]}, "properties": {"title": "FIRMS 11.72MW", "summary": "VIIRS S-NPP NRT, sat N, acquired 2026-08-20 1149Z, FRP 11.72 MW", "date": "2026-08-20", "severity": 5, "source": "firms"}}, {"type": "Feature", "geometry": {"type": "Point", "coordinates": [22.85604, 44.9192]}, "properties": {"title": "FIRMS 6.14MW", "summary": "VIIRS S-NPP NRT, sat N, acquired 2026-08-20 1149Z, FRP 6.14 MW", "date": "2026-08-20", "severity": 3, "source": "firms"}}, {"type": "Feature", "geometry": {"type": "Point", "coordinates": [29.61769, 45.49442]}, "properties": {"title": "FIRMS 6.24MW", "summary": "VIIRS S-NPP NRT, sat N, acquired 2026-08-20 1149Z, FRP 6.24 MW", "date": "2026-08-20", "severity": 3, "source": "firms"}}, {"type": "Feature", "geometry": {"type": "Point", "coordinates": [29.07099, 45.46359]}, "properties": {"title": "FIRMS 20.98MW", "summary": "VIIRS S-NPP NRT, sat N, acquired 2026-08-20 1149Z, FRP 20.98 MW", "date": "2026-08-20", "severity": 10, "source": "firms"}}, {"type": "Feature", "geometry": {"type": "Point", "coordinates": [29.0704, 45.46849]}, "properties": {"title": "FIRMS 20.98MW", "summary": "VIIRS S-NPP NRT, sat N, acquired 2026-08-20 1149Z, FRP 20.98 MW", "date": "2026-08-20", "severity": 10, "source": "firms"}}, {"type": "Feature", "geometry": {"type": "Point", "coordinates": [28.53153, 45.45942]}, "properties": {"title": "FIRMS 13.67MW", "summary": "VIIRS S-NPP NRT, sat N, acquired 2026-08-20 1149Z, FRP 13.67 MW", "date": "2026-08-20", "severity": 6, "source": "firms"}}, {"type": "Feature", "geometry": {"type": "Point", "coordinates": [28.52305, 45.46848]}, "properties": {"title": "FIRMS 7.26MW", "summary": "VIIRS S-NPP NRT, sat N, acquired 2026-08-20 1149Z, FRP 7.26 MW", "date": "2026-08-20", "severity": 3, "source": "firms"}}, {"type": "Feature", "geometry": {"type": "Point", "coordinates": [22.75396, 45.25221]}, "properties": {"title": "FIRMS 14.22MW", "summary": "VIIRS S-NPP NRT, sat N, acquired 2026-08-20 1149Z, FRP 14.22 MW", "date": "2026-08-20", "severity": 7, "source": "firms"}}, {"type": "Feature", "geometry": {"type": "Point", "coordinates": [32.47296, 46.13919]}, "properties": {"title": "FIRMS 19.6MW", "summary": "VIIRS S-NPP NRT, sat N, acquired 2026-08-20 1149Z, FRP 19.6 MW", "date": "2026-08-20", "severity": 9, "source": "firms"}}, {"type": "Feature", "geometry": {"type": "Point", "coordinates": [32.46716, 46.13903]}, "properties": {"title": "FIRMS 18.55MW", "summary": "VIIRS S-NPP NRT, sat N, acquired 2026-08-20 1149Z, FRP 18.55 MW", "date": "2026-08-20", "severity": 9, "source": "firms"}}, {"type": "Feature", "geometry": {"type": "Point", "coordinates": [32.46687, 46.14484]}, "properties": {"title": "FIRMS 12.15MW", "summary": "VIIRS S-NPP NRT, sat N, acquired 2026-08-20 1149Z, FRP 12.15 MW", "date": "2026-08-20", "severity": 6, "source": "firms"}}, {"type": "Feature", "geometry": {"type": "Point", "coordinates": [32.46108, 46.14468]}, "properties": {"title": "FIRMS 12.15MW", "summary": "VIIRS S-NPP NRT, sat N, acquired 2026-08-20 1149Z, FRP 12.15 MW", "date": "2026-08-20", "severity": 6, "source": "firms"}}, {"type": "Feature", "geometry": {"type": "Point", "coordinates": [32.43648, 46.17304]}, "properties": {"title": "FIRMS 8.95MW", "summary": "VIIRS S-NPP NRT, sat N, acquired 2026-08-20 1149Z, FRP 8.95 MW", "date": "2026-08-20", "severity": 4, "source": "firms"}}, {"type": "Feature", "geometry": {"type": "Point", "coordinates": [29.93965, 46.08273]}, "properties": {"title": "FIRMS 106.06MW", "summary": "VIIRS S-NPP NRT, sat N, acquired 2026-08-20 1149Z, FRP 106.06 MW", "date": "2026-08-20", "severity": 10, "source": "firms"}}, {"type": "Feature", "geometry": {"type": "Point", "coordinates": [29.93912, 46.08787]}, "properties": {"title": "FIRMS 29.64MW", "summary": "VIIRS S-NPP NRT, sat N, acquired 2026-08-20 1149Z, FRP 29.64 MW", "date": "2026-08-20", "severity": 10, "source": "firms"}}, {"type": "Feature", "geometry": {"type": "Point", "coordinates": [29.93483, 46.08764]}, "properties": {"title": "FIRMS 30.15MW", "summary": "VIIRS S-NPP NRT, sat N, acquired 2026-08-20 1149Z, FRP 30.15 MW", "date": "2026-08-20", "severity": 10, "source": "firms"}}, {"type": "Feature", "geometry": {"type": "Point", "coordinates": [34.46022, 46.31156]}, "properties": {"title": "FIRMS 5.77MW", "summary": "VIIRS S-NPP NRT, sat N, acquired 2026-08-20 1149Z, FRP 5.77 MW", "date": "2026-08-20", "severity": 2, "source": "firms"}}, {"type": "Feature", "geometry": {"type": "Point", "coordinates": [34.46014, 46.31792]}, "properties": {"title": "FIRMS 5.77MW", "summary": "VIIRS S-NPP NRT, sat N, acquired 2026-08-20 1149Z, FRP 5.77 MW", "date": "2026-08-20", "severity": 2, "source": "firms"}}, {"type": "Feature", "geometry": {"type": "Point", "coordinates": [34.45283, 46.31784]}, "properties": {"title": "FIRMS 8.18MW", "summary": "VIIRS S-NPP NRT, sat N, acquired 2026-08-20 1149Z, FRP 8.18 MW", "date": "2026-08-20", "severity": 4, "source": "firms"}}, {"type": "Feature", "geometry": {"type": "Point", "coordinates": [34.46008, 46.32429]}, "properties": {"title": "FIRMS 23.0MW", "summary": "VIIRS S-NPP NRT, sat N, acquired 2026-08-20 1149Z, FRP 23 MW", "date": "2026-08-20", "severity": 10, "source": "firms"}}, {"type": "Feature", "geometry": {"type": "Point", "coordinates": [34.45278, 46.3242]}, "properties": {"title": "FIRMS 18.31MW", "summary": "VIIRS S-NPP NRT, sat N, acquired 2026-08-20 1149Z, FRP 18.31 MW", "date": "2026-08-20", "severity": 9, "source": "firms"}}, {"type": "Feature", "geometry": {"type": "Point", "coordinates": [34.45989, 46.31956]}, "properties": {"title": "FIRMS 20.26MW", "summary": "VIIRS S-NPP NRT, sat N, acquired 2026-08-20 1149Z, FRP 20.26 MW", "date": "2026-08-20", "severity": 10, "source": "firms"}}, {"type": "Feature", "geometry": {"type": "Point", "coordinates": [34.45258, 46.31952]}, "properties": {"title": "FIRMS 20.26MW", "summary": "VIIRS S-NPP NRT, sat N, acquired 2026-08-20 1149Z, FRP 20.26 MW", "date": "2026-08-20", "severity": 10, "source": "firms"}}, {"type": "Feature", "geometry": {"type": "Point", "coordinates": [30.15241, 46.27166]}, "properties": {"title": "FIRMS 6.58MW", "summary": "VIIRS S-NPP NRT, sat N, acquired 2026-08-20 1149Z, FRP 6.58 MW", "date": "2026-08-20", "severity": 3, "source": "firms"}}, {"type": "Feature", "geometry": {"type": "Point", "coordinates": [32.8142, 46.50074]}, "properties": {"title": "FIRMS 45.5MW", "summary": "VIIRS S-NPP NRT, sat N, acquired 2026-08-20 1149Z, FRP 45.5 MW", "date": "2026-08-20", "severity": 10, "source": "firms"}}, {"type": "Feature", "geometry": {"type": "Point", "coordinates": [32.82028, 46.50089]}, "properties": {"title": "FIRMS 45.5MW", "summary": "VIIRS S-NPP NRT, sat N, acquired 2026-08-20 1149Z, FRP 45.5 MW", "date": "2026-08-20", "severity": 10, "source": "firms"}}, {"type": "Feature", "geometry": {"type": "Point", "coordinates": [32.82004, 46.50681]}, "properties": {"title": "FIRMS 45.5MW", "summary": "VIIRS S-NPP NRT, sat N, acquired 2026-08-20 1149Z, FRP 45.5 MW", "date": "2026-08-20", "severity": 10, "source": "firms"}}, {"type": "Feature", "geometry": {"type": "Point", "coordinates": [32.80785, 46.5065]}, "properties": {"title": "FIRMS 23.49MW", "summary": "VIIRS S-NPP NRT, sat N, acquired 2026-08-20 1149Z, FRP 23.49 MW", "date": "2026-08-20", "severity": 10, "source": "firms"}}, {"type": "Feature", "geometry": {"type": "Point", "coordinates": [33.45201, 46.52737]}, "properties": {"title": "FIRMS 24.76MW", "summary": "VIIRS S-NPP NRT, sat N, acquired 2026-08-20 1149Z, FRP 24.76 MW", "date": "2026-08-20", "severity": 10, "source": "firms"}}, {"type": "Feature", "geometry": {"type": "Point", "coordinates": [32.8137, 46.51257]}, "properties": {"title": "FIRMS 11.6MW", "summary": "VIIRS S-NPP NRT, sat N, acquired 2026-08-20 1149Z, FRP 11.6 MW", "date": "2026-08-20", "severity": 5, "source": "firms"}}, {"type": "Feature", "geometry": {"type": "Point", "coordinates": [33.44545, 46.52724]}, "properties": {"title": "FIRMS 24.76MW", "summary": "VIIRS S-NPP NRT, sat N, acquired 2026-08-20 1149Z, FRP 24.76 MW", "date": "2026-08-20", "severity": 10, "source": "firms"}}, {"type": "Feature", "geometry": {"type": "Point", "coordinates": [32.81979, 46.51273]}, "properties": {"title": "FIRMS 11.6MW", "summary": "VIIRS S-NPP NRT, sat N, acquired 2026-08-20 1149Z, FRP 11.6 MW", "date": "2026-08-20", "severity": 5, "source": "firms"}}, {"type": "Feature", "geometry": {"type": "Point", "coordinates": [32.80761, 46.51241]}, "properties": {"title": "FIRMS 8.73MW", "summary": "VIIRS S-NPP NRT, sat N, acquired 2026-08-20 1149Z, FRP 8.73 MW", "date": "2026-08-20", "severity": 4, "source": "firms"}}, {"type": "Feature", "geometry": {"type": "Point", "coordinates": [32.7644, 46.52901]}, "properties": {"title": "FIRMS 6.17MW", "summary": "VIIRS S-NPP NRT, sat N, acquired 2026-08-20 1149Z, FRP 6.17 MW", "date": "2026-08-20", "severity": 3, "source": "firms"}}, {"type": "Feature", "geometry": {"type": "Point", "coordinates": [32.77048, 46.52917]}, "properties": {"title": "FIRMS 6.17MW", "summary": "VIIRS S-NPP NRT, sat N, acquired 2026-08-20 1149Z, FRP 6.17 MW", "date": "2026-08-20", "severity": 3, "source": "firms"}}, {"type": "Feature", "geometry": {"type": "Point", "coordinates": [32.81257, 46.49825]}, "properties": {"title": "FIRMS 24.69MW", "summary": "VIIRS S-NPP NRT, sat N, acquired 2026-08-20 1149Z, FRP 24.69 MW", "date": "2026-08-20", "severity": 10, "source": "firms"}}, {"type": "Feature", "geometry": {"type": "Point", "coordinates": [32.81841, 46.5043]}, "properties": {"title": "FIRMS 59.26MW", "summary": "VIIRS S-NPP NRT, sat N, acquired 2026-08-20 1149Z, FRP 59.26 MW", "date": "2026-08-20", "severity": 10, "source": "firms"}}, {"type": "Feature", "geometry": {"type": "Point", "coordinates": [32.81228, 46.50417]}, "properties": {"title": "FIRMS 24.69MW", "summary": "VIIRS S-NPP NRT, sat N, acquired 2026-08-20 1149Z, FRP 24.69 MW", "date": "2026-08-20", "severity": 10, "source": "firms"}}, {"type": "Feature", "geometry": {"type": "Point", "coordinates": [32.81814, 46.51022]}, "properties": {"title": "FIRMS 44.86MW", "summary": "VIIRS S-NPP NRT, sat N, acquired 2026-08-20 1149Z, FRP 44.86 MW", "date": "2026-08-20", "severity": 10, "source": "firms"}}, {"type": "Feature", "geometry": {"type": "Point", "coordinates": [32.81202, 46.51009]}, "properties": {"title": "FIRMS 20.96MW", "summary": "VIIRS S-NPP NRT, sat N, acquired 2026-08-20 1149Z, FRP 20.96 MW", "date": "2026-08-20", "severity": 10, "source": "firms"}}, {"type": "Feature", "geometry": {"type": "Point", "coordinates": [32.80593, 46.50996]}, "properties": {"title": "FIRMS 20.96MW", "summary": "VIIRS S-NPP NRT, sat N, acquired 2026-08-20 1149Z, FRP 20.96 MW", "date": "2026-08-20", "severity": 10, "source": "firms"}}, {"type": "Feature", "geometry": {"type": "Point", "coordinates": [33.45068, 46.52769]}, "properties": {"title": "FIRMS 52.43MW", "summary": "VIIRS S-NPP NRT, sat N, acquired 2026-08-20 1149Z, FRP 52.43 MW", "date": "2026-08-20", "severity": 10, "source": "firms"}}, {"type": "Feature", "geometry": {"type": "Point", "coordinates": [32.76865, 46.52691]}, "properties": {"title": "FIRMS 10.03MW", "summary": "VIIRS S-NPP NRT, sat N, acquired 2026-08-20 1149Z, FRP 10.03 MW", "date": "2026-08-20", "severity": 5, "source": "firms"}}, {"type": "Feature", "geometry": {"type": "Point", "coordinates": [32.76258, 46.52677]}, "properties": {"title": "FIRMS 7.23MW", "summary": "VIIRS S-NPP NRT, sat N, acquired 2026-08-20 1149Z, FRP 7.23 MW", "date": "2026-08-20", "severity": 3, "source": "firms"}}, {"type": "Feature", "geometry": {"type": "Point", "coordinates": [33.27874, 46.63377]}, "properties": {"title": "FIRMS 13.92MW", "summary": "VIIRS S-NPP NRT, sat N, acquired 2026-08-20 1149Z, FRP 13.92 MW", "date": "2026-08-20", "severity": 6, "source": "firms"}}, {"type": "Feature", "geometry": {"type": "Point", "coordinates": [33.27231, 46.63364]}, "properties": {"title": "FIRMS 10.82MW", "summary": "VIIRS S-NPP NRT, sat N, acquired 2026-08-20 1149Z, FRP 10.82 MW", "date": "2026-08-20", "severity": 5, "source": "firms"}}, {"type": "Feature", "geometry": {"type": "Point", "coordinates": [33.28141, 46.63451]}, "properties": {"title": "FIRMS 8.02MW", "summary": "VIIRS S-NPP NRT, sat N, acquired 2026-08-20 1149Z, FRP 8.02 MW", "date": "2026-08-20", "severity": 4, "source": "firms"}}, {"type": "Feature", "geometry": {"type": "Point", "coordinates": [33.27497, 46.6344]}, "properties": {"title": "FIRMS 11.0MW", "summary": "VIIRS S-NPP NRT, sat N, acquired 2026-08-20 1149Z, FRP 11 MW", "date": "2026-08-20", "severity": 5, "source": "firms"}}, {"type": "Feature", "geometry": {"type": "Point", "coordinates": [33.45592, 46.66782]}, "properties": {"title": "FIRMS 9.16MW", "summary": "VIIRS S-NPP NRT, sat N, acquired 2026-08-20 1149Z, FRP 9.16 MW", "date": "2026-08-20", "severity": 4, "source": "firms"}}, {"type": "Feature", "geometry": {"type": "Point", "coordinates": [32.28781, 46.68861]}, "properties": {"title": "FIRMS 11.57MW", "summary": "VIIRS S-NPP NRT, sat N, acquired 2026-08-20 1149Z, FRP 11.57 MW", "date": "2026-08-20", "severity": 5, "source": "firms"}}, {"type": "Feature", "geometry": {"type": "Point", "coordinates": [30.56866, 47.0658]}, "properties": {"title": "FIRMS 7.29MW", "summary": "VIIRS S-NPP NRT, sat N, acquired 2026-08-20 1147Z, FRP 7.29 MW", "date": "2026-08-20", "severity": 3, "source": "firms"}}, {"type": "Feature", "geometry": {"type": "Point", "coordinates": [30.57087, 47.06339]}, "properties": {"title": "FIRMS 7.1MW", "summary": "VIIRS S-NPP NRT, sat N, acquired 2026-08-20 1147Z, FRP 7.1 MW", "date": "2026-08-20", "severity": 3, "source": "firms"}}, {"type": "Feature", "geometry": {"type": "Point", "coordinates": [30.55058, 47.07333]}, "properties": {"title": "FIRMS 7.38MW", "summary": "VIIRS S-NPP NRT, sat N, acquired 2026-08-20 1147Z, FRP 7.38 MW", "date": "2026-08-20", "severity": 3, "source": "firms"}}, {"type": "Feature", "geometry": {"type": "Point", "coordinates": [23.81405, 46.74762]}, "properties": {"title": "FIRMS 7.76MW", "summary": "VIIRS S-NPP NRT, sat N, acquired 2026-08-20 1147Z, FRP 7.76 MW", "date": "2026-08-20", "severity": 3, "source": "firms"}}, {"type": "Feature", "geometry": {"type": "Point", "coordinates": [23.80729, 46.74694]}, "properties": {"title": "FIRMS 6.18MW", "summary": "VIIRS S-NPP NRT, sat N, acquired 2026-08-20 1147Z, FRP 6.18 MW", "date": "2026-08-20", "severity": 3, "source": "firms"}}, {"type": "Feature", "geometry": {"type": "Point", "coordinates": [23.8132, 46.75147]}, "properties": {"title": "FIRMS 6.3MW", "summary": "VIIRS S-NPP NRT, sat N, acquired 2026-08-20 1147Z, FRP 6.3 MW", "date": "2026-08-20", "severity": 3, "source": "firms"}}, {"type": "Feature", "geometry": {"type": "Point", "coordinates": [31.80963, 47.35219]}, "properties": {"title": "FIRMS 5.48MW", "summary": "VIIRS S-NPP NRT, sat N, acquired 2026-08-20 1147Z, FRP 5.48 MW", "date": "2026-08-20", "severity": 2, "source": "firms"}}, {"type": "Feature", "geometry": {"type": "Point", "coordinates": [32.62856, 47.51166]}, "properties": {"title": "FIRMS 7.85MW", "summary": "VIIRS S-NPP NRT, sat N, acquired 2026-08-20 1147Z, FRP 7.85 MW", "date": "2026-08-20", "severity": 3, "source": "firms"}}, {"type": "Feature", "geometry": {"type": "Point", "coordinates": [30.17383, 47.62868]}, "properties": {"title": "FIRMS 5.51MW", "summary": "VIIRS S-NPP NRT, sat N, acquired 2026-08-20 1147Z, FRP 5.51 MW", "date": "2026-08-20", "severity": 2, "source": "firms"}}, {"type": "Feature", "geometry": {"type": "Point", "coordinates": [33.19704, 47.84643]}, "properties": {"title": "FIRMS 13.33MW", "summary": "VIIRS S-NPP NRT, sat N, acquired 2026-08-20 1147Z, FRP 13.33 MW", "date": "2026-08-20", "severity": 6, "source": "firms"}}, {"type": "Feature", "geometry": {"type": "Point", "coordinates": [33.6627, 47.98145]}, "properties": {"title": "FIRMS 61.55MW", "summary": "VIIRS S-NPP NRT, sat N, acquired 2026-08-20 1147Z, FRP 61.55 MW", "date": "2026-08-20", "severity": 10, "source": "firms"}}, {"type": "Feature", "geometry": {"type": "Point", "coordinates": [33.65564, 47.98135]}, "properties": {"title": "FIRMS 74.75MW", "summary": "VIIRS S-NPP NRT, sat N, acquired 2026-08-20 1147Z, FRP 74.75 MW", "date": "2026-08-20", "severity": 10, "source": "firms"}}, {"type": "Feature", "geometry": {"type": "Point", "coordinates": [33.66277, 47.98764]}, "properties": {"title": "FIRMS 61.55MW", "summary": "VIIRS S-NPP NRT, sat N, acquired 2026-08-20 1147Z, FRP 61.55 MW", "date": "2026-08-20", "severity": 10, "source": "firms"}}, {"type": "Feature", "geometry": {"type": "Point", "coordinates": [29.74603, 47.87099]}, "properties": {"title": "FIRMS 9.15MW", "summary": "VIIRS S-NPP NRT, sat N, acquired 2026-08-20 1147Z, FRP 9.15 MW", "date": "2026-08-20", "severity": 4, "source": "firms"}}, {"type": "Feature", "geometry": {"type": "Point", "coordinates": [29.74156, 47.87078]}, "properties": {"title": "FIRMS 5.45MW", "summary": "VIIRS S-NPP NRT, sat N, acquired 2026-08-20 1147Z, FRP 5.45 MW", "date": "2026-08-20", "severity": 2, "source": "firms"}}, {"type": "Feature", "geometry": {"type": "Point", "coordinates": [33.74017, 48.00114]}, "properties": {"title": "FIRMS 6.64MW", "summary": "VIIRS S-NPP NRT, sat N, acquired 2026-08-20 1147Z, FRP 6.64 MW", "date": "2026-08-20", "severity": 3, "source": "firms"}}, {"type": "Feature", "geometry": {"type": "Point", "coordinates": [29.74723, 47.87208]}, "properties": {"title": "FIRMS 7.41MW", "summary": "VIIRS S-NPP NRT, sat N, acquired 2026-08-20 1147Z, FRP 7.41 MW", "date": "2026-08-20", "severity": 3, "source": "firms"}}, {"type": "Feature", "geometry": {"type": "Point", "coordinates": [29.74274, 47.87189]}, "properties": {"title": "FIRMS 6.97MW", "summary": "VIIRS S-NPP NRT, sat N, acquired 2026-08-20 1147Z, FRP 6.97 MW", "date": "2026-08-20", "severity": 3, "source": "firms"}}, {"type": "Feature", "geometry": {"type": "Point", "coordinates": [33.66205, 47.98609]}, "properties": {"title": "FIRMS 72.72MW", "summary": "VIIRS S-NPP NRT, sat N, acquired 2026-08-20 1147Z, FRP 72.72 MW", "date": "2026-08-20", "severity": 10, "source": "firms"}}, {"type": "Feature", "geometry": {"type": "Point", "coordinates": [33.73958, 47.99921]}, "properties": {"title": "FIRMS 5.66MW", "summary": "VIIRS S-NPP NRT, sat N, acquired 2026-08-20 1147Z, FRP 5.66 MW", "date": "2026-08-20", "severity": 2, "source": "firms"}}, {"type": "Feature", "geometry": {"type": "Point", "coordinates": [25.12302, 49.2182]}, "properties": {"title": "FIRMS 10.78MW", "summary": "VIIRS S-NPP NRT, sat N, acquired 2026-08-20 1147Z, FRP 10.78 MW", "date": "2026-08-20", "severity": 5, "source": "firms"}}, {"type": "Feature", "geometry": {"type": "Point", "coordinates": [25.11705, 49.21772]}, "properties": {"title": "FIRMS 10.78MW", "summary": "VIIRS S-NPP NRT, sat N, acquired 2026-08-20 1147Z, FRP 10.78 MW", "date": "2026-08-20", "severity": 5, "source": "firms"}}, {"type": "Feature", "geometry": {"type": "Point", "coordinates": [25.12219, 49.2224]}, "properties": {"title": "FIRMS 10.13MW", "summary": "VIIRS S-NPP NRT, sat N, acquired 2026-08-20 1147Z, FRP 10.13 MW", "date": "2026-08-20", "severity": 5, "source": "firms"}}, {"type": "Feature", "geometry": {"type": "Point", "coordinates": [25.11627, 49.22192]}, "properties": {"title": "FIRMS 10.13MW", "summary": "VIIRS S-NPP NRT, sat N, acquired 2026-08-20 1147Z, FRP 10.13 MW", "date": "2026-08-20", "severity": 5, "source": "firms"}}, {"type": "Feature", "geometry": {"type": "Point", "coordinates": [31.54297, 49.5701]}, "properties": {"title": "FIRMS 7.39MW", "summary": "VIIRS S-NPP NRT, sat N, acquired 2026-08-20 1147Z, FRP 7.39 MW", "date": "2026-08-20", "severity": 3, "source": "firms"}}, {"type": "Feature", "geometry": {"type": "Point", "coordinates": [33.96427, 49.84547]}, "properties": {"title": "FIRMS 7.04MW", "summary": "VIIRS S-NPP NRT, sat N, acquired 2026-08-20 1147Z, FRP 7.04 MW", "date": "2026-08-20", "severity": 3, "source": "firms"}}, {"type": "Feature", "geometry": {"type": "Point", "coordinates": [33.95676, 49.84543]}, "properties": {"title": "FIRMS 7.04MW", "summary": "VIIRS S-NPP NRT, sat N, acquired 2026-08-20 1147Z, FRP 7.04 MW", "date": "2026-08-20", "severity": 3, "source": "firms"}}, {"type": "Feature", "geometry": {"type": "Point", "coordinates": [33.96374, 49.84172]}, "properties": {"title": "FIRMS 8.25MW", "summary": "VIIRS S-NPP NRT, sat N, acquired 2026-08-20 1147Z, FRP 8.25 MW", "date": "2026-08-20", "severity": 4, "source": "firms"}}, {"type": "Feature", "geometry": {"type": "Point", "coordinates": [33.95615, 49.84172]}, "properties": {"title": "FIRMS 8.08MW", "summary": "VIIRS S-NPP NRT, sat N, acquired 2026-08-20 1147Z, FRP 8.08 MW", "date": "2026-08-20", "severity": 4, "source": "firms"}}, {"type": "Feature", "geometry": {"type": "Point", "coordinates": [31.36361, 50.20675]}, "properties": {"title": "FIRMS 22.84MW", "summary": "VIIRS S-NPP NRT, sat N, acquired 2026-08-20 1147Z, FRP 22.84 MW", "date": "2026-08-20", "severity": 10, "source": "firms"}}, {"type": "Feature", "geometry": {"type": "Point", "coordinates": [31.35772, 50.2066]}, "properties": {"title": "FIRMS 22.84MW", "summary": "VIIRS S-NPP NRT, sat N, acquired 2026-08-20 1147Z, FRP 22.84 MW", "date": "2026-08-20", "severity": 10, "source": "firms"}}, {"type": "Feature", "geometry": {"type": "Point", "coordinates": [31.36335, 50.21242]}, "properties": {"title": "FIRMS 22.84MW", "summary": "VIIRS S-NPP NRT, sat N, acquired 2026-08-20 1147Z, FRP 22.84 MW", "date": "2026-08-20", "severity": 10, "source": "firms"}}, {"type": "Feature", "geometry": {"type": "Point", "coordinates": [31.35746, 50.21226]}, "properties": {"title": "FIRMS 22.84MW", "summary": "VIIRS S-NPP NRT, sat N, acquired 2026-08-20 1147Z, FRP 22.84 MW", "date": "2026-08-20", "severity": 10, "source": "firms"}}, {"type": "Feature", "geometry": {"type": "Point", "coordinates": [31.35157, 50.2121]}, "properties": {"title": "FIRMS 13.42MW", "summary": "VIIRS S-NPP NRT, sat N, acquired 2026-08-20 1147Z, FRP 13.42 MW", "date": "2026-08-20", "severity": 6, "source": "firms"}}, {"type": "Feature", "geometry": {"type": "Point", "coordinates": [31.35715, 50.21792]}, "properties": {"title": "FIRMS 9.7MW", "summary": "VIIRS S-NPP NRT, sat N, acquired 2026-08-20 1147Z, FRP 9.7 MW", "date": "2026-08-20", "severity": 4, "source": "firms"}}, {"type": "Feature", "geometry": {"type": "Point", "coordinates": [31.35127, 50.21776]}, "properties": {"title": "FIRMS 8.28MW", "summary": "VIIRS S-NPP NRT, sat N, acquired 2026-08-20 1147Z, FRP 8.28 MW", "date": "2026-08-20", "severity": 4, "source": "firms"}}, {"type": "Feature", "geometry": {"type": "Point", "coordinates": [31.36172, 50.20898]}, "properties": {"title": "FIRMS 29.77MW", "summary": "VIIRS S-NPP NRT, sat N, acquired 2026-08-20 1147Z, FRP 29.77 MW", "date": "2026-08-20", "severity": 10, "source": "firms"}}, {"type": "Feature", "geometry": {"type": "Point", "coordinates": [31.3676, 50.20911]}, "properties": {"title": "FIRMS 29.77MW", "summary": "VIIRS S-NPP NRT, sat N, acquired 2026-08-20 1147Z, FRP 29.77 MW", "date": "2026-08-20", "severity": 10, "source": "firms"}}, {"type": "Feature", "geometry": {"type": "Point", "coordinates": [31.35583, 50.20885]}, "properties": {"title": "FIRMS 22.89MW", "summary": "VIIRS S-NPP NRT, sat N, acquired 2026-08-20 1147Z, FRP 22.89 MW", "date": "2026-08-20", "severity": 10, "source": "firms"}}, {"type": "Feature", "geometry": {"type": "Point", "coordinates": [31.35552, 50.21451]}, "properties": {"title": "FIRMS 22.89MW", "summary": "VIIRS S-NPP NRT, sat N, acquired 2026-08-20 1147Z, FRP 22.89 MW", "date": "2026-08-20", "severity": 10, "source": "firms"}}, {"type": "Feature", "geometry": {"type": "Point", "coordinates": [31.36143, 50.21464]}, "properties": {"title": "FIRMS 29.77MW", "summary": "VIIRS S-NPP NRT, sat N, acquired 2026-08-20 1147Z, FRP 29.77 MW", "date": "2026-08-20", "severity": 10, "source": "firms"}}, {"type": "Feature", "geometry": {"type": "Point", "coordinates": [31.1941, 50.59592]}, "properties": {"title": "FIRMS 5.34MW", "summary": "VIIRS S-NPP NRT, sat N, acquired 2026-08-20 1147Z, FRP 5.34 MW", "date": "2026-08-20", "severity": 2, "source": "firms"}}, {"type": "Feature", "geometry": {"type": "Point", "coordinates": [31.18823, 50.59577]}, "properties": {"title": "FIRMS 5.34MW", "summary": "VIIRS S-NPP NRT, sat N, acquired 2026-08-20 1147Z, FRP 5.34 MW", "date": "2026-08-20", "severity": 2, "source": "firms"}}, {"type": "Feature", "geometry": {"type": "Point", "coordinates": [31.19964, 50.6017]}, "properties": {"title": "FIRMS 8.09MW", "summary": "VIIRS S-NPP NRT, sat N, acquired 2026-08-20 1147Z, FRP 8.09 MW", "date": "2026-08-20", "severity": 4, "source": "firms"}}, {"type": "Feature", "geometry": {"type": "Point", "coordinates": [31.19381, 50.60155]}, "properties": {"title": "FIRMS 5.34MW", "summary": "VIIRS S-NPP NRT, sat N, acquired 2026-08-20 1147Z, FRP 5.34 MW", "date": "2026-08-20", "severity": 2, "source": "firms"}}, {"type": "Feature", "geometry": {"type": "Point", "coordinates": [31.18794, 50.6014]}, "properties": {"title": "FIRMS 5.34MW", "summary": "VIIRS S-NPP NRT, sat N, acquired 2026-08-20 1147Z, FRP 5.34 MW", "date": "2026-08-20", "severity": 2, "source": "firms"}}, {"type": "Feature", "geometry": {"type": "Point", "coordinates": [31.19934, 50.60733]}, "properties": {"title": "FIRMS 45.76MW", "summary": "VIIRS S-NPP NRT, sat N, acquired 2026-08-20 1147Z, FRP 45.76 MW", "date": "2026-08-20", "severity": 10, "source": "firms"}}, {"type": "Feature", "geometry": {"type": "Point", "coordinates": [31.19352, 50.60719]}, "properties": {"title": "FIRMS 18.45MW", "summary": "VIIRS S-NPP NRT, sat N, acquired 2026-08-20 1147Z, FRP 18.45 MW", "date": "2026-08-20", "severity": 9, "source": "firms"}}, {"type": "Feature", "geometry": {"type": "Point", "coordinates": [31.18765, 50.60703]}, "properties": {"title": "FIRMS 18.45MW", "summary": "VIIRS S-NPP NRT, sat N, acquired 2026-08-20 1147Z, FRP 18.45 MW", "date": "2026-08-20", "severity": 9, "source": "firms"}}, {"type": "Feature", "geometry": {"type": "Point", "coordinates": [29.1545, 51.19593]}, "properties": {"title": "FIRMS 75.52MW", "summary": "VIIRS S-NPP NRT, sat N, acquired 2026-08-20 1149Z, FRP 75.52 MW", "date": "2026-08-20", "severity": 10, "source": "firms"}}, {"type": "Feature", "geometry": {"type": "Point", "coordinates": [29.14017, 51.19531]}, "properties": {"title": "FIRMS 49.4MW", "summary": "VIIRS S-NPP NRT, sat N, acquired 2026-08-20 1149Z, FRP 49.4 MW", "date": "2026-08-20", "severity": 10, "source": "firms"}}, {"type": "Feature", "geometry": {"type": "Point", "coordinates": [29.14458, 51.20069]}, "properties": {"title": "FIRMS 49.4MW", "summary": "VIIRS S-NPP NRT, sat N, acquired 2026-08-20 1149Z, FRP 49.4 MW", "date": "2026-08-20", "severity": 10, "source": "firms"}}, {"type": "Feature", "geometry": {"type": "Point", "coordinates": [29.15413, 51.2011]}, "properties": {"title": "FIRMS 75.52MW", "summary": "VIIRS S-NPP NRT, sat N, acquired 2026-08-20 1149Z, FRP 75.52 MW", "date": "2026-08-20", "severity": 10, "source": "firms"}}, {"type": "Feature", "geometry": {"type": "Point", "coordinates": [29.14936, 51.2009]}, "properties": {"title": "FIRMS 75.52MW", "summary": "VIIRS S-NPP NRT, sat N, acquired 2026-08-20 1149Z, FRP 75.52 MW", "date": "2026-08-20", "severity": 10, "source": "firms"}}, {"type": "Feature", "geometry": {"type": "Point", "coordinates": [29.15115, 51.19687]}, "properties": {"title": "FIRMS 61.62MW", "summary": "VIIRS S-NPP NRT, sat N, acquired 2026-08-20 1149Z, FRP 61.62 MW", "date": "2026-08-20", "severity": 10, "source": "firms"}}, {"type": "Feature", "geometry": {"type": "Point", "coordinates": [29.15595, 51.19705]}, "properties": {"title": "FIRMS 61.62MW", "summary": "VIIRS S-NPP NRT, sat N, acquired 2026-08-20 1149Z, FRP 61.62 MW", "date": "2026-08-20", "severity": 10, "source": "firms"}}, {"type": "Feature", "geometry": {"type": "Point", "coordinates": [29.15078, 51.20204]}, "properties": {"title": "FIRMS 61.62MW", "summary": "VIIRS S-NPP NRT, sat N, acquired 2026-08-20 1149Z, FRP 61.62 MW", "date": "2026-08-20", "severity": 10, "source": "firms"}}, {"type": "Feature", "geometry": {"type": "Point", "coordinates": [34.91278, 51.47419]}, "properties": {"title": "FIRMS 64.38MW", "summary": "VIIRS S-NPP NRT, sat N, acquired 2026-08-20 1149Z, FRP 64.38 MW", "date": "2026-08-20", "severity": 10, "source": "firms"}}, {"type": "Feature", "geometry": {"type": "Point", "coordinates": [34.91813, 51.4719]}, "properties": {"title": "FIRMS 79.06MW", "summary": "VIIRS S-NPP NRT, sat N, acquired 2026-08-20 1149Z, FRP 79.06 MW", "date": "2026-08-20", "severity": 10, "source": "firms"}}, {"type": "Feature", "geometry": {"type": "Point", "coordinates": [34.90944, 51.472]}, "properties": {"title": "FIRMS 45.44MW", "summary": "VIIRS S-NPP NRT, sat N, acquired 2026-08-20 1149Z, FRP 45.44 MW", "date": "2026-08-20", "severity": 10, "source": "firms"}}, {"type": "Feature", "geometry": {"type": "Point", "coordinates": [34.21712, 51.49764]}, "properties": {"title": "FIRMS 5.45MW", "summary": "VIIRS S-NPP NRT, sat N, acquired 2026-08-20 1149Z, FRP 5.45 MW", "date": "2026-08-20", "severity": 2, "source": "firms"}}, {"type": "Feature", "geometry": {"type": "Point", "coordinates": [29.15594, 51.20144]}, "properties": {"title": "FIRMS 6.49MW", "summary": "VIIRS S-NPP NRT, sat N, acquired 2026-08-21 0001Z, FRP 6.49 MW", "date": "2026-08-21", "severity": 3, "source": "firms"}}, {"type": "Feature", "geometry": {"type": "Point", "coordinates": [29.15494, 51.19777]}, "properties": {"title": "FIRMS 6.49MW", "summary": "VIIRS S-NPP NRT, sat N, acquired 2026-08-21 0001Z, FRP 6.49 MW", "date": "2026-08-21", "severity": 3, "source": "firms"}}, {"type": "Feature", "geometry": {"type": "Point", "coordinates": [28.84126, 47.37054]}, "properties": {"title": "FIRMS 10.89MW", "summary": "VIIRS S-NPP NRT, sat N, acquired 2026-08-21 0001Z, FRP 10.89 MW", "date": "2026-08-21", "severity": 5, "source": "firms"}}, {"type": "Feature", "geometry": {"type": "Point", "coordinates": [28.8403, 47.36699]}, "properties": {"title": "FIRMS 10.89MW", "summary": "VIIRS S-NPP NRT, sat N, acquired 2026-08-21 0001Z, FRP 10.89 MW", "date": "2026-08-21", "severity": 5, "source": "firms"}}, {"type": "Feature", "geometry": {"type": "Point", "coordinates": [31.67247, 45.25753]}, "properties": {"title": "FIRMS 7.76MW", "summary": "VIIRS S-NPP NRT, sat N, acquired 2026-08-21 0003Z, FRP 7.76 MW", "date": "2026-08-21", "severity": 3, "source": "firms"}}, {"type": "Feature", "geometry": {"type": "Point", "coordinates": [23.11915, 44.40765]}, "properties": {"title": "FIRMS 7.94MW", "summary": "VIIRS S-NPP NRT, sat N, acquired 2026-08-21 0003Z, FRP 7.94 MW", "date": "2026-08-21", "severity": 3, "source": "firms"}}, {"type": "Feature", "geometry": {"type": "Point", "coordinates": [28.74916, 51.41199]}, "properties": {"title": "FIRMS 6.36MW", "summary": "VIIRS S-NPP NRT, sat N, acquired 2026-08-21 0143Z, FRP 6.36 MW", "date": "2026-08-21", "severity": 3, "source": "firms"}}, {"type": "Feature", "geometry": {"type": "Point", "coordinates": [28.7426, 51.41433]}, "properties": {"title": "FIRMS 11.44MW", "summary": "VIIRS S-NPP NRT, sat N, acquired 2026-08-21 0143Z, FRP 11.44 MW", "date": "2026-08-21", "severity": 5, "source": "firms"}}, {"type": "Feature", "geometry": {"type": "Point", "coordinates": [28.75568, 51.40966]}, "properties": {"title": "FIRMS 6.36MW", "summary": "VIIRS S-NPP NRT, sat N, acquired 2026-08-21 0143Z, FRP 6.36 MW", "date": "2026-08-21", "severity": 3, "source": "firms"}}, {"type": "Feature", "geometry": {"type": "Point", "coordinates": [28.74434, 51.40657]}, "properties": {"title": "FIRMS 6.36MW", "summary": "VIIRS S-NPP NRT, sat N, acquired 2026-08-21 0143Z, FRP 6.36 MW", "date": "2026-08-21", "severity": 3, "source": "firms"}}, {"type": "Feature", "geometry": {"type": "Point", "coordinates": [28.74446, 51.41391]}, "properties": {"title": "FIRMS 11.53MW", "summary": "VIIRS S-NPP NRT, sat N, acquired 2026-08-21 0143Z, FRP 11.53 MW", "date": "2026-08-21", "severity": 5, "source": "firms"}}, {"type": "Feature", "geometry": {"type": "Point", "coordinates": [28.75105, 51.41159]}, "properties": {"title": "FIRMS 11.53MW", "summary": "VIIRS S-NPP NRT, sat N, acquired 2026-08-21 0143Z, FRP 11.53 MW", "date": "2026-08-21", "severity": 5, "source": "firms"}}]}