{
  "type": "FeatureCollection",
  "features": [
    {
      "type": "Feature",
      "geometry": {
        "type": "Point",
        "coordinates": [
          56.27,
          26.57
        ]
      },
      "properties": {
        "title": "US-Iran Strait of Hormuz Military Exchange",
        "summary": "US CENTCOM strikes 300+ Iranian military targets over 3 nights. Iran IRGC struck two supertankers. Ceasefire declared over. Brent crude +9%.",
        "date": "2026-07-14",
        "severity": 9,
        "source": "uscentcom"
      }
    },
    {
      "type": "Feature",
      "geometry": {
        "type": "Point",
        "coordinates": [
          36.29,
          33.51
        ]
      },
      "properties": {
        "title": "Damascus Bombings During Macron Visit",
        "summary": "Two explosions near Four Seasons Hotel, 18 wounded. Macron unharmed; signed 16 agreements with al-Sharaa.",
        "date": "2026-07-07",
        "severity": 6,
        "source": "acled"
      }
    },
    {
      "type": "Feature",
      "geometry": {
        "type": "Point",
        "coordinates": [
          37.71,
          48.54
        ]
      },
      "properties": {
        "title": "Kostyantynivka - Russian Infiltration Offensive",
        "summary": "Russian forces advancing ~50m/day via urban infiltration tactics. Frontline contested.",
        "date": "2026-07-14",
        "severity": 7,
        "source": "acled"
      }
    },
    {
      "type": "Feature",
      "geometry": {
        "type": "Point",
        "coordinates": [
          36.31,
          49.99
        ]
      },
      "properties": {
        "title": "Kharkiv KAB Strike",
        "summary": "Russian guided aerial bombs (KABs) hit Kharkiv: 1 killed, 6 wounded, vehicles destroyed.",
        "date": "2026-07-07",
        "severity": 6,
        "source": "acled"
      }
    },
    {
      "type": "Feature",
      "geometry": {
        "type": "Point",
        "coordinates": [
          -82.62,
          36.03
        ]
      },
      "properties": {
        "title": "US PACOM VIP Flight PAT636",
        "summary": "US military transport (PACOM) airborne over Tennessee-North Carolina border.",
        "date": "2026-07-07",
        "severity": 2,
        "source": "acled"
      }
    },
    {
      "type": "Feature",
      "geometry": {
        "type": "Point",
        "coordinates": [
          30.22,
          13.18
        ]
      },
      "properties": {
        "title": "El-Obeid Siege - North Kordofan Sudan",
        "summary": "500,000 people trapped as RSF besieges North Kordofan capital. UN warns of imminent catastrophe.",
        "date": "2026-07-07",
        "severity": 8,
        "source": "acled"
      }
    },
    {
      "type": "Feature",
      "geometry": {
        "type": "Point",
        "coordinates": [
          168.0,
          -22.3
        ]
      },
      "properties": {
        "title": "M6.3 Earthquake - Loyalty Islands",
        "summary": "Magnitude 6.3 earthquake southeast of Loyalty Islands, depth 10km. GDACS Green.",
        "date": "2026-07-13",
        "severity": 4,
        "source": "usgs"
      }
    },
    {
      "type": "Feature",
      "geometry": {
        "type": "Point",
        "coordinates": [
          147.1,
          -6.1
        ]
      },
      "properties": {
        "title": "M6.4 Earthquake - Papua New Guinea",
        "summary": "Magnitude 6.4 earthquake, depth 10km, Papua New Guinea. GDACS Green.",
        "date": "2026-07-13",
        "severity": 4,
        "source": "usgs"
      }
    },
    {
      "type": "Feature",
      "geometry": {
        "type": "Point",
        "coordinates": [
          121.6,
          28.1
        ]
      },
      "properties": {
        "title": "Super Typhoon Bavi Landfall - Zhejiang, China",
        "summary": "Category 5-equivalent typhoon made landfall near Yuhuan July 11. 18 killed in Philippines, landfall winds 144 km/h.",
        "date": "2026-07-11",
        "severity": 7,
        "source": "gdacs"
      }
    },
    {
      "type": "Feature",
      "geometry": {
        "type": "Point",
        "coordinates": [
          3.2,
          44.1
        ]
      },
      "properties": {
        "title": "Orange Wildfire - Southern France",
        "summary": "GDACS Orange wildfire alert: 2,266 hectares affected in southern France.",
        "date": "2026-07-14",
        "severity": 5,
        "source": "gdacs"
      }
    },
    {
      "type": "Feature",
      "geometry": {
        "type": "Point",
        "coordinates": [
          55.33,
          25.22
        ]
      },
      "properties": {
        "title": "UAE Tanker Attacks - Omani Waters",
        "summary": "Iranian missiles hit two UAE tankers in Omani territorial waters. One crew member killed.",
        "date": "2026-07-13",
        "severity": 8,
        "source": "gdacs"
      }
    },
    {
      "type": "Feature",
      "geometry": {
        "type": "Point",
        "coordinates": [
          37.48,
          55.75
        ]
      },
      "properties": {
        "title": "430+ Ukrainian Drones - Moscow Region",
        "summary": "Ukraine launched 430+ drones toward Moscow region. Mayor Sobyanin confirmed. Intercepted by Moscow air defense.",
        "date": "2026-07-07",
        "severity": 7,
        "source": "acled"
      }
    }
  ]
}