{"type": "FeatureCollection", "features": [{"type": "Feature", "geometry": {"type": "Point", "coordinates": [25.1069, 45.29236]}, "properties": {"title": "FIRMS thermal anomaly FRP=0.87MW", "summary": "VIIRS S-NPP NRT, sat N, acquired 2026-06-02 2341Z, FRP 0.87 MW", "date": "2026-06-02", "severity": 1, "source": "firms"}}, {"type": "Feature", "geometry": {"type": "Point", "coordinates": [25.11104, 45.29215]}, "properties": {"title": "FIRMS thermal anomaly FRP=0.51MW", "summary": "VIIRS S-NPP NRT, sat N, acquired 2026-06-02 2341Z, FRP 0.51 MW", "date": "2026-06-02", "severity": 1, "source": "firms"}}, {"type": "Feature", "geometry": {"type": "Point", "coordinates": [25.10958, 45.2952]}, "properties": {"title": "FIRMS thermal anomaly FRP=1.04MW", "summary": "VIIRS S-NPP NRT, sat N, acquired 2026-06-02 2341Z, FRP 1.04 MW", "date": "2026-06-02", "severity": 2, "source": "firms"}}, {"type": "Feature", "geometry": {"type": "Point", "coordinates": [29.98781, 52.8491]}, "properties": {"title": "FIRMS thermal anomaly FRP=2.77MW", "summary": "VIIRS S-NPP NRT, sat N, acquired 2026-06-02 2339Z, FRP 2.77 MW", "date": "2026-06-02", "severity": 3, "source": "firms"}}, {"type": "Feature", "geometry": {"type": "Point", "coordinates": [31.86725, 52.70078]}, "properties": {"title": "FIRMS thermal anomaly FRP=0.8MW", "summary": "VIIRS S-NPP NRT, sat N, acquired 2026-06-02 2339Z, FRP 0.8 MW", "date": "2026-06-02", "severity": 1, "source": "firms"}}, {"type": "Feature", "geometry": {"type": "Point", "coordinates": [33.9538, 52.36124]}, "properties": {"title": "FIRMS thermal anomaly FRP=1.23MW", "summary": "VIIRS S-NPP NRT, sat N, acquired 2026-06-02 2339Z, FRP 1.23 MW", "date": "2026-06-02", "severity": 2, "source": "firms"}}, {"type": "Feature", "geometry": {"type": "Point", "coordinates": [32.80696, 52.29799]}, "properties": {"title": "FIRMS thermal anomaly FRP=1.12MW", "summary": "VIIRS S-NPP NRT, sat N, acquired 2026-06-02 2339Z, FRP 1.12 MW", "date": "2026-06-02", "severity": 2, "source": "firms"}}, {"type": "Feature", "geometry": {"type": "Point", "coordinates": [34.20376, 51.97676]}, "properties": {"title": "FIRMS thermal anomaly FRP=1.11MW", "summary": "VIIRS S-NPP NRT, sat N, acquired 2026-06-02 2339Z, FRP 1.11 MW", "date": "2026-06-02", "severity": 2, "source": "firms"}}, {"type": "Feature", "geometry": {"type": "Point", "coordinates": [32.28868, 52.01895]}, "properties": {"title": "FIRMS thermal anomaly FRP=2.63MW", "summary": "VIIRS S-NPP NRT, sat N, acquired 2026-06-02 2339Z, FRP 2.63 MW", "date": "2026-06-02", "severity": 3, "source": "firms"}}, {"type": "Feature", "geometry": {"type": "Point", "coordinates": [34.22085, 51.81092]}, "properties": {"title": "FIRMS thermal anomaly FRP=1.43MW", "summary": "VIIRS S-NPP NRT, sat N, acquired 2026-06-02 2339Z, FRP 1.43 MW", "date": "2026-06-02", "severity": 2, "source": "firms"}}, {"type": "Feature", "geometry": {"type": "Point", "coordinates": [34.19143, 51.73288]}, "properties": {"title": "FIRMS thermal anomaly FRP=1.15MW", "summary": "VIIRS S-NPP NRT, sat N, acquired 2026-06-02 2339Z, FRP 1.15 MW", "date": "2026-06-02", "severity": 2, "source": "firms"}}, {"type": "Feature", "geometry": {"type": "Point", "coordinates": [29.34004, 51.89678]}, "properties": {"title": "FIRMS thermal anomaly FRP=1.47MW", "summary": "VIIRS S-NPP NRT, sat N, acquired 2026-06-02 2339Z, FRP 1.47 MW", "date": "2026-06-02", "severity": 2, "source": "firms"}}, {"type": "Feature", "geometry": {"type": "Point", "coordinates": [29.33921, 51.89231]}, "properties": {"title": "FIRMS thermal anomaly FRP=2.28MW", "summary": "VIIRS S-NPP NRT, sat N, acquired 2026-06-02 2339Z, FRP 2.28 MW", "date": "2026-06-02", "severity": 3, "source": "firms"}}, {"type": "Feature", "geometry": {"type": "Point", "coordinates": [29.34122, 51.89533]}, "properties": {"title": "FIRMS thermal anomaly FRP=2.23MW", "summary": "VIIRS S-NPP NRT, sat N, acquired 2026-06-02 2339Z, FRP 2.23 MW", "date": "2026-06-02", "severity": 3, "source": "firms"}}, {"type": "Feature", "geometry": {"type": "Point", "coordinates": [29.33324, 51.89137]}, "properties": {"title": "FIRMS thermal anomaly FRP=2.53MW", "summary": "VIIRS S-NPP NRT, sat N, acquired 2026-06-02 2339Z, FRP 2.53 MW", "date": "2026-06-02", "severity": 3, "source": "firms"}}, {"type": "Feature", "geometry": {"type": "Point", "coordinates": [34.87664, 51.24165]}, "properties": {"title": "FIRMS thermal anomaly FRP=1.21MW", "summary": "VIIRS S-NPP NRT, sat N, acquired 2026-06-02 2339Z, FRP 1.21 MW", "date": "2026-06-02", "severity": 2, "source": "firms"}}, {"type": "Feature", "geometry": {"type": "Point", "coordinates": [34.87023, 51.19832]}, "properties": {"title": "FIRMS thermal anomaly FRP=0.84MW", "summary": "VIIRS S-NPP NRT, sat N, acquired 2026-06-02 2339Z, FRP 0.84 MW", "date": "2026-06-02", "severity": 1, "source": "firms"}}, {"type": "Feature", "geometry": {"type": "Point", "coordinates": [30.11338, 51.43661]}, "properties": {"title": "FIRMS thermal anomaly FRP=0.99MW", "summary": "VIIRS S-NPP NRT, sat N, acquired 2026-06-02 2339Z, FRP 0.99 MW", "date": "2026-06-02", "severity": 1, "source": "firms"}}, {"type": "Feature", "geometry": {"type": "Point", "coordinates": [34.50594, 50.30849]}, "properties": {"title": "FIRMS thermal anomaly FRP=0.37MW", "summary": "VIIRS S-NPP NRT, sat N, acquired 2026-06-02 2339Z, FRP 0.37 MW", "date": "2026-06-02", "severity": 1, "source": "firms"}}, {"type": "Feature", "geometry": {"type": "Point", "coordinates": [34.75816, 50.18082]}, "properties": {"title": "FIRMS thermal anomaly FRP=0.73MW", "summary": "VIIRS S-NPP NRT, sat N, acquired 2026-06-02 2339Z, FRP 0.73 MW", "date": "2026-06-02", "severity": 1, "source": "firms"}}, {"type": "Feature", "geometry": {"type": "Point", "coordinates": [33.68312, 46.89703]}, "properties": {"title": "FIRMS thermal anomaly FRP=0.7MW", "summary": "VIIRS S-NPP NRT, sat N, acquired 2026-06-02 2341Z, FRP 0.7 MW", "date": "2026-06-02", "severity": 1, "source": "firms"}}, {"type": "Feature", "geometry": {"type": "Point", "coordinates": [29.9909, 52.85106]}, "properties": {"title": "FIRMS thermal anomaly FRP=1.35MW", "summary": "VIIRS S-NPP NRT, sat N, acquired 2026-06-03 0120Z, FRP 1.35 MW", "date": "2026-06-03", "severity": 2, "source": "firms"}}, {"type": "Feature", "geometry": {"type": "Point", "coordinates": [29.987, 52.84639]}, "properties": {"title": "FIRMS thermal anomaly FRP=1.15MW", "summary": "VIIRS S-NPP NRT, sat N, acquired 2026-06-03 0120Z, FRP 1.15 MW", "date": "2026-06-03", "severity": 2, "source": "firms"}}, {"type": "Feature", "geometry": {"type": "Point", "coordinates": [29.99162, 52.84497]}, "properties": {"title": "FIRMS thermal anomaly FRP=1.15MW", "summary": "VIIRS S-NPP NRT, sat N, acquired 2026-06-03 0120Z, FRP 1.15 MW", "date": "2026-06-03", "severity": 2, "source": "firms"}}, {"type": "Feature", "geometry": {"type": "Point", "coordinates": [29.34112, 51.89314]}, "properties": {"title": "FIRMS thermal anomaly FRP=1.6MW", "summary": "VIIRS S-NPP NRT, sat N, acquired 2026-06-03 0120Z, FRP 1.6 MW", "date": "2026-06-03", "severity": 2, "source": "firms"}}, {"type": "Feature", "geometry": {"type": "Point", "coordinates": [25.28243, 45.95195]}, "properties": {"title": "FIRMS thermal anomaly FRP=0.73MW", "summary": "VIIRS S-NPP NRT, sat N, acquired 2026-06-03 0122Z, FRP 0.73 MW", "date": "2026-06-03", "severity": 1, "source": "firms"}}, {"type": "Feature", "geometry": {"type": "Point", "coordinates": [25.28183, 45.95332]}, "properties": {"title": "FIRMS thermal anomaly FRP=0.58MW", "summary": "VIIRS S-NPP NRT, sat N, acquired 2026-06-03 0122Z, FRP 0.58 MW", "date": "2026-06-03", "severity": 1, "source": "firms"}}, {"type": "Feature", "geometry": {"type": "Point", "coordinates": [25.41591, 45.1253]}, "properties": {"title": "FIRMS thermal anomaly FRP=0.77MW", "summary": "VIIRS S-NPP NRT, sat N, acquired 2026-06-03 0122Z, FRP 0.77 MW", "date": "2026-06-03", "severity": 1, "source": "firms"}}, {"type": "Feature", "geometry": {"type": "Point", "coordinates": [25.42073, 45.12387]}, "properties": {"title": "FIRMS thermal anomaly FRP=0.77MW", "summary": "VIIRS S-NPP NRT, sat N, acquired 2026-06-03 0122Z, FRP 0.77 MW", "date": "2026-06-03", "severity": 1, "source": "firms"}}, {"type": "Feature", "geometry": {"type": "Point", "coordinates": [25.41969, 45.12365]}, "properties": {"title": "FIRMS thermal anomaly FRP=1.21MW", "summary": "VIIRS S-NPP NRT, sat N, acquired 2026-06-03 0122Z, FRP 1.21 MW", "date": "2026-06-03", "severity": 2, "source": "firms"}}, {"type": "Feature", "geometry": {"type": "Point", "coordinates": [28.6642, 44.34611]}, "properties": {"title": "FIRMS thermal anomaly FRP=3.35MW", "summary": "VIIRS S-NPP NRT, sat N, acquired 2026-06-03 1108Z, FRP 3.35 MW", "date": "2026-06-03", "severity": 4, "source": "firms"}}, {"type": "Feature", "geometry": {"type": "Point", "coordinates": [24.30656, 49.75143]}, "properties": {"title": "FIRMS thermal anomaly FRP=5.84MW", "summary": "VIIRS S-NPP NRT, sat N, acquired 2026-06-03 1108Z, FRP 5.84 MW", "date": "2026-06-03", "severity": 6, "source": "firms"}}, {"type": "Feature", "geometry": {"type": "Point", "coordinates": [24.22153, 50.35191]}, "properties": {"title": "FIRMS thermal anomaly FRP=2.64MW", "summary": "VIIRS S-NPP NRT, sat N, acquired 2026-06-03 1110Z, FRP 2.64 MW", "date": "2026-06-03", "severity": 3, "source": "firms"}}, {"type": "Feature", "geometry": {"type": "Point", "coordinates": [-126.1861, 41.8967]}, "properties": {"title": "M 5.7 - 154 km WSW of Pistol River, Oregon", "summary": "M5.7 \u00b7 154 km WSW of Pistol River, Oregon \u00b7 depth 10 km", "date": "2026-06-03", "severity": 5, "source": "usgs"}}, {"type": "Feature", "geometry": {"type": "Point", "coordinates": [173.0405, -20.4457]}, "properties": {"title": "M 5.6 - Vanuatu region", "summary": "M5.6 \u00b7 Vanuatu region \u00b7 depth 10 km", "date": "2026-06-03", "severity": 5, "source": "usgs"}}, {"type": "Feature", "geometry": {"type": "Point", "coordinates": [159.6858, 51.2954]}, "properties": {"title": "M 5.2 - 202 km SSE of Vilyuchinsk, Russia", "summary": "M5.2 \u00b7 202 km SSE of Vilyuchinsk, Russia \u00b7 depth 10 km", "date": "2026-06-03", "severity": 4, "source": "usgs"}}, {"type": "Feature", "geometry": {"type": "Point", "coordinates": [-74.2436, -8.2012]}, "properties": {"title": "M 5.2 - 39 km NE of San Fernando, Peru", "summary": "M5.2 \u00b7 39 km NE of San Fernando, Peru \u00b7 depth 139.126 km", "date": "2026-06-03", "severity": 4, "source": "usgs"}}, {"type": "Feature", "geometry": {"type": "Point", "coordinates": [-125.017833333333, 40.3646666666667]}, "properties": {"title": "M 5.1 - 62 km W of Petrolia, CA", "summary": "M5.1 \u00b7 62 km W of Petrolia, CA \u00b7 depth 10 km", "date": "2026-06-03", "severity": 4, "source": "usgs"}}, {"type": "Feature", "geometry": {"type": "Point", "coordinates": [72.278, 38.8658]}, "properties": {"title": "M 5.1 - 76 km S of Daroot-Korgon, Kyrgyzstan", "summary": "M5.1 \u00b7 76 km S of Daroot-Korgon, Kyrgyzstan \u00b7 depth 10 km", "date": "2026-06-03", "severity": 4, "source": "usgs"}}, {"type": "Feature", "geometry": {"type": "Point", "coordinates": [120.1585, -8.0365]}, "properties": {"title": "M 4.9 - 58 km NNE of Labuan Bajo, Indonesia", "summary": "M4.9 \u00b7 58 km NNE of Labuan Bajo, Indonesia \u00b7 depth 178.883 km", "date": "2026-06-03", "severity": 3, "source": "usgs"}}, {"type": "Feature", "geometry": {"type": "Point", "coordinates": [-129.4552, -25.0893]}, "properties": {"title": "M 4.9 - Pitcairn Islands region", "summary": "M4.9 \u00b7 Pitcairn Islands region \u00b7 depth 10 km", "date": "2026-06-03", "severity": 3, "source": "usgs"}}, {"type": "Feature", "geometry": {"type": "Point", "coordinates": [-2.5209, 83.8038]}, "properties": {"title": "M 4.8 - north of Svalbard", "summary": "M4.8 \u00b7 north of Svalbard \u00b7 depth 10 km", "date": "2026-06-03", "severity": 3, "source": "usgs"}}, {"type": "Feature", "geometry": {"type": "Point", "coordinates": [129.4691, 29.7153]}, "properties": {"title": "M 4.7 - 110 km SW of Kurio, Japan", "summary": "M4.7 \u00b7 110 km SW of Kurio, Japan \u00b7 depth 161.24 km", "date": "2026-06-03", "severity": 3, "source": "usgs"}}, {"type": "Feature", "geometry": {"type": "Point", "coordinates": [159.6419, 51.4846]}, "properties": {"title": "M 4.7 - 181 km SSE of Vilyuchinsk, Russia", "summary": "M4.7 \u00b7 181 km SSE of Vilyuchinsk, Russia \u00b7 depth 25.672 km", "date": "2026-06-03", "severity": 3, "source": "usgs"}}, {"type": "Feature", "geometry": {"type": "Point", "coordinates": [159.2052, 51.7493]}, "properties": {"title": "M 4.7 - 142 km SSE of Vilyuchinsk, Russia", "summary": "M4.7 \u00b7 142 km SSE of Vilyuchinsk, Russia \u00b7 depth 61.892 km", "date": "2026-06-03", "severity": 3, "source": "usgs"}}, {"type": "Feature", "geometry": {"type": "Point", "coordinates": [142.1149, 29.2221]}, "properties": {"title": "M 4.6 - Izu Islands, Japan region", "summary": "M4.6 \u00b7 Izu Islands, Japan region \u00b7 depth 10 km", "date": "2026-06-03", "severity": 3, "source": "usgs"}}, {"type": "Feature", "geometry": {"type": "Point", "coordinates": [157.2585, 50.9824]}, "properties": {"title": "M 4.6 - 77 km SE of Ozernovskiy, Russia", "summary": "M4.6 \u00b7 77 km SE of Ozernovskiy, Russia \u00b7 depth 62.18 km", "date": "2026-06-03", "severity": 3, "source": "usgs"}}, {"type": "Feature", "geometry": {"type": "Point", "coordinates": [-80.6784, 7.4667]}, "properties": {"title": "M 4.6 - 6 km NW of El Cortezo, Panama", "summary": "M4.6 \u00b7 6 km NW of El Cortezo, Panama \u00b7 depth 10 km", "date": "2026-06-03", "severity": 3, "source": "usgs"}}, {"type": "Feature", "geometry": {"type": "Point", "coordinates": [-156.016333333333, 19.5881666666667]}, "properties": {"title": "M 4.6 - 6 km WNW of Kahaluu-Keauhou, Hawaii", "summary": "M4.57 \u00b7 6 km WNW of Kahaluu-Keauhou, Hawaii \u00b7 depth 34.01 km", "date": "2026-06-03", "severity": 3, "source": "usgs"}}, {"type": "Feature", "geometry": {"type": "Point", "coordinates": [-125.045669555664, 40.3621673583984]}, "properties": {"title": "M 4.5 - 65 km W of Petrolia, CA", "summary": "M4.47 \u00b7 65 km W of Petrolia, CA \u00b7 depth 0.469999998807907 km", "date": "2026-06-03", "severity": 2, "source": "usgs"}}]}