{
  "type": "FeatureCollection",
  "features": [
    {
      "type": "Feature",
      "geometry": {
        "type": "Point",
        "coordinates": [
          -70.8,
          -30.5
        ]
      },
      "properties": {
        "title": "Earthquake M5.8 - Chile",
        "summary": "M5.8 earthquake, GDACS Green alert",
        "date": "2026-07-07",
        "severity": 4,
        "source": "gdacs"
      }
    },
    {
      "type": "Feature",
      "geometry": {
        "type": "Point",
        "coordinates": [
          120.5,
          16.3
        ]
      },
      "properties": {
        "title": "Earthquake M5.8 - Philippines (Luzon)",
        "summary": "M5.8 earthquake, GDACS Green alert",
        "date": "2026-07-06",
        "severity": 4,
        "source": "gdacs"
      }
    },
    {
      "type": "Feature",
      "geometry": {
        "type": "Point",
        "coordinates": [
          178.5,
          -20.5
        ]
      },
      "properties": {
        "title": "Earthquake M5.8 - Fiji Region (deep)",
        "summary": "M5.8 earthquake, GDACS Green alert",
        "date": "2026-07-05",
        "severity": 3,
        "source": "gdacs"
      }
    },
    {
      "type": "Feature",
      "geometry": {
        "type": "Point",
        "coordinates": [
          36.23,
          49.99
        ]
      },
      "properties": {
        "title": "Drone strike - Kharkiv district",
        "summary": "Drone strike - Kharkiv district",
        "date": "2026-07-04",
        "severity": 5,
        "source": "acled"
      }
    },
    {
      "type": "Feature",
      "geometry": {
        "type": "Point",
        "coordinates": [
          35.2,
          47.82
        ]
      },
      "properties": {
        "title": "Russian glide bombs - Zaporizhzhia",
        "summary": "Russian glide bombs - Zaporizhzhia",
        "date": "2026-07-04",
        "severity": 6,
        "source": "acled"
      }
    },
    {
      "type": "Feature",
      "geometry": {
        "type": "Point",
        "coordinates": [
          30.52,
          50.45
        ]
      },
      "properties": {
        "title": "Ballistic missile attack - Kyiv",
        "summary": "Ballistic missile attack - Kyiv",
        "date": "2026-07-06",
        "severity": 8,
        "source": "acled"
      }
    },
    {
      "type": "Feature",
      "geometry": {
        "type": "Point",
        "coordinates": [
          33.39,
          47.9
        ]
      },
      "properties": {
        "title": "Russian strikes - Bilenke",
        "summary": "Russian strikes - Bilenke",
        "date": "2026-07-03",
        "severity": 5,
        "source": "acled"
      }
    },
    {
      "type": "Feature",
      "geometry": {
        "type": "Point",
        "coordinates": [
          37.6,
          48.86
        ]
      },
      "properties": {
        "title": "Perviy Zavod refinery drone strike - Kaluga",
        "summary": "Perviy Zavod refinery drone strike - Kaluga",
        "date": "2026-07-06",
        "severity": 6,
        "source": "acled"
      }
    },
    {
      "type": "Feature",
      "geometry": {
        "type": "Point",
        "coordinates": [
          33.52,
          44.6
        ]
      },
      "properties": {
        "title": "Power blackout - Sevastopol (Crimea)",
        "summary": "Power blackout - Sevastopol (Crimea)",
        "date": "2026-07-05",
        "severity": 5,
        "source": "acled"
      }
    },
    {
      "type": "Feature",
      "geometry": {
        "type": "Point",
        "coordinates": [
          35.62,
          33.55
        ]
      },
      "properties": {
        "title": "Israeli airstrike - Deir Seryan, Lebanon",
        "summary": "Israeli airstrike - Deir Seryan, Lebanon",
        "date": "2026-07-05",
        "severity": 6,
        "source": "acled"
      }
    },
    {
      "type": "Feature",
      "geometry": {
        "type": "Point",
        "coordinates": [
          39.05,
          35.92
        ]
      },
      "properties": {
        "title": "ISIS attack thwarted - Raqqa HQ, Syria",
        "summary": "ISIS attack thwarted - Raqqa HQ, Syria",
        "date": "2026-07-05",
        "severity": 5,
        "source": "acled"
      }
    },
    {
      "type": "Feature",
      "geometry": {
        "type": "Point",
        "coordinates": [
          15.0,
          37.73
        ]
      },
      "properties": {
        "title": "Etna volcanic eruption ongoing (Italy)",
        "summary": "GDACS: Volcanic eruption ongoing at Etna",
        "date": "2026-07-07",
        "severity": 4,
        "source": "gdacs"
      }
    },
    {
      "type": "Feature",
      "geometry": {
        "type": "Point",
        "coordinates": [
          -68.5,
          10.4
        ]
      },
      "properties": {
        "title": "Venezuela earthquake sequence - death toll 3500+",
        "summary": "Multiple quakes; death toll reported passing 3,500",
        "date": "2026-07-06",
        "severity": 9,
        "source": "usgs"
      }
    }
  ]
}